{
  "type": "FeatureCollection",
  "name": "san-bartolome-de-tirajana-neighborhoods",
  "metadata": {
    "schemaVersion": 1,
    "cityId": "san-bartolome-de-tirajana",
    "cityName": "San Bartolome De Tirajana",
    "representative": false,
    "source": "Núcleos turísticos 2014 — Instituto Canario de Estadística (ISTAC), Gobierno de Canarias (atribución)"
  },
  "features": [
    {
      "type": "Feature",
      "properties": {
        "id": "bahia-feliz-playa-del-aguila",
        "name": "Bahía Feliz - Playa del Águila",
        "cityId": "san-bartolome-de-tirajana"
      },
      "geometry": {
        "type": "MultiPolygon",
        "coordinates": [
          [
            [
              [-15.532803, 27.771938],
              [-15.532814, 27.771941],
              [-15.532824, 27.771944],
              [-15.532834, 27.771949],
              [-15.532842, 27.771955],
              [-15.532851, 27.771961],
              [-15.532859, 27.771967],
              [-15.532864, 27.771975],
              [-15.532872, 27.771981],
              [-15.532882, 27.771986],
              [-15.532901, 27.771989],
              [-15.533426, 27.772238],
              [-15.534313, 27.772592],
              [-15.536128, 27.772944],
              [-15.536371, 27.773337],
              [-15.537023, 27.774732],
              [-15.53771, 27.775302],
              [-15.539251, 27.776315],
              [-15.540749, 27.77734],
              [-15.542722, 27.778794],
              [-15.542869, 27.778899],
              [-15.543023, 27.778991],
              [-15.542643, 27.779253],
              [-15.542193, 27.77951],
              [-15.541923, 27.779667],
              [-15.541307, 27.779977],
              [-15.540803, 27.780192],
              [-15.540261, 27.780392],
              [-15.539827, 27.780542],
              [-15.539417, 27.780653],
              [-15.538979, 27.780765],
              [-15.538735, 27.780823],
              [-15.538507, 27.780874],
              [-15.538263, 27.780928],
              [-15.537971, 27.780989],
              [-15.537732, 27.781054],
              [-15.537421, 27.781144],
              [-15.537182, 27.781216],
              [-15.53659, 27.781438],
              [-15.536164, 27.781624],
              [-15.535765, 27.781809],
              [-15.53551, 27.781949],
              [-15.535315, 27.78204],
              [-15.535108, 27.782141],
              [-15.534859, 27.78225],
              [-15.534521, 27.782404],
              [-15.534023, 27.782609],
              [-15.533481, 27.782814],
              [-15.532975, 27.782959],
              [-15.532543, 27.783073],
              [-15.532175, 27.783151],
              [-15.532003, 27.783178],
              [-15.53133, 27.783269],
              [-15.530839, 27.783319],
              [-15.53028, 27.783352],
              [-15.529955, 27.783355],
              [-15.529749, 27.783363],
              [-15.529415, 27.783355],
              [-15.529257, 27.783346],
              [-15.528988, 27.783342],
              [-15.528723, 27.783334],
              [-15.528376, 27.783321],
              [-15.528062, 27.783334],
              [-15.527707, 27.783343],
              [-15.527321, 27.783385],
              [-15.526916, 27.783439],
              [-15.526626, 27.783495],
              [-15.526435, 27.783543],
              [-15.526089, 27.783631],
              [-15.525545, 27.783807],
              [-15.525081, 27.784002],
              [-15.524688, 27.78419],
              [-15.524532, 27.784269],
              [-15.524139, 27.784505],
              [-15.52382, 27.784707],
              [-15.52355, 27.784897],
              [-15.523212, 27.78511],
              [-15.52291, 27.785307],
              [-15.522778, 27.78538],
              [-15.522575, 27.785507],
              [-15.522256, 27.785692],
              [-15.521836, 27.785909],
              [-15.521289, 27.786164],
              [-15.520825, 27.786364],
              [-15.520544, 27.786475],
              [-15.519981, 27.786678],
              [-15.519504, 27.786832],
              [-15.519066, 27.786951],
              [-15.518787, 27.787021],
              [-15.518433, 27.787094],
              [-15.518165, 27.787155],
              [-15.517915, 27.787192],
              [-15.517623, 27.787243],
              [-15.517207, 27.787304],
              [-15.516675, 27.787359],
              [-15.516181, 27.787389],
              [-15.515577, 27.787406],
              [-15.51512, 27.787388],
              [-15.514916, 27.787392],
              [-15.514546, 27.787381],
              [-15.51403, 27.787359],
              [-15.5136, 27.787342],
              [-15.513205, 27.787329],
              [-15.512837, 27.787309],
              [-15.512563, 27.787295],
              [-15.512389, 27.787289],
              [-15.512316, 27.787267],
              [-15.512125, 27.787263],
              [-15.511964, 27.787262],
              [-15.511717, 27.787251],
              [-15.510839, 27.787271],
              [-15.510358, 27.787299],
              [-15.509886, 27.787341],
              [-15.509473, 27.787388],
              [-15.508936, 27.787469],
              [-15.508354, 27.787588],
              [-15.508195, 27.787605],
              [-15.508214, 27.787715],
              [-15.508191, 27.787899],
              [-15.508103, 27.788088],
              [-15.508007, 27.788212],
              [-15.507906, 27.788294],
              [-15.507817, 27.788388],
              [-15.507667, 27.78846],
              [-15.507533, 27.788501],
              [-15.50734, 27.788525],
              [-15.507195, 27.788526],
              [-15.506961, 27.788486],
              [-15.506776, 27.78843],
              [-15.506496, 27.788321],
              [-15.506302, 27.788257],
              [-15.506138, 27.788227],
              [-15.505971, 27.788198],
              [-15.505684, 27.788216],
              [-15.505314, 27.788287],
              [-15.50518, 27.788306],
              [-15.505047, 27.787958],
              [-15.505974, 27.787556],
              [-15.505747, 27.787232],
              [-15.505474, 27.786836],
              [-15.50532, 27.786612],
              [-15.504995, 27.786138],
              [-15.504525, 27.785433],
              [-15.504185, 27.785262],
              [-15.503595, 27.785353],
              [-15.503369, 27.78537],
              [-15.502471, 27.784552],
              [-15.502523, 27.784478],
              [-15.502567, 27.784126],
              [-15.503202, 27.783654],
              [-15.503251, 27.783195],
              [-15.505847, 27.782172],
              [-15.507227, 27.781419],
              [-15.508243, 27.780524],
              [-15.50873, 27.780314],
              [-15.509698, 27.780251],
              [-15.510431, 27.780585],
              [-15.511583, 27.780388],
              [-15.512293, 27.78111],
              [-15.513681, 27.781856],
              [-15.514285, 27.781956],
              [-15.514939, 27.781747],
              [-15.516456, 27.781839],
              [-15.51757, 27.781448],
              [-15.517731, 27.781362],
              [-15.51864, 27.780942],
              [-15.519283, 27.780849],
              [-15.523034, 27.779223],
              [-15.523572, 27.778892],
              [-15.524851, 27.777637],
              [-15.525555, 27.77754],
              [-15.525831, 27.777254],
              [-15.525962, 27.777354],
              [-15.526443, 27.777216],
              [-15.52757, 27.776602],
              [-15.52925, 27.775289],
              [-15.529411, 27.774936],
              [-15.529312, 27.774531],
              [-15.529567, 27.774418],
              [-15.529866, 27.773899],
              [-15.530134, 27.77401],
              [-15.530429, 27.773862],
              [-15.53104, 27.773884],
              [-15.531733, 27.773263],
              [-15.531662, 27.773135],
              [-15.531906, 27.773262],
              [-15.532275, 27.772825],
              [-15.532765, 27.772583],
              [-15.533028, 27.772129],
              [-15.532803, 27.771938]
            ]
          ]
        ]
      }
    },
    {
      "type": "Feature",
      "properties": {
        "id": "campo-internacional",
        "name": "Campo Internacional",
        "cityId": "san-bartolome-de-tirajana"
      },
      "geometry": {
        "type": "MultiPolygon",
        "coordinates": [
          [
            [
              [-15.579775, 27.74982],
              [-15.581648, 27.749119],
              [-15.585401, 27.747984],
              [-15.588688, 27.747188],
              [-15.590297, 27.746825],
              [-15.591256, 27.746607],
              [-15.592716, 27.746103],
              [-15.593536, 27.745662],
              [-15.594917, 27.7453],
              [-15.596158, 27.744421],
              [-15.59673, 27.744191],
              [-15.598708, 27.743229],
              [-15.599258, 27.743012],
              [-15.599253, 27.743136],
              [-15.59931, 27.743198],
              [-15.599418, 27.743236],
              [-15.599517, 27.743209],
              [-15.599576, 27.74318],
              [-15.600823, 27.746014],
              [-15.600949, 27.746307],
              [-15.601079, 27.74664],
              [-15.601199, 27.74694],
              [-15.601251, 27.747076],
              [-15.601317, 27.74735],
              [-15.601346, 27.747835],
              [-15.601361, 27.748057],
              [-15.601395, 27.748401],
              [-15.601424, 27.748769],
              [-15.601479, 27.74905],
              [-15.601478, 27.74926],
              [-15.601452, 27.749406],
              [-15.601492, 27.749872],
              [-15.601541, 27.75049],
              [-15.601552, 27.750605],
              [-15.601596, 27.751171],
              [-15.601625, 27.751639],
              [-15.601648, 27.751942],
              [-15.601688, 27.752799],
              [-15.601626, 27.753232],
              [-15.601576, 27.753452],
              [-15.601554, 27.753513],
              [-15.601165, 27.754488],
              [-15.60058, 27.755908],
              [-15.599864, 27.757667],
              [-15.599355, 27.758858],
              [-15.5991, 27.759325],
              [-15.598726, 27.760151],
              [-15.59847, 27.760539],
              [-15.598166, 27.76092],
              [-15.597692, 27.761116],
              [-15.59692, 27.76137],
              [-15.595222, 27.761635],
              [-15.5935, 27.761936],
              [-15.592558, 27.762048],
              [-15.59144, 27.762246],
              [-15.589548, 27.762526],
              [-15.58814, 27.762805],
              [-15.587353, 27.763188],
              [-15.587097, 27.763318],
              [-15.586345, 27.762445],
              [-15.58572, 27.761606],
              [-15.58569, 27.761157],
              [-15.585828, 27.76084],
              [-15.585995, 27.760623],
              [-15.585835, 27.760391],
              [-15.585852, 27.760171],
              [-15.584869, 27.759755],
              [-15.584786, 27.75968],
              [-15.584488, 27.759424],
              [-15.584277, 27.758978],
              [-15.583451, 27.758193],
              [-15.583229, 27.757912],
              [-15.583087, 27.757517],
              [-15.583015, 27.757327],
              [-15.582175, 27.7558],
              [-15.581523, 27.754581],
              [-15.580777, 27.753037],
              [-15.580131, 27.751111],
              [-15.579883, 27.750233],
              [-15.579775, 27.74982]
            ]
          ]
        ]
      }
    },
    {
      "type": "Feature",
      "properties": {
        "id": "el-beril-las-burras",
        "name": "El Beril - Las Burras",
        "cityId": "san-bartolome-de-tirajana"
      },
      "geometry": {
        "type": "MultiPolygon",
        "coordinates": [
          [
            [
              [-15.552986, 27.765581],
              [-15.553356, 27.766262],
              [-15.553733, 27.766976],
              [-15.553978, 27.767391],
              [-15.554693, 27.768136],
              [-15.554992, 27.768268],
              [-15.555311, 27.768483],
              [-15.555922, 27.769054],
              [-15.555764, 27.76932],
              [-15.555624, 27.769733],
              [-15.555566, 27.770167],
              [-15.555523, 27.77096],
              [-15.555383, 27.771552],
              [-15.55515, 27.772367],
              [-15.554961, 27.772611],
              [-15.554417, 27.773163],
              [-15.553482, 27.773854],
              [-15.552581, 27.774344],
              [-15.551418, 27.774782],
              [-15.550445, 27.774965],
              [-15.550281, 27.774816],
              [-15.549988, 27.772888],
              [-15.549755, 27.771945],
              [-15.549818, 27.771002],
              [-15.549986, 27.770895],
              [-15.549831, 27.770724],
              [-15.549852, 27.770234],
              [-15.549924, 27.770001],
              [-15.549873, 27.76985],
              [-15.549734, 27.769775],
              [-15.549434, 27.76978],
              [-15.549264, 27.769702],
              [-15.549121, 27.769579],
              [-15.548972, 27.76911],
              [-15.548714, 27.769187],
              [-15.548495, 27.769239],
              [-15.548326, 27.76926],
              [-15.548206, 27.769213],
              [-15.548137, 27.769175],
              [-15.54814, 27.769059],
              [-15.548112, 27.768788],
              [-15.547414, 27.768644],
              [-15.547292, 27.768987],
              [-15.547032, 27.769231],
              [-15.546785, 27.769314],
              [-15.546562, 27.769325],
              [-15.546473, 27.769172],
              [-15.545994, 27.768906],
              [-15.545416, 27.768891],
              [-15.544695, 27.768637],
              [-15.544771, 27.768473],
              [-15.544827, 27.768154],
              [-15.544654, 27.768192],
              [-15.544496, 27.768135],
              [-15.5437, 27.767703],
              [-15.54322, 27.76749],
              [-15.543184, 27.767475],
              [-15.543458, 27.766974],
              [-15.543618, 27.766845],
              [-15.544132, 27.766991],
              [-15.544358, 27.766862],
              [-15.544244, 27.766706],
              [-15.544463, 27.766628],
              [-15.544742, 27.766964],
              [-15.545892, 27.766895],
              [-15.54643, 27.767155],
              [-15.546788, 27.766946],
              [-15.54695, 27.767107],
              [-15.547898, 27.767236],
              [-15.548072, 27.766918],
              [-15.548425, 27.766872],
              [-15.549661, 27.767383],
              [-15.551161, 27.766037],
              [-15.551257, 27.765564],
              [-15.551045, 27.765278],
              [-15.550743, 27.765356],
              [-15.55071, 27.765147],
              [-15.550867, 27.765016],
              [-15.551569, 27.765044],
              [-15.552448, 27.76576],
              [-15.552986, 27.765581]
            ]
          ]
        ]
      }
    },
    {
      "type": "Feature",
      "properties": {
        "id": "meloneras",
        "name": "Meloneras",
        "cityId": "san-bartolome-de-tirajana"
      },
      "geometry": {
        "type": "MultiPolygon",
        "coordinates": [
          [
            [
              [-15.619813, 27.748936],
              [-15.619831, 27.74895],
              [-15.620138, 27.749197],
              [-15.620648, 27.749576],
              [-15.621007, 27.749676],
              [-15.621191, 27.749714],
              [-15.621383, 27.749658],
              [-15.621593, 27.749533],
              [-15.621766, 27.749267],
              [-15.622037, 27.749204],
              [-15.622282, 27.749218],
              [-15.62258, 27.749217],
              [-15.62272, 27.749302],
              [-15.622914, 27.749511],
              [-15.623099, 27.749806],
              [-15.623187, 27.749876],
              [-15.62331, 27.749891],
              [-15.623423, 27.749813],
              [-15.623536, 27.74968],
              [-15.623711, 27.749648],
              [-15.623895, 27.749694],
              [-15.624018, 27.749818],
              [-15.624054, 27.750012],
              [-15.624422, 27.750166],
              [-15.624581, 27.750329],
              [-15.624853, 27.750429],
              [-15.62516, 27.750529],
              [-15.625492, 27.750527],
              [-15.626114, 27.750618],
              [-15.626762, 27.750724],
              [-15.626859, 27.750817],
              [-15.626851, 27.751043],
              [-15.626775, 27.751401],
              [-15.626723, 27.751611],
              [-15.626759, 27.751814],
              [-15.626865, 27.751876],
              [-15.626918, 27.751961],
              [-15.627008, 27.752365],
              [-15.626947, 27.752506],
              [-15.626746, 27.752608],
              [-15.626388, 27.752711],
              [-15.625374, 27.752925],
              [-15.624902, 27.75299],
              [-15.6245, 27.753093],
              [-15.623565, 27.753323],
              [-15.622765, 27.753738],
              [-15.621687, 27.754314],
              [-15.619639, 27.754977],
              [-15.618768, 27.756089],
              [-15.61861, 27.756088],
              [-15.618183, 27.756132],
              [-15.617676, 27.756206],
              [-15.617312, 27.756306],
              [-15.616861, 27.756401],
              [-15.616732, 27.756411],
              [-15.616338, 27.756485],
              [-15.615791, 27.756616],
              [-15.615509, 27.756658],
              [-15.615252, 27.756726],
              [-15.614804, 27.756878],
              [-15.614633, 27.75653],
              [-15.614496, 27.756051],
              [-15.614315, 27.75587],
              [-15.613947, 27.755709],
              [-15.613483, 27.755805],
              [-15.612857, 27.755781],
              [-15.612454, 27.75575],
              [-15.61175, 27.75614],
              [-15.610517, 27.755412],
              [-15.609096, 27.754864],
              [-15.607533, 27.754878],
              [-15.605693, 27.75506],
              [-15.605547, 27.754942],
              [-15.60538, 27.754806],
              [-15.605151, 27.75469],
              [-15.605082, 27.754666],
              [-15.604946, 27.754619],
              [-15.60474, 27.754584],
              [-15.604436, 27.754478],
              [-15.604288, 27.754412],
              [-15.604043, 27.75432],
              [-15.603807, 27.754383],
              [-15.602172, 27.754448],
              [-15.601165, 27.754488],
              [-15.601554, 27.753513],
              [-15.601576, 27.753452],
              [-15.601626, 27.753232],
              [-15.601688, 27.752799],
              [-15.601648, 27.751942],
              [-15.601625, 27.751639],
              [-15.601596, 27.751171],
              [-15.601552, 27.750605],
              [-15.601541, 27.75049],
              [-15.601492, 27.749872],
              [-15.601452, 27.749406],
              [-15.601478, 27.74926],
              [-15.601479, 27.74905],
              [-15.601424, 27.748769],
              [-15.601395, 27.748401],
              [-15.601361, 27.748057],
              [-15.601346, 27.747835],
              [-15.601317, 27.74735],
              [-15.601251, 27.747076],
              [-15.601199, 27.74694],
              [-15.601079, 27.74664],
              [-15.600949, 27.746307],
              [-15.600823, 27.746014],
              [-15.599576, 27.74318],
              [-15.599517, 27.743209],
              [-15.599418, 27.743236],
              [-15.59931, 27.743198],
              [-15.599253, 27.743136],
              [-15.599258, 27.743012],
              [-15.598708, 27.743229],
              [-15.59673, 27.744191],
              [-15.596786, 27.743663],
              [-15.59689, 27.742425],
              [-15.596865, 27.742074],
              [-15.59678, 27.741706],
              [-15.596644, 27.741221],
              [-15.596343, 27.740687],
              [-15.595954, 27.740059],
              [-15.595625, 27.739538],
              [-15.595328, 27.739045],
              [-15.595148, 27.738715],
              [-15.595046, 27.738658],
              [-15.594663, 27.738202],
              [-15.594422, 27.737876],
              [-15.594301, 27.737485],
              [-15.594336, 27.737198],
              [-15.594495, 27.736887],
              [-15.594613, 27.736678],
              [-15.594464, 27.736283],
              [-15.594237, 27.735912],
              [-15.594093, 27.735618],
              [-15.594092, 27.735616],
              [-15.594083, 27.735599],
              [-15.595882, 27.735085],
              [-15.597259, 27.735268],
              [-15.597785, 27.735186],
              [-15.597996, 27.735078],
              [-15.598075, 27.734758],
              [-15.598933, 27.734586],
              [-15.598979, 27.734966],
              [-15.5999, 27.735163],
              [-15.602074, 27.736157],
              [-15.602695, 27.736292],
              [-15.602797, 27.736733],
              [-15.603644, 27.737513],
              [-15.607133, 27.739816],
              [-15.608237, 27.741511],
              [-15.609732, 27.742869],
              [-15.610728, 27.743867],
              [-15.611071, 27.744223],
              [-15.613062, 27.745502],
              [-15.614202, 27.745826],
              [-15.616355, 27.747145],
              [-15.617534, 27.747743],
              [-15.619635, 27.74894],
              [-15.619813, 27.748936]
            ]
          ]
        ]
      }
    },
    {
      "type": "Feature",
      "properties": {
        "id": "playa-del-ingles",
        "name": "Playa del Inglés",
        "cityId": "san-bartolome-de-tirajana"
      },
      "geometry": {
        "type": "MultiPolygon",
        "coordinates": [
          [
            [
              [-15.552986, 27.765581],
              [-15.554981, 27.764919],
              [-15.557402, 27.763839],
              [-15.558391, 27.76287],
              [-15.558946, 27.761939],
              [-15.559029, 27.762042],
              [-15.558746, 27.762486],
              [-15.559254, 27.762763],
              [-15.560085, 27.762694],
              [-15.560906, 27.762324],
              [-15.561469, 27.761799],
              [-15.561439, 27.761106],
              [-15.561693, 27.760463],
              [-15.561796, 27.76051],
              [-15.561654, 27.760972],
              [-15.562309, 27.761047],
              [-15.563839, 27.760237],
              [-15.563779, 27.759527],
              [-15.563947, 27.758936],
              [-15.564081, 27.758826],
              [-15.564071, 27.759023],
              [-15.564266, 27.759044],
              [-15.564851, 27.758669],
              [-15.565586, 27.75777],
              [-15.566371, 27.755888],
              [-15.566611, 27.755675],
              [-15.566828, 27.755029],
              [-15.567563, 27.755262],
              [-15.568098, 27.755651],
              [-15.568276, 27.7557],
              [-15.568926, 27.754882],
              [-15.569723, 27.75369],
              [-15.570604, 27.752398],
              [-15.570725, 27.752214],
              [-15.57121, 27.752088],
              [-15.571666, 27.751587],
              [-15.571253, 27.751223],
              [-15.572181, 27.75013],
              [-15.572714, 27.750011],
              [-15.572731, 27.749795],
              [-15.573659, 27.74856],
              [-15.57404, 27.748027],
              [-15.57453, 27.747126],
              [-15.575125, 27.746392],
              [-15.575021, 27.74621],
              [-15.575689, 27.745359],
              [-15.576006, 27.7452],
              [-15.576492, 27.745106],
              [-15.576987, 27.745146],
              [-15.577436, 27.74526],
              [-15.577896, 27.745591],
              [-15.578311, 27.746204],
              [-15.578556, 27.746744],
              [-15.578805, 27.747716],
              [-15.579249, 27.748695],
              [-15.57955, 27.749051],
              [-15.579775, 27.74982],
              [-15.579883, 27.750233],
              [-15.580131, 27.751111],
              [-15.580777, 27.753037],
              [-15.581523, 27.754581],
              [-15.582175, 27.7558],
              [-15.583015, 27.757327],
              [-15.583087, 27.757517],
              [-15.583229, 27.757912],
              [-15.583451, 27.758193],
              [-15.584277, 27.758978],
              [-15.584488, 27.759424],
              [-15.584786, 27.75968],
              [-15.584869, 27.759755],
              [-15.585852, 27.760171],
              [-15.585835, 27.760391],
              [-15.585995, 27.760623],
              [-15.585828, 27.76084],
              [-15.58569, 27.761157],
              [-15.58572, 27.761606],
              [-15.586345, 27.762445],
              [-15.587097, 27.763318],
              [-15.587066, 27.763321],
              [-15.585865, 27.764208],
              [-15.584999, 27.76476],
              [-15.584485, 27.764862],
              [-15.583989, 27.764847],
              [-15.583484, 27.764741],
              [-15.582688, 27.76447],
              [-15.581845, 27.764175],
              [-15.580937, 27.763921],
              [-15.580376, 27.763873],
              [-15.580264, 27.763832],
              [-15.579563, 27.763802],
              [-15.579225, 27.763687],
              [-15.578823, 27.763539],
              [-15.578217, 27.763824],
              [-15.577721, 27.763793],
              [-15.576871, 27.763971],
              [-15.5762, 27.764223],
              [-15.574268, 27.764755],
              [-15.573108, 27.764735],
              [-15.571014, 27.764677],
              [-15.569201, 27.764618],
              [-15.567499, 27.764559],
              [-15.56548, 27.764542],
              [-15.563882, 27.764532],
              [-15.563527, 27.764608],
              [-15.562799, 27.764852],
              [-15.561717, 27.765256],
              [-15.561082, 27.765441],
              [-15.560569, 27.765635],
              [-15.560168, 27.765935],
              [-15.559505, 27.766021],
              [-15.558601, 27.766441],
              [-15.557508, 27.766611],
              [-15.556931, 27.767221],
              [-15.556014, 27.768871],
              [-15.555922, 27.769054],
              [-15.555311, 27.768483],
              [-15.554992, 27.768268],
              [-15.554693, 27.768136],
              [-15.553978, 27.767391],
              [-15.553733, 27.766976],
              [-15.553356, 27.766262],
              [-15.552986, 27.765581]
            ]
          ]
        ]
      }
    },
    {
      "type": "Feature",
      "properties": {
        "id": "san-agustin",
        "name": "San Agustín",
        "cityId": "san-bartolome-de-tirajana"
      },
      "geometry": {
        "type": "MultiPolygon",
        "coordinates": [
          [
            [
              [-15.532803, 27.771938],
              [-15.532626, 27.771788],
              [-15.532668, 27.771444],
              [-15.533082, 27.771306],
              [-15.533304, 27.770614],
              [-15.533739, 27.770243],
              [-15.534699, 27.769867],
              [-15.536386, 27.769738],
              [-15.53725, 27.770022],
              [-15.537664, 27.770367],
              [-15.53854, 27.770499],
              [-15.543105, 27.767618],
              [-15.543184, 27.767475],
              [-15.54322, 27.76749],
              [-15.5437, 27.767703],
              [-15.544496, 27.768135],
              [-15.544654, 27.768192],
              [-15.544827, 27.768154],
              [-15.544771, 27.768473],
              [-15.544695, 27.768637],
              [-15.545416, 27.768891],
              [-15.545994, 27.768906],
              [-15.546473, 27.769172],
              [-15.546562, 27.769325],
              [-15.546785, 27.769314],
              [-15.547032, 27.769231],
              [-15.547292, 27.768987],
              [-15.547414, 27.768644],
              [-15.548112, 27.768788],
              [-15.54814, 27.769059],
              [-15.548137, 27.769175],
              [-15.548206, 27.769213],
              [-15.548326, 27.76926],
              [-15.548495, 27.769239],
              [-15.548714, 27.769187],
              [-15.548972, 27.76911],
              [-15.549121, 27.769579],
              [-15.549264, 27.769702],
              [-15.549434, 27.76978],
              [-15.549734, 27.769775],
              [-15.549873, 27.76985],
              [-15.549924, 27.770001],
              [-15.549852, 27.770234],
              [-15.549831, 27.770724],
              [-15.549986, 27.770895],
              [-15.549818, 27.771002],
              [-15.549755, 27.771945],
              [-15.549988, 27.772888],
              [-15.550281, 27.774816],
              [-15.550177, 27.774988],
              [-15.549038, 27.775151],
              [-15.548523, 27.775253],
              [-15.548048, 27.775386],
              [-15.547855, 27.775444],
              [-15.547461, 27.775592],
              [-15.54673, 27.775924],
              [-15.546309, 27.776169],
              [-15.545205, 27.777038],
              [-15.544913, 27.777314],
              [-15.544646, 27.77758],
              [-15.5444, 27.777815],
              [-15.544157, 27.778062],
              [-15.543903, 27.778293],
              [-15.543668, 27.778494],
              [-15.543446, 27.778677],
              [-15.543178, 27.778883],
              [-15.543023, 27.778991],
              [-15.542869, 27.778899],
              [-15.542722, 27.778794],
              [-15.540749, 27.77734],
              [-15.539251, 27.776315],
              [-15.53771, 27.775302],
              [-15.537023, 27.774732],
              [-15.536371, 27.773337],
              [-15.536128, 27.772944],
              [-15.534313, 27.772592],
              [-15.533426, 27.772238],
              [-15.532901, 27.771989],
              [-15.532882, 27.771986],
              [-15.532872, 27.771981],
              [-15.532864, 27.771975],
              [-15.532859, 27.771967],
              [-15.532851, 27.771961],
              [-15.532842, 27.771955],
              [-15.532834, 27.771949],
              [-15.532824, 27.771944],
              [-15.532814, 27.771941],
              [-15.532803, 27.771938]
            ]
          ]
        ]
      }
    },
    {
      "type": "Feature",
      "properties": {
        "id": "sonnenland",
        "name": "Sonnenland",
        "cityId": "san-bartolome-de-tirajana"
      },
      "geometry": {
        "type": "MultiPolygon",
        "coordinates": [
          [
            [
              [-15.587097, 27.763318],
              [-15.587353, 27.763188],
              [-15.58814, 27.762805],
              [-15.589548, 27.762526],
              [-15.59144, 27.762246],
              [-15.592558, 27.762048],
              [-15.5935, 27.761936],
              [-15.595222, 27.761635],
              [-15.59692, 27.76137],
              [-15.597692, 27.761116],
              [-15.598166, 27.76092],
              [-15.59847, 27.760539],
              [-15.598726, 27.760151],
              [-15.5991, 27.759325],
              [-15.599355, 27.758858],
              [-15.599864, 27.757667],
              [-15.60058, 27.755908],
              [-15.601165, 27.754488],
              [-15.602172, 27.754448],
              [-15.603807, 27.754383],
              [-15.604043, 27.75432],
              [-15.604288, 27.754412],
              [-15.604436, 27.754478],
              [-15.60474, 27.754584],
              [-15.604946, 27.754619],
              [-15.605082, 27.754666],
              [-15.605151, 27.75469],
              [-15.60538, 27.754806],
              [-15.605547, 27.754942],
              [-15.605693, 27.75506],
              [-15.607533, 27.754878],
              [-15.609096, 27.754864],
              [-15.610517, 27.755412],
              [-15.61175, 27.75614],
              [-15.612454, 27.75575],
              [-15.612857, 27.755781],
              [-15.613483, 27.755805],
              [-15.613947, 27.755709],
              [-15.614315, 27.75587],
              [-15.614496, 27.756051],
              [-15.614633, 27.75653],
              [-15.614804, 27.756878],
              [-15.614271, 27.757138],
              [-15.613211, 27.757687],
              [-15.612143, 27.758279],
              [-15.61093, 27.758908],
              [-15.60971, 27.759652],
              [-15.608322, 27.760546],
              [-15.607238, 27.761296],
              [-15.605241, 27.762781],
              [-15.604102, 27.76371],
              [-15.603333, 27.764373],
              [-15.602563, 27.7651],
              [-15.601641, 27.765871],
              [-15.600888, 27.766547],
              [-15.599741, 27.767556],
              [-15.598996, 27.768204],
              [-15.598249, 27.768651],
              [-15.597197, 27.769293],
              [-15.595911, 27.769872],
              [-15.593676, 27.770663],
              [-15.59226, 27.770984],
              [-15.591607, 27.770887],
              [-15.591324, 27.770652],
              [-15.59116, 27.770172],
              [-15.591118, 27.769757],
              [-15.590952, 27.768869],
              [-15.590479, 27.767789],
              [-15.590031, 27.766859],
              [-15.5893, 27.765874],
              [-15.588093, 27.76446],
              [-15.587097, 27.763318]
            ]
          ]
        ]
      }
    }
  ]
}
