{
  "type": "FeatureCollection",
  "name": "adeje-neighborhoods",
  "metadata": {
    "schemaVersion": 1,
    "cityId": "adeje",
    "cityName": "Adeje",
    "representative": false,
    "source": "Núcleos turísticos 2014 — Instituto Canario de Estadística (ISTAC), Gobierno de Canarias (atribución)"
  },
  "features": [
    {
      "type": "Feature",
      "properties": {
        "id": "callao-salvaje",
        "name": "Callao Salvaje",
        "cityId": "adeje"
      },
      "geometry": {
        "type": "MultiPolygon",
        "coordinates": [
          [
            [
              [-16.781224, 28.126001],
              [-16.781229, 28.1261],
              [-16.781656, 28.12668],
              [-16.781682, 28.127021],
              [-16.782319, 28.127239],
              [-16.782642, 28.127102],
              [-16.782661, 28.126997],
              [-16.782919, 28.127],
              [-16.783533, 28.126734],
              [-16.783821, 28.126404],
              [-16.783777, 28.126685],
              [-16.784113, 28.126827],
              [-16.783966, 28.126969],
              [-16.784124, 28.127096],
              [-16.78391, 28.12762],
              [-16.783916, 28.128532],
              [-16.784319, 28.128632],
              [-16.784399, 28.128952],
              [-16.784628, 28.129007],
              [-16.784861, 28.129393],
              [-16.785293, 28.129504],
              [-16.785593, 28.129874],
              [-16.786377, 28.130118],
              [-16.786673, 28.130394],
              [-16.785956, 28.130835],
              [-16.785895, 28.131031],
              [-16.786027, 28.131456],
              [-16.786503, 28.131422],
              [-16.786582, 28.131631],
              [-16.786392, 28.131985],
              [-16.786544, 28.132111],
              [-16.786408, 28.13246],
              [-16.786494, 28.132683],
              [-16.786295, 28.132784],
              [-16.786499, 28.133034],
              [-16.786436, 28.133378],
              [-16.786595, 28.13338],
              [-16.786358, 28.133764],
              [-16.786892, 28.133635],
              [-16.786542, 28.134539],
              [-16.786666, 28.134589],
              [-16.78737, 28.134125],
              [-16.787739, 28.134304],
              [-16.787463, 28.134911],
              [-16.787634, 28.135059],
              [-16.787627, 28.135063],
              [-16.787625, 28.135065],
              [-16.787343, 28.135229],
              [-16.786453, 28.13575],
              [-16.785184, 28.136568],
              [-16.782759, 28.138173],
              [-16.782153, 28.13857],
              [-16.781545, 28.137465],
              [-16.782686, 28.136725],
              [-16.782701, 28.136658],
              [-16.781237, 28.135497],
              [-16.78156, 28.135094],
              [-16.781964, 28.134988],
              [-16.782913, 28.133431],
              [-16.784542, 28.132767],
              [-16.784564, 28.132493],
              [-16.784597, 28.131869],
              [-16.784297, 28.131738],
              [-16.783621, 28.131747],
              [-16.783008, 28.131995],
              [-16.783025, 28.132028],
              [-16.782809, 28.132074],
              [-16.781745, 28.13253],
              [-16.781137, 28.132744],
              [-16.779028, 28.133846],
              [-16.778973, 28.133823],
              [-16.778928, 28.133689],
              [-16.77925, 28.1332],
              [-16.779241, 28.132668],
              [-16.779309, 28.132509],
              [-16.779414, 28.132334],
              [-16.779565, 28.131651],
              [-16.779581, 28.131589],
              [-16.779546, 28.131464],
              [-16.779028, 28.131543],
              [-16.778977, 28.131745],
              [-16.778789, 28.132131],
              [-16.778735, 28.132497],
              [-16.778829, 28.132625],
              [-16.778716, 28.132665],
              [-16.778698, 28.132891],
              [-16.778594, 28.133108],
              [-16.778514, 28.133229],
              [-16.77841, 28.133485],
              [-16.778448, 28.133767],
              [-16.778516, 28.133992],
              [-16.778512, 28.13405],
              [-16.778292, 28.134206],
              [-16.778206, 28.134207],
              [-16.77814, 28.134184],
              [-16.778131, 28.134242],
              [-16.777928, 28.134407],
              [-16.777617, 28.134575],
              [-16.777506, 28.134744],
              [-16.77738, 28.134683],
              [-16.777176, 28.134758],
              [-16.775477, 28.133844],
              [-16.775772, 28.133687],
              [-16.776566, 28.13323],
              [-16.776634, 28.133119],
              [-16.776737, 28.133108],
              [-16.776819, 28.133131],
              [-16.777215, 28.132891],
              [-16.7768, 28.132316],
              [-16.776729, 28.132273],
              [-16.776318, 28.132284],
              [-16.776032, 28.13233],
              [-16.775928, 28.132265],
              [-16.774596, 28.132886],
              [-16.774381, 28.132995],
              [-16.774312, 28.133101],
              [-16.774487, 28.133497],
              [-16.773903, 28.133567],
              [-16.773155, 28.133797],
              [-16.771199, 28.134384],
              [-16.769217, 28.134942],
              [-16.769895, 28.133696],
              [-16.769845, 28.133629],
              [-16.770174, 28.1329],
              [-16.770569, 28.132233],
              [-16.77015, 28.132138],
              [-16.770358, 28.131257],
              [-16.770643, 28.130802],
              [-16.771833, 28.13013],
              [-16.771599, 28.129734],
              [-16.773111, 28.128846],
              [-16.773792, 28.128449],
              [-16.774143, 28.12842],
              [-16.7746, 28.128256],
              [-16.775039, 28.127929],
              [-16.775764, 28.127603],
              [-16.776689, 28.127217],
              [-16.778055, 28.127017],
              [-16.779448, 28.126504],
              [-16.781215, 28.126002],
              [-16.781224, 28.126001]
            ]
          ]
        ]
      }
    },
    {
      "type": "Feature",
      "properties": {
        "id": "costa-adeje",
        "name": "Costa Adeje",
        "cityId": "adeje"
      },
      "geometry": {
        "type": "MultiPolygon",
        "coordinates": [
          [
            [
              [-16.732877, 28.072698],
              [-16.733316, 28.073168],
              [-16.733469, 28.073463],
              [-16.733568, 28.073854],
              [-16.734321, 28.073871],
              [-16.734383, 28.074008],
              [-16.734076, 28.074421],
              [-16.734646, 28.074551],
              [-16.735212, 28.075631],
              [-16.735645, 28.076339],
              [-16.737607, 28.07724],
              [-16.738028, 28.077652],
              [-16.738295, 28.078503],
              [-16.738401, 28.079421],
              [-16.738073, 28.080041],
              [-16.73781, 28.080162],
              [-16.737629, 28.079994],
              [-16.737855, 28.079726],
              [-16.737716, 28.079232],
              [-16.738076, 28.079164],
              [-16.73803, 28.078939],
              [-16.737941, 28.07861],
              [-16.737879, 28.07838],
              [-16.737818, 28.07815],
              [-16.737759, 28.07791],
              [-16.737584, 28.077662],
              [-16.736664, 28.077122],
              [-16.736832, 28.077239],
              [-16.736792, 28.077408],
              [-16.736263, 28.077485],
              [-16.736325, 28.077799],
              [-16.736004, 28.077864],
              [-16.736047, 28.078088],
              [-16.736034, 28.078372],
              [-16.736129, 28.078831],
              [-16.736928, 28.078747],
              [-16.737115, 28.078882],
              [-16.737209, 28.079002],
              [-16.736771, 28.079636],
              [-16.736029, 28.079132],
              [-16.735571, 28.079694],
              [-16.735785, 28.080529],
              [-16.736162, 28.080466],
              [-16.736673, 28.080121],
              [-16.736369, 28.081237],
              [-16.7375, 28.082326],
              [-16.737249, 28.082534],
              [-16.736744, 28.082033],
              [-16.736364, 28.082457],
              [-16.736243, 28.082969],
              [-16.736889, 28.084211],
              [-16.73702, 28.084785],
              [-16.737412, 28.085272],
              [-16.737538, 28.085371],
              [-16.737675, 28.085457],
              [-16.737826, 28.086325],
              [-16.73816, 28.086786],
              [-16.738108, 28.086821],
              [-16.73742, 28.087307],
              [-16.737425, 28.087312],
              [-16.737322, 28.087384],
              [-16.737347, 28.087414],
              [-16.737337, 28.087423],
              [-16.737429, 28.087514],
              [-16.737441, 28.087529],
              [-16.737423, 28.087537],
              [-16.737054, 28.087675],
              [-16.736906, 28.087733],
              [-16.736869, 28.08775],
              [-16.736815, 28.08777],
              [-16.736755, 28.087804],
              [-16.736708, 28.087826],
              [-16.736617, 28.08788],
              [-16.736615, 28.087883],
              [-16.736607, 28.087887],
              [-16.736587, 28.087911],
              [-16.736546, 28.087953],
              [-16.736453, 28.088069],
              [-16.736443, 28.088083],
              [-16.736425, 28.088104],
              [-16.736148, 28.088498],
              [-16.735998, 28.088654],
              [-16.735911, 28.088796],
              [-16.735632, 28.089183],
              [-16.735511, 28.089347],
              [-16.735368, 28.089541],
              [-16.735194, 28.089781],
              [-16.735095, 28.089918],
              [-16.735008, 28.090039],
              [-16.734967, 28.090093],
              [-16.734951, 28.090137],
              [-16.734944, 28.09015],
              [-16.734896, 28.09028],
              [-16.734893, 28.090299],
              [-16.734878, 28.090341],
              [-16.73488, 28.090374],
              [-16.734878, 28.090391],
              [-16.7349, 28.090643],
              [-16.734922, 28.090766],
              [-16.734966, 28.090927],
              [-16.734967, 28.090931],
              [-16.734972, 28.090952],
              [-16.735017, 28.091032],
              [-16.73506, 28.091121],
              [-16.735085, 28.091218],
              [-16.735116, 28.091295],
              [-16.735112, 28.091323],
              [-16.735092, 28.091391],
              [-16.735064, 28.091423],
              [-16.735048, 28.091435],
              [-16.735007, 28.091454],
              [-16.73499, 28.091457],
              [-16.734972, 28.091457],
              [-16.734811, 28.091524],
              [-16.734652, 28.091578],
              [-16.734324, 28.09169],
              [-16.734246, 28.091705],
              [-16.733495, 28.091847],
              [-16.732748, 28.091983],
              [-16.732563, 28.092019],
              [-16.732015, 28.09211],
              [-16.731959, 28.092119],
              [-16.731492, 28.092193],
              [-16.730906, 28.092279],
              [-16.730298, 28.092376],
              [-16.730241, 28.092388],
              [-16.730142, 28.092402],
              [-16.730083, 28.092424],
              [-16.730016, 28.092444],
              [-16.730046, 28.092592],
              [-16.730054, 28.092645],
              [-16.730032, 28.092655],
              [-16.729955, 28.092634],
              [-16.729891, 28.092615],
              [-16.729889, 28.092616],
              [-16.72987, 28.092611],
              [-16.729839, 28.092638],
              [-16.729829, 28.092643],
              [-16.729812, 28.092652],
              [-16.729731, 28.092663],
              [-16.729617, 28.091936],
              [-16.729568, 28.091645],
              [-16.729438, 28.090782],
              [-16.729423, 28.090781],
              [-16.729281, 28.08991],
              [-16.729146, 28.089089],
              [-16.728977, 28.087876],
              [-16.728955, 28.087704],
              [-16.728906, 28.087373],
              [-16.728901, 28.086366],
              [-16.728928, 28.085687],
              [-16.729017, 28.085503],
              [-16.729026, 28.085332],
              [-16.729084, 28.084625],
              [-16.729178, 28.083724],
              [-16.729271, 28.082868],
              [-16.729389, 28.081788],
              [-16.729475, 28.080996],
              [-16.729524, 28.080614],
              [-16.729551, 28.080428],
              [-16.729603, 28.079868],
              [-16.729683, 28.078795],
              [-16.729705, 28.078333],
              [-16.729716, 28.077965],
              [-16.729715, 28.077867],
              [-16.729714, 28.07743],
              [-16.729726, 28.077177],
              [-16.729684, 28.076743],
              [-16.729658, 28.076481],
              [-16.729562, 28.075783],
              [-16.729497, 28.075345],
              [-16.729447, 28.075066],
              [-16.729367, 28.074777],
              [-16.729248, 28.074405],
              [-16.729164, 28.074217],
              [-16.729091, 28.074112],
              [-16.729202, 28.074102],
              [-16.729587, 28.074203],
              [-16.729808, 28.07426],
              [-16.730425, 28.074431],
              [-16.730601, 28.074456],
              [-16.730896, 28.07454],
              [-16.731158, 28.074643],
              [-16.731277, 28.074744],
              [-16.731388, 28.074887],
              [-16.731511, 28.074789],
              [-16.731562, 28.074644],
              [-16.731641, 28.07454],
              [-16.731659, 28.074498],
              [-16.731884, 28.074251],
              [-16.731986, 28.074104],
              [-16.732127, 28.073792],
              [-16.732136, 28.073645],
              [-16.732117, 28.073573],
              [-16.732209, 28.073531],
              [-16.732488, 28.073451],
              [-16.73273, 28.072901],
              [-16.732758, 28.072728],
              [-16.73285, 28.072705],
              [-16.732877, 28.072698]
            ]
          ]
        ]
      }
    },
    {
      "type": "Feature",
      "properties": {
        "id": "las-americas-adeje",
        "name": "Las Américas - Adeje",
        "cityId": "adeje"
      },
      "geometry": {
        "type": "MultiPolygon",
        "coordinates": [
          [
            [
              [-16.733557, 28.066611],
              [-16.734279, 28.066228],
              [-16.734648, 28.066812],
              [-16.734579, 28.067129],
              [-16.734292, 28.066666],
              [-16.733741, 28.066744],
              [-16.733271, 28.067227],
              [-16.733115, 28.067715],
              [-16.733392, 28.06827],
              [-16.734167, 28.068239],
              [-16.734264, 28.06802],
              [-16.734425, 28.068118],
              [-16.734661, 28.069294],
              [-16.734215, 28.068401],
              [-16.733158, 28.068782],
              [-16.732768, 28.069531],
              [-16.732959, 28.070116],
              [-16.733055, 28.070597],
              [-16.732908, 28.070775],
              [-16.733249, 28.070889],
              [-16.733359, 28.071528],
              [-16.734161, 28.07151],
              [-16.734234, 28.0725],
              [-16.734044, 28.072484],
              [-16.733959, 28.071727],
              [-16.733839, 28.071712],
              [-16.733076, 28.07199],
              [-16.73278, 28.072594],
              [-16.732877, 28.072698],
              [-16.73285, 28.072705],
              [-16.732758, 28.072728],
              [-16.73273, 28.072901],
              [-16.732488, 28.073451],
              [-16.732209, 28.073531],
              [-16.732117, 28.073573],
              [-16.732136, 28.073645],
              [-16.732127, 28.073792],
              [-16.731986, 28.074104],
              [-16.731884, 28.074251],
              [-16.731659, 28.074498],
              [-16.731641, 28.07454],
              [-16.731562, 28.074644],
              [-16.731511, 28.074789],
              [-16.731388, 28.074887],
              [-16.731277, 28.074744],
              [-16.731158, 28.074643],
              [-16.730896, 28.07454],
              [-16.730601, 28.074456],
              [-16.730425, 28.074431],
              [-16.729808, 28.07426],
              [-16.729587, 28.074203],
              [-16.729202, 28.074102],
              [-16.729091, 28.074112],
              [-16.728857, 28.074198],
              [-16.728848, 28.074223],
              [-16.728626, 28.074302],
              [-16.728516, 28.073965],
              [-16.727947, 28.074111],
              [-16.727329, 28.07448],
              [-16.727212, 28.074601],
              [-16.727098, 28.074671],
              [-16.727093, 28.074663],
              [-16.727017, 28.074704],
              [-16.727017, 28.074721],
              [-16.726844, 28.074826],
              [-16.726706, 28.074863],
              [-16.72665, 28.074879],
              [-16.726647, 28.074871],
              [-16.726195, 28.075009],
              [-16.725971, 28.075093],
              [-16.725084, 28.07539],
              [-16.724738, 28.075438],
              [-16.724069, 28.075359],
              [-16.723855, 28.07536],
              [-16.723276, 28.075325],
              [-16.722789, 28.075397],
              [-16.722704, 28.07542],
              [-16.722602, 28.075443],
              [-16.722604, 28.075224],
              [-16.722564, 28.074997],
              [-16.722509, 28.074798],
              [-16.722423, 28.074489],
              [-16.722329, 28.07418],
              [-16.722258, 28.073932],
              [-16.722124, 28.073621],
              [-16.721969, 28.073403],
              [-16.721597, 28.073016],
              [-16.721425, 28.072842],
              [-16.721222, 28.072634],
              [-16.720644, 28.072527],
              [-16.720384, 28.072597],
              [-16.720131, 28.072598],
              [-16.719886, 28.072548],
              [-16.719721, 28.072362],
              [-16.719411, 28.072316],
              [-16.719303, 28.072128],
              [-16.719273, 28.072138],
              [-16.719251, 28.072062],
              [-16.719387, 28.071986],
              [-16.719332, 28.071944],
              [-16.719192, 28.071791],
              [-16.719179, 28.071624],
              [-16.719008, 28.071034],
              [-16.719013, 28.070995],
              [-16.718937, 28.070944],
              [-16.718818, 28.070952],
              [-16.718898, 28.070899],
              [-16.718991, 28.070788],
              [-16.719021, 28.070489],
              [-16.719037, 28.070453],
              [-16.719065, 28.070204],
              [-16.719419, 28.069472],
              [-16.719523, 28.069406],
              [-16.719663, 28.069378],
              [-16.71969, 28.069248],
              [-16.720028, 28.068841],
              [-16.720065, 28.068792],
              [-16.720326, 28.068605],
              [-16.720757, 28.068452],
              [-16.721271, 28.068247],
              [-16.721544, 28.06816],
              [-16.722123, 28.067995],
              [-16.722214, 28.067973],
              [-16.722592, 28.067877],
              [-16.72274, 28.067844],
              [-16.722787, 28.06777],
              [-16.72261, 28.067657],
              [-16.722618, 28.067638],
              [-16.721466, 28.066999],
              [-16.721567, 28.066838],
              [-16.721638, 28.066533],
              [-16.721664, 28.066424],
              [-16.721794, 28.066249],
              [-16.721878, 28.066151],
              [-16.721903, 28.066103],
              [-16.721984, 28.066082],
              [-16.72215, 28.066039],
              [-16.722246, 28.066026],
              [-16.722288, 28.066019],
              [-16.722411, 28.066085],
              [-16.722639, 28.066182],
              [-16.722768, 28.066266],
              [-16.722946, 28.066422],
              [-16.723177, 28.06659],
              [-16.723485, 28.066839],
              [-16.72394, 28.067187],
              [-16.724069, 28.067283],
              [-16.724216, 28.067358],
              [-16.724436, 28.067456],
              [-16.724625, 28.067542],
              [-16.724635, 28.067544],
              [-16.724699, 28.067555],
              [-16.724849, 28.067575],
              [-16.724961, 28.067594],
              [-16.725082, 28.067609],
              [-16.725225, 28.067625],
              [-16.725268, 28.067597],
              [-16.725331, 28.067558],
              [-16.725589, 28.067404],
              [-16.725754, 28.067259],
              [-16.725827, 28.067112],
              [-16.725915, 28.066912],
              [-16.726004, 28.066744],
              [-16.726019, 28.066724],
              [-16.726015, 28.066701],
              [-16.726014, 28.066615],
              [-16.726018, 28.066561],
              [-16.726042, 28.066527],
              [-16.726072, 28.066468],
              [-16.72615, 28.066393],
              [-16.72624, 28.066326],
              [-16.726402, 28.066268],
              [-16.726633, 28.066208],
              [-16.726802, 28.066147],
              [-16.726959, 28.066091],
              [-16.727122, 28.066013],
              [-16.727248, 28.065982],
              [-16.727327, 28.065983],
              [-16.727463, 28.066078],
              [-16.727591, 28.066158],
              [-16.727721, 28.06626],
              [-16.727944, 28.066379],
              [-16.728134, 28.066485],
              [-16.728377, 28.066626],
              [-16.728524, 28.066683],
              [-16.728744, 28.066746],
              [-16.728823, 28.066767],
              [-16.728921, 28.066771],
              [-16.728976, 28.066808],
              [-16.729105, 28.066892],
              [-16.729301, 28.067034],
              [-16.729504, 28.067178],
              [-16.72962, 28.067247],
              [-16.729795, 28.067288],
              [-16.730026, 28.067289],
              [-16.730525, 28.067269],
              [-16.730614, 28.067264],
              [-16.730941, 28.06725],
              [-16.731117, 28.067242],
              [-16.731348, 28.067191],
              [-16.731771, 28.067066],
              [-16.731976, 28.066978],
              [-16.732163, 28.066928],
              [-16.73229, 28.066911],
              [-16.732448, 28.066875],
              [-16.732636, 28.066846],
              [-16.732799, 28.06678],
              [-16.732913, 28.066725],
              [-16.733052, 28.066673],
              [-16.733425, 28.066625],
              [-16.733429, 28.066625],
              [-16.73344, 28.066624],
              [-16.733452, 28.066623],
              [-16.733464, 28.066621],
              [-16.733475, 28.066619],
              [-16.733488, 28.066619],
              [-16.733501, 28.06662],
              [-16.733512, 28.066619],
              [-16.733523, 28.066617],
              [-16.733534, 28.066615],
              [-16.733546, 28.066613],
              [-16.733557, 28.066611]
            ]
          ]
        ]
      }
    },
    {
      "type": "Feature",
      "properties": {
        "id": "playa-de-el-duque",
        "name": "Playa de El Duque",
        "cityId": "adeje"
      },
      "geometry": {
        "type": "MultiPolygon",
        "coordinates": [
          [
            [
              [-16.729731, 28.092663],
              [-16.729812, 28.092652],
              [-16.729829, 28.092643],
              [-16.729839, 28.092638],
              [-16.72987, 28.092611],
              [-16.729889, 28.092616],
              [-16.729891, 28.092615],
              [-16.729955, 28.092634],
              [-16.730032, 28.092655],
              [-16.730054, 28.092645],
              [-16.730046, 28.092592],
              [-16.730016, 28.092444],
              [-16.730083, 28.092424],
              [-16.730142, 28.092402],
              [-16.730241, 28.092388],
              [-16.730298, 28.092376],
              [-16.730906, 28.092279],
              [-16.731492, 28.092193],
              [-16.731959, 28.092119],
              [-16.732015, 28.09211],
              [-16.732563, 28.092019],
              [-16.732748, 28.091983],
              [-16.733495, 28.091847],
              [-16.734246, 28.091705],
              [-16.734324, 28.09169],
              [-16.734652, 28.091578],
              [-16.734811, 28.091524],
              [-16.734972, 28.091457],
              [-16.73499, 28.091457],
              [-16.735007, 28.091454],
              [-16.735048, 28.091435],
              [-16.735064, 28.091423],
              [-16.735092, 28.091391],
              [-16.735112, 28.091323],
              [-16.735116, 28.091295],
              [-16.735085, 28.091218],
              [-16.73506, 28.091121],
              [-16.735017, 28.091032],
              [-16.734972, 28.090952],
              [-16.734967, 28.090931],
              [-16.734966, 28.090927],
              [-16.734922, 28.090766],
              [-16.7349, 28.090643],
              [-16.734878, 28.090391],
              [-16.73488, 28.090374],
              [-16.734878, 28.090341],
              [-16.734893, 28.090299],
              [-16.734896, 28.09028],
              [-16.734944, 28.09015],
              [-16.734951, 28.090137],
              [-16.734967, 28.090093],
              [-16.735008, 28.090039],
              [-16.735095, 28.089918],
              [-16.735194, 28.089781],
              [-16.735368, 28.089541],
              [-16.735511, 28.089347],
              [-16.735632, 28.089183],
              [-16.735911, 28.088796],
              [-16.735998, 28.088654],
              [-16.736148, 28.088498],
              [-16.736425, 28.088104],
              [-16.736443, 28.088083],
              [-16.736453, 28.088069],
              [-16.736546, 28.087953],
              [-16.736587, 28.087911],
              [-16.736607, 28.087887],
              [-16.736615, 28.087883],
              [-16.736617, 28.08788],
              [-16.736708, 28.087826],
              [-16.736755, 28.087804],
              [-16.736815, 28.08777],
              [-16.736869, 28.08775],
              [-16.736906, 28.087733],
              [-16.737054, 28.087675],
              [-16.737423, 28.087537],
              [-16.737441, 28.087529],
              [-16.737429, 28.087514],
              [-16.737337, 28.087423],
              [-16.737347, 28.087414],
              [-16.737322, 28.087384],
              [-16.737425, 28.087312],
              [-16.73742, 28.087307],
              [-16.738108, 28.086821],
              [-16.73816, 28.086786],
              [-16.73853, 28.087295],
              [-16.738926, 28.087945],
              [-16.739491, 28.088331],
              [-16.740109, 28.08842],
              [-16.740458, 28.08804],
              [-16.740338, 28.087497],
              [-16.740513, 28.087475],
              [-16.74067, 28.08795],
              [-16.740591, 28.088331],
              [-16.740962, 28.088523],
              [-16.740993, 28.088796],
              [-16.740477, 28.089822],
              [-16.741023, 28.089645],
              [-16.74125, 28.089794],
              [-16.741459, 28.089498],
              [-16.742094, 28.089701],
              [-16.742861, 28.089311],
              [-16.743122, 28.089322],
              [-16.743184, 28.089512],
              [-16.743458, 28.08959],
              [-16.7431, 28.090391],
              [-16.745717, 28.091968],
              [-16.746414, 28.092032],
              [-16.746786, 28.091363],
              [-16.746425, 28.091263],
              [-16.746454, 28.091115],
              [-16.74718, 28.091358],
              [-16.747218, 28.091533],
              [-16.746873, 28.091438],
              [-16.746529, 28.092093],
              [-16.747785, 28.093054],
              [-16.749142, 28.093568],
              [-16.749619, 28.093489],
              [-16.74981, 28.09272],
              [-16.749294, 28.092358],
              [-16.749466, 28.092267],
              [-16.749797, 28.092459],
              [-16.749943, 28.092781],
              [-16.749764, 28.093603],
              [-16.750415, 28.094356],
              [-16.750534, 28.095311],
              [-16.750794, 28.095557],
              [-16.751221, 28.095657],
              [-16.750954, 28.09611],
              [-16.751589, 28.096653],
              [-16.7522, 28.097852],
              [-16.752753, 28.098544],
              [-16.753048, 28.098747],
              [-16.754102, 28.098845],
              [-16.754697, 28.098826],
              [-16.754813, 28.098885],
              [-16.754992, 28.098827],
              [-16.755185, 28.098435],
              [-16.755962, 28.098459],
              [-16.756607, 28.098859],
              [-16.755792, 28.099806],
              [-16.75574, 28.100117],
              [-16.755507, 28.100199],
              [-16.75543, 28.100399],
              [-16.755655, 28.100897],
              [-16.756852, 28.100614],
              [-16.756893, 28.10074],
              [-16.756551, 28.10075],
              [-16.757011, 28.100884],
              [-16.756836, 28.101244],
              [-16.75724, 28.101043],
              [-16.757116, 28.101508],
              [-16.757429, 28.101652],
              [-16.758361, 28.101173],
              [-16.758347, 28.101682],
              [-16.758163, 28.101814],
              [-16.757968, 28.102054],
              [-16.757899, 28.102302],
              [-16.757917, 28.102626],
              [-16.75776, 28.102962],
              [-16.757436, 28.103193],
              [-16.757072, 28.103751],
              [-16.756851, 28.103905],
              [-16.755917, 28.104751],
              [-16.755649, 28.104988],
              [-16.754852, 28.105821],
              [-16.754523, 28.106278],
              [-16.754072, 28.106492],
              [-16.753855, 28.106373],
              [-16.753085, 28.106606],
              [-16.752285, 28.107054],
              [-16.751922, 28.107135],
              [-16.751474, 28.107295],
              [-16.751319, 28.107477],
              [-16.751438, 28.107536],
              [-16.752282, 28.107827],
              [-16.752907, 28.108172],
              [-16.753594, 28.108738],
              [-16.754098, 28.109343],
              [-16.754452, 28.109913],
              [-16.75478, 28.110639],
              [-16.754821, 28.110688],
              [-16.754996, 28.110726],
              [-16.755129, 28.110879],
              [-16.755135, 28.111055],
              [-16.755061, 28.111217],
              [-16.755179, 28.111507],
              [-16.756715, 28.110226],
              [-16.756838, 28.110055],
              [-16.757289, 28.109888],
              [-16.757376, 28.109998],
              [-16.758264, 28.109724],
              [-16.758936, 28.110176],
              [-16.758882, 28.110349],
              [-16.758865, 28.110543],
              [-16.759125, 28.110853],
              [-16.758973, 28.111196],
              [-16.759156, 28.111233],
              [-16.759331, 28.111055],
              [-16.759485, 28.110801],
              [-16.759836, 28.110696],
              [-16.760069, 28.110812],
              [-16.760308, 28.111528],
              [-16.759304, 28.111882],
              [-16.759005, 28.111911],
              [-16.758874, 28.112092],
              [-16.758832, 28.112273],
              [-16.758661, 28.112458],
              [-16.758604, 28.112692],
              [-16.758487, 28.112737],
              [-16.758158, 28.112705],
              [-16.758035, 28.112574],
              [-16.757549, 28.112397],
              [-16.756764, 28.112504],
              [-16.756359, 28.112754],
              [-16.756205, 28.113007],
              [-16.755891, 28.113367],
              [-16.755453, 28.113621],
              [-16.75377, 28.115608],
              [-16.753167, 28.116375],
              [-16.753035, 28.116761],
              [-16.753042, 28.117444],
              [-16.752825, 28.117802],
              [-16.752233, 28.118069],
              [-16.751963, 28.118169],
              [-16.751355, 28.118921],
              [-16.750689, 28.119828],
              [-16.750348, 28.120056],
              [-16.749956, 28.12014],
              [-16.749784, 28.120278],
              [-16.749044, 28.120169],
              [-16.748577, 28.120376],
              [-16.748307, 28.120459],
              [-16.747925, 28.120435],
              [-16.74768, 28.120316],
              [-16.747436, 28.12001],
              [-16.747248, 28.119664],
              [-16.747365, 28.119346],
              [-16.747854, 28.119002],
              [-16.747634, 28.118699],
              [-16.747424, 28.11827],
              [-16.747024, 28.117582],
              [-16.746839, 28.117189],
              [-16.746455, 28.116769],
              [-16.746197, 28.116633],
              [-16.745839, 28.116536],
              [-16.745502, 28.116501],
              [-16.74515, 28.116556],
              [-16.744907, 28.116538],
              [-16.744613, 28.116444],
              [-16.744373, 28.116372],
              [-16.744224, 28.116319],
              [-16.744295, 28.116004],
              [-16.744917, 28.115941],
              [-16.745131, 28.115848],
              [-16.745298, 28.115695],
              [-16.745433, 28.115488],
              [-16.74549, 28.115243],
              [-16.745578, 28.114908],
              [-16.745632, 28.11449],
              [-16.745614, 28.114124],
              [-16.74555, 28.113726],
              [-16.745492, 28.113644],
              [-16.74544, 28.113393],
              [-16.74547, 28.11304],
              [-16.745692, 28.11271],
              [-16.745648, 28.112477],
              [-16.745641, 28.112326],
              [-16.745779, 28.112073],
              [-16.746179, 28.111769],
              [-16.746085, 28.111415],
              [-16.746269, 28.111038],
              [-16.74607, 28.110757],
              [-16.746219, 28.110428],
              [-16.746301, 28.109996],
              [-16.745865, 28.109875],
              [-16.745599, 28.109494],
              [-16.74525, 28.107935],
              [-16.745366, 28.107818],
              [-16.745581, 28.106838],
              [-16.745555, 28.105986],
              [-16.745937, 28.105331],
              [-16.746205, 28.104824],
              [-16.746217, 28.104594],
              [-16.746324, 28.104179],
              [-16.74668, 28.103905],
              [-16.74784, 28.102668],
              [-16.748381, 28.102022],
              [-16.748492, 28.101869],
              [-16.748268, 28.101566],
              [-16.747993, 28.100833],
              [-16.747674, 28.10065],
              [-16.748969, 28.099063],
              [-16.747321, 28.09743],
              [-16.74617, 28.096672],
              [-16.744869, 28.097196],
              [-16.744677, 28.097558],
              [-16.744032, 28.098087],
              [-16.743542, 28.098589],
              [-16.743204, 28.09873],
              [-16.742314, 28.099856],
              [-16.7415, 28.099435],
              [-16.741089, 28.099839],
              [-16.74054, 28.099451],
              [-16.74089, 28.099061],
              [-16.740248, 28.098674],
              [-16.738105, 28.09726],
              [-16.736007, 28.095877],
              [-16.735188, 28.095334],
              [-16.73396, 28.096112],
              [-16.733703, 28.096241],
              [-16.732762, 28.096749],
              [-16.730403, 28.096484],
              [-16.730332, 28.096477],
              [-16.730319, 28.096396],
              [-16.730346, 28.0964],
              [-16.730312, 28.096355],
              [-16.730139, 28.095307],
              [-16.729897, 28.093684],
              [-16.729736, 28.092689],
              [-16.729731, 28.092663]
            ]
          ]
        ]
      }
    },
    {
      "type": "Feature",
      "properties": {
        "id": "playa-paraiso",
        "name": "Playa Paraíso",
        "cityId": "adeje"
      },
      "geometry": {
        "type": "MultiPolygon",
        "coordinates": [
          [
            [
              [-16.774032, 28.116733],
              [-16.774506, 28.116543],
              [-16.774294, 28.117105],
              [-16.774688, 28.117588],
              [-16.774258, 28.118028],
              [-16.774514, 28.118382],
              [-16.77533, 28.117956],
              [-16.775849, 28.117913],
              [-16.776549, 28.117426],
              [-16.776809, 28.117639],
              [-16.777015, 28.11801],
              [-16.776829, 28.118229],
              [-16.776903, 28.118707],
              [-16.776674, 28.118881],
              [-16.775943, 28.119351],
              [-16.776135, 28.119697],
              [-16.776982, 28.119554],
              [-16.777204, 28.119514],
              [-16.777644, 28.119736],
              [-16.778407, 28.11941],
              [-16.778949, 28.119452],
              [-16.779381, 28.120422],
              [-16.778958, 28.121085],
              [-16.778664, 28.121277],
              [-16.778097, 28.12131],
              [-16.778042, 28.121543],
              [-16.778208, 28.121796],
              [-16.778821, 28.121813],
              [-16.779822, 28.121305],
              [-16.780143, 28.121358],
              [-16.780049, 28.121837],
              [-16.779375, 28.122285],
              [-16.78048, 28.12218],
              [-16.780465, 28.122452],
              [-16.780048, 28.122689],
              [-16.779835, 28.123236],
              [-16.780024, 28.123236],
              [-16.780073, 28.123368],
              [-16.779209, 28.123726],
              [-16.779297, 28.123839],
              [-16.778417, 28.12454],
              [-16.777988, 28.124571],
              [-16.777402, 28.1249],
              [-16.77687, 28.12505],
              [-16.775687, 28.125607],
              [-16.773863, 28.126607],
              [-16.773193, 28.127068],
              [-16.772755, 28.127425],
              [-16.772586, 28.127271],
              [-16.772341, 28.127147],
              [-16.772481, 28.12701],
              [-16.772388, 28.126821],
              [-16.772443, 28.126714],
              [-16.771732, 28.12581],
              [-16.771429, 28.12592],
              [-16.771104, 28.125599],
              [-16.77051, 28.126033],
              [-16.770183, 28.125572],
              [-16.769809, 28.125763],
              [-16.769698, 28.125676],
              [-16.769518, 28.125775],
              [-16.769392, 28.125629],
              [-16.769472, 28.125552],
              [-16.769457, 28.125493],
              [-16.769579, 28.12542],
              [-16.769341, 28.125135],
              [-16.769663, 28.12497],
              [-16.770441, 28.124761],
              [-16.770519, 28.124815],
              [-16.77133, 28.124264],
              [-16.771596, 28.124531],
              [-16.772013, 28.124339],
              [-16.772689, 28.124263],
              [-16.772677, 28.124145],
              [-16.7721, 28.123264],
              [-16.771267, 28.123622],
              [-16.771004, 28.123591],
              [-16.77065, 28.123841],
              [-16.770635, 28.12407],
              [-16.770119, 28.124563],
              [-16.768333, 28.125025],
              [-16.767791, 28.125705],
              [-16.767344, 28.125765],
              [-16.76718, 28.125658],
              [-16.766838, 28.125755],
              [-16.76675, 28.125946],
              [-16.765905, 28.126456],
              [-16.765562, 28.126744],
              [-16.765408, 28.126712],
              [-16.764856, 28.127041],
              [-16.763956, 28.125374],
              [-16.763869, 28.125294],
              [-16.763021, 28.123635],
              [-16.76357, 28.123366],
              [-16.764341, 28.122997],
              [-16.765087, 28.122835],
              [-16.765477, 28.122149],
              [-16.76589, 28.121738],
              [-16.766703, 28.121042],
              [-16.766085, 28.120256],
              [-16.76614, 28.120132],
              [-16.766495, 28.119942],
              [-16.766709, 28.119664],
              [-16.766817, 28.119519],
              [-16.767231, 28.118922],
              [-16.767697, 28.118539],
              [-16.768344, 28.118125],
              [-16.768733, 28.117714],
              [-16.769479, 28.11814],
              [-16.770095, 28.118466],
              [-16.770443, 28.119058],
              [-16.771455, 28.118533],
              [-16.771499, 28.118592],
              [-16.772031, 28.118162],
              [-16.77271, 28.117697],
              [-16.773252, 28.117051],
              [-16.773525, 28.116832],
              [-16.77402, 28.116733],
              [-16.774028, 28.11673],
              [-16.774032, 28.116733]
            ]
          ]
        ]
      }
    },
    {
      "type": "Feature",
      "properties": {
        "id": "torviscas-fanabe-alto",
        "name": "Torviscas - Fañabé Alto",
        "cityId": "adeje"
      },
      "geometry": {
        "type": "MultiPolygon",
        "coordinates": [
          [
            [
              [-16.729091, 28.074112],
              [-16.729164, 28.074217],
              [-16.729248, 28.074405],
              [-16.729367, 28.074777],
              [-16.729447, 28.075066],
              [-16.729497, 28.075345],
              [-16.729562, 28.075783],
              [-16.729658, 28.076481],
              [-16.729684, 28.076743],
              [-16.729726, 28.077177],
              [-16.729714, 28.07743],
              [-16.729715, 28.077867],
              [-16.729716, 28.077965],
              [-16.729705, 28.078333],
              [-16.729683, 28.078795],
              [-16.729603, 28.079868],
              [-16.729551, 28.080428],
              [-16.729524, 28.080614],
              [-16.729475, 28.080996],
              [-16.729389, 28.081788],
              [-16.729271, 28.082868],
              [-16.729178, 28.083724],
              [-16.729084, 28.084625],
              [-16.729026, 28.085332],
              [-16.729017, 28.085503],
              [-16.728928, 28.085687],
              [-16.728901, 28.086366],
              [-16.728906, 28.087373],
              [-16.728955, 28.087704],
              [-16.728977, 28.087876],
              [-16.729146, 28.089089],
              [-16.729281, 28.08991],
              [-16.729423, 28.090781],
              [-16.729438, 28.090782],
              [-16.729568, 28.091645],
              [-16.729617, 28.091936],
              [-16.729731, 28.092663],
              [-16.729736, 28.092689],
              [-16.729897, 28.093684],
              [-16.730139, 28.095307],
              [-16.730312, 28.096355],
              [-16.730346, 28.0964],
              [-16.730319, 28.096396],
              [-16.730332, 28.096477],
              [-16.730537, 28.097715],
              [-16.730499, 28.09771],
              [-16.7305, 28.097713],
              [-16.729925, 28.097603],
              [-16.729928, 28.097622],
              [-16.729994, 28.098004],
              [-16.729998, 28.098027],
              [-16.729582, 28.098094],
              [-16.729527, 28.097993],
              [-16.729347, 28.097669],
              [-16.729173, 28.097694],
              [-16.729161, 28.097639],
              [-16.729366, 28.097602],
              [-16.729406, 28.09758],
              [-16.729495, 28.09759],
              [-16.72964, 28.097552],
              [-16.729459, 28.097522],
              [-16.728212, 28.097285],
              [-16.727952, 28.097236],
              [-16.727949, 28.097237],
              [-16.727948, 28.097239],
              [-16.727834, 28.097258],
              [-16.727491, 28.097365],
              [-16.727318, 28.09747],
              [-16.727339, 28.097499],
              [-16.727329, 28.097504],
              [-16.727148, 28.097616],
              [-16.727008, 28.097708],
              [-16.72685, 28.097768],
              [-16.726801, 28.097786],
              [-16.726747, 28.097791],
              [-16.726695, 28.097783],
              [-16.726661, 28.09777],
              [-16.726435, 28.097629],
              [-16.725884, 28.097269],
              [-16.725605, 28.097084],
              [-16.725307, 28.096896],
              [-16.725234, 28.096845],
              [-16.72513, 28.096773],
              [-16.724695, 28.096479],
              [-16.724606, 28.096423],
              [-16.724585, 28.096415],
              [-16.724554, 28.096409],
              [-16.724543, 28.096409],
              [-16.72453, 28.096413],
              [-16.72452, 28.096418],
              [-16.724518, 28.096419],
              [-16.724513, 28.096424],
              [-16.724468, 28.096359],
              [-16.724465, 28.096342],
              [-16.724453, 28.09632],
              [-16.724426, 28.096291],
              [-16.724172, 28.096124],
              [-16.72403, 28.096031],
              [-16.724025, 28.096031],
              [-16.724018, 28.096035],
              [-16.723955, 28.095993],
              [-16.723827, 28.095899],
              [-16.723764, 28.095853],
              [-16.723536, 28.095746],
              [-16.723526, 28.095744],
              [-16.723457, 28.095728],
              [-16.723195, 28.095703],
              [-16.723117, 28.095706],
              [-16.723031, 28.09573],
              [-16.722945, 28.095754],
              [-16.722687, 28.095863],
              [-16.722678, 28.095848],
              [-16.722557, 28.095921],
              [-16.721655, 28.096434],
              [-16.721621, 28.096328],
              [-16.72152, 28.096381],
              [-16.721458, 28.096187],
              [-16.721374, 28.09592],
              [-16.721332, 28.095782],
              [-16.7213, 28.095678],
              [-16.721281, 28.095614],
              [-16.721244, 28.095498],
              [-16.721337, 28.095461],
              [-16.721202, 28.095052],
              [-16.721185, 28.095059],
              [-16.721154, 28.095006],
              [-16.721182, 28.094993],
              [-16.721169, 28.094951],
              [-16.721091, 28.09499],
              [-16.720989, 28.094696],
              [-16.720865, 28.094341],
              [-16.720831, 28.094223],
              [-16.72082, 28.09418],
              [-16.720807, 28.094135],
              [-16.720795, 28.094091],
              [-16.720729, 28.093864],
              [-16.720715, 28.093819],
              [-16.720702, 28.093774],
              [-16.72068, 28.093703],
              [-16.720663, 28.093642],
              [-16.720695, 28.093629],
              [-16.720641, 28.093457],
              [-16.720613, 28.093468],
              [-16.720459, 28.092963],
              [-16.720427, 28.092861],
              [-16.72042, 28.092863],
              [-16.720269, 28.092373],
              [-16.720194, 28.092384],
              [-16.720202, 28.09237],
              [-16.719816, 28.09241],
              [-16.719785, 28.092478],
              [-16.719667, 28.092467],
              [-16.718962, 28.092375],
              [-16.718606, 28.092525],
              [-16.717877, 28.093124],
              [-16.717347, 28.093357],
              [-16.716918, 28.09356],
              [-16.716693, 28.093728],
              [-16.716337, 28.094039],
              [-16.715901, 28.094345],
              [-16.714592, 28.094994],
              [-16.713548, 28.095505],
              [-16.713343, 28.095714],
              [-16.712852, 28.095999],
              [-16.712401, 28.096189],
              [-16.712269, 28.09623],
              [-16.712081, 28.096289],
              [-16.711872, 28.09637],
              [-16.711619, 28.096532],
              [-16.711176, 28.096716],
              [-16.710656, 28.097029],
              [-16.710328, 28.097235],
              [-16.710267, 28.097264],
              [-16.710119, 28.097327],
              [-16.710056, 28.097371],
              [-16.709804, 28.097566],
              [-16.709568, 28.097684],
              [-16.709586, 28.097732],
              [-16.709253, 28.097775],
              [-16.708444, 28.097676],
              [-16.708212, 28.097588],
              [-16.708151, 28.097447],
              [-16.708201, 28.097229],
              [-16.708866, 28.097054],
              [-16.708814, 28.096947],
              [-16.708848, 28.096876],
              [-16.708627, 28.096407],
              [-16.708513, 28.096163],
              [-16.708374, 28.095867],
              [-16.708357, 28.095833],
              [-16.708238, 28.095591],
              [-16.708086, 28.095359],
              [-16.708018, 28.095256],
              [-16.707806, 28.094928],
              [-16.706837, 28.093758],
              [-16.706751, 28.093748],
              [-16.70671, 28.093699],
              [-16.706655, 28.093633],
              [-16.706784, 28.093547],
              [-16.706977, 28.093779],
              [-16.706981, 28.093743],
              [-16.706981, 28.093731],
              [-16.706978, 28.093701],
              [-16.706962, 28.093651],
              [-16.706939, 28.093603],
              [-16.706928, 28.093571],
              [-16.706926, 28.093555],
              [-16.706925, 28.093542],
              [-16.706926, 28.093526],
              [-16.706928, 28.093515],
              [-16.706933, 28.093493],
              [-16.706942, 28.093464],
              [-16.706969, 28.093411],
              [-16.706994, 28.093368],
              [-16.70703, 28.093318],
              [-16.707057, 28.093287],
              [-16.707107, 28.093239],
              [-16.707201, 28.093164],
              [-16.707218, 28.093151],
              [-16.707235, 28.093141],
              [-16.707247, 28.093137],
              [-16.707258, 28.093136],
              [-16.707269, 28.093137],
              [-16.707275, 28.093137],
              [-16.707278, 28.093139],
              [-16.707284, 28.093178],
              [-16.707289, 28.093193],
              [-16.707301, 28.093223],
              [-16.70731, 28.09325],
              [-16.707307, 28.093269],
              [-16.7073, 28.093276],
              [-16.707283, 28.093284],
              [-16.707265, 28.093289],
              [-16.707354, 28.093395],
              [-16.707446, 28.093506],
              [-16.707816, 28.093262],
              [-16.70772, 28.093147],
              [-16.707655, 28.093069],
              [-16.70758, 28.093059],
              [-16.70757, 28.093058],
              [-16.707541, 28.093024],
              [-16.707537, 28.093019],
              [-16.707473, 28.092944],
              [-16.707603, 28.092858],
              [-16.70766, 28.092927],
              [-16.707727, 28.093007],
              [-16.707793, 28.093087],
              [-16.707892, 28.093207],
              [-16.708017, 28.093357],
              [-16.708161, 28.093531],
              [-16.708375, 28.09379],
              [-16.708557, 28.09367],
              [-16.708761, 28.093916],
              [-16.708791, 28.093896],
              [-16.708825, 28.093874],
              [-16.708863, 28.09385],
              [-16.708906, 28.093822],
              [-16.708945, 28.093795],
              [-16.708941, 28.093787],
              [-16.708927, 28.093766],
              [-16.708747, 28.093549],
              [-16.708563, 28.093668],
              [-16.70837, 28.093436],
              [-16.708371, 28.093435],
              [-16.70856, 28.093311],
              [-16.70856, 28.093312],
              [-16.708562, 28.093311],
              [-16.708528, 28.093261],
              [-16.708493, 28.093178],
              [-16.708489, 28.093161],
              [-16.708473, 28.093092],
              [-16.708469, 28.092983],
              [-16.708482, 28.092895],
              [-16.708506, 28.092818],
              [-16.708543, 28.092745],
              [-16.708606, 28.092659],
              [-16.708668, 28.092596],
              [-16.708759, 28.092531],
              [-16.709145, 28.092302],
              [-16.709323, 28.092196],
              [-16.709492, 28.092097],
              [-16.709609, 28.092028],
              [-16.710016, 28.091787],
              [-16.710074, 28.091741],
              [-16.71009, 28.09173],
              [-16.710184, 28.09163],
              [-16.710224, 28.091574],
              [-16.710372, 28.091316],
              [-16.710415, 28.09124],
              [-16.710521, 28.091052],
              [-16.710498, 28.090977],
              [-16.710568, 28.090858],
              [-16.710661, 28.090897],
              [-16.710711, 28.090917],
              [-16.710705, 28.090928],
              [-16.711304, 28.091233],
              [-16.71134, 28.091213],
              [-16.711357, 28.091207],
              [-16.711397, 28.091194],
              [-16.71149, 28.091179],
              [-16.711573, 28.091183],
              [-16.711664, 28.091204],
              [-16.711727, 28.091235],
              [-16.711752, 28.091246],
              [-16.711812, 28.091294],
              [-16.711862, 28.091355],
              [-16.711897, 28.091419],
              [-16.71192, 28.091525],
              [-16.711911, 28.091621],
              [-16.711902, 28.091664],
              [-16.711859, 28.091872],
              [-16.711845, 28.09199],
              [-16.711855, 28.092153],
              [-16.711899, 28.09231],
              [-16.711941, 28.092399],
              [-16.712018, 28.092514],
              [-16.712107, 28.092614],
              [-16.71226, 28.09278],
              [-16.712369, 28.092921],
              [-16.712451, 28.093049],
              [-16.712502, 28.09314],
              [-16.712539, 28.093214],
              [-16.712584, 28.093197],
              [-16.712612, 28.093187],
              [-16.71268, 28.09316],
              [-16.713263, 28.092933],
              [-16.713227, 28.092883],
              [-16.713191, 28.092819],
              [-16.713185, 28.092807],
              [-16.713091, 28.092617],
              [-16.71308, 28.092595],
              [-16.712964, 28.092361],
              [-16.712849, 28.092124],
              [-16.712822, 28.092051],
              [-16.712821, 28.09204],
              [-16.712817, 28.091969],
              [-16.712842, 28.09186],
              [-16.712845, 28.091853],
              [-16.71292, 28.091752],
              [-16.712999, 28.091694],
              [-16.713051, 28.091671],
              [-16.713061, 28.091668],
              [-16.713141, 28.091649],
              [-16.713319, 28.091644],
              [-16.713339, 28.091643],
              [-16.713585, 28.091629],
              [-16.713625, 28.091625],
              [-16.713784, 28.091608],
              [-16.71387, 28.091598],
              [-16.713876, 28.091597],
              [-16.713987, 28.091584],
              [-16.713922, 28.091583],
              [-16.714024, 28.091545],
              [-16.714069, 28.091506],
              [-16.714079, 28.091458],
              [-16.714091, 28.091377],
              [-16.714127, 28.091277],
              [-16.714237, 28.091244],
              [-16.714616, 28.091211],
              [-16.714915, 28.091177],
              [-16.715181, 28.091099],
              [-16.715411, 28.091029],
              [-16.715553, 28.09097],
              [-16.715696, 28.090876],
              [-16.716153, 28.090636],
              [-16.716318, 28.090511],
              [-16.716524, 28.090309],
              [-16.716635, 28.09004],
              [-16.716771, 28.08984],
              [-16.717139, 28.089964],
              [-16.717212, 28.089999],
              [-16.717248, 28.090011],
              [-16.717247, 28.090012],
              [-16.717314, 28.090023],
              [-16.717327, 28.090014],
              [-16.717358, 28.089997],
              [-16.717392, 28.089979],
              [-16.717876, 28.089741],
              [-16.718285, 28.08954],
              [-16.718474, 28.089446],
              [-16.718547, 28.08941],
              [-16.718768, 28.089301],
              [-16.718773, 28.089298],
              [-16.718778, 28.089287],
              [-16.718811, 28.089218],
              [-16.718825, 28.089212],
              [-16.718869, 28.089191],
              [-16.718912, 28.089169],
              [-16.718929, 28.089197],
              [-16.719104, 28.089117],
              [-16.719135, 28.089101],
              [-16.719157, 28.089088],
              [-16.719189, 28.089066],
              [-16.719227, 28.089019],
              [-16.719241, 28.088995],
              [-16.719258, 28.088959],
              [-16.719291, 28.088849],
              [-16.719371, 28.088571],
              [-16.719402, 28.088473],
              [-16.719403, 28.088466],
              [-16.719345, 28.088394],
              [-16.719337, 28.088391],
              [-16.719333, 28.088383],
              [-16.719332, 28.088375],
              [-16.719334, 28.088364],
              [-16.719337, 28.088349],
              [-16.71935, 28.088304],
              [-16.719372, 28.088256],
              [-16.719398, 28.088208],
              [-16.719419, 28.088165],
              [-16.719436, 28.088133],
              [-16.71945, 28.088099],
              [-16.719521, 28.088101],
              [-16.71954, 28.088043],
              [-16.719556, 28.088045],
              [-16.719558, 28.088041],
              [-16.719726, 28.088108],
              [-16.720004, 28.088237],
              [-16.719979, 28.088284],
              [-16.720128, 28.088355],
              [-16.720181, 28.088346],
              [-16.720197, 28.088319],
              [-16.720203, 28.088323],
              [-16.720249, 28.088318],
              [-16.720309, 28.08835],
              [-16.72072, 28.088355],
              [-16.720736, 28.088202],
              [-16.720733, 28.08799],
              [-16.720737, 28.087942],
              [-16.720715, 28.087936],
              [-16.720721, 28.087904],
              [-16.720749, 28.087909],
              [-16.720764, 28.087866],
              [-16.720849, 28.087637],
              [-16.72086, 28.087612],
              [-16.72089, 28.087544],
              [-16.720916, 28.087499],
              [-16.720933, 28.087474],
              [-16.720962, 28.087433],
              [-16.72098, 28.087408],
              [-16.720999, 28.087382],
              [-16.721027, 28.087343],
              [-16.721039, 28.087326],
              [-16.721069, 28.087287],
              [-16.7211, 28.087259],
              [-16.721131, 28.087239],
              [-16.721138, 28.087234],
              [-16.721179, 28.08721],
              [-16.72129, 28.08715],
              [-16.721316, 28.087141],
              [-16.721416, 28.087107],
              [-16.721442, 28.087122],
              [-16.721569, 28.087081],
              [-16.721669, 28.087071],
              [-16.721946, 28.086964],
              [-16.721972, 28.086984],
              [-16.721996, 28.086954],
              [-16.72226, 28.086676],
              [-16.722226, 28.086653],
              [-16.722214, 28.086596],
              [-16.722257, 28.086441],
              [-16.722242, 28.086429],
              [-16.722242, 28.086416],
              [-16.72225, 28.086408],
              [-16.722207, 28.086375],
              [-16.722243, 28.086338],
              [-16.722183, 28.086291],
              [-16.722209, 28.086265],
              [-16.722176, 28.08624],
              [-16.722203, 28.086213],
              [-16.722122, 28.08615],
              [-16.722131, 28.086141],
              [-16.722152, 28.08612],
              [-16.722122, 28.086097],
              [-16.722135, 28.086084],
              [-16.722112, 28.086067],
              [-16.722012, 28.085999],
              [-16.721996, 28.085969],
              [-16.721967, 28.085956],
              [-16.72197, 28.08594],
              [-16.721958, 28.085911],
              [-16.721781, 28.085882],
              [-16.721363, 28.085819],
              [-16.721359, 28.085907],
              [-16.721367, 28.086061],
              [-16.721365, 28.086062],
              [-16.721365, 28.086176],
              [-16.721339, 28.086216],
              [-16.721373, 28.086232],
              [-16.721374, 28.086253],
              [-16.721373, 28.086258],
              [-16.72136, 28.086308],
              [-16.721357, 28.086313],
              [-16.721331, 28.086358],
              [-16.721288, 28.086388],
              [-16.721264, 28.086403],
              [-16.72119, 28.08643],
              [-16.721176, 28.086434],
              [-16.721046, 28.086475],
              [-16.720921, 28.08651],
              [-16.7208, 28.086549],
              [-16.720763, 28.086562],
              [-16.720677, 28.086594],
              [-16.720466, 28.08665],
              [-16.720465, 28.08665],
              [-16.720425, 28.086661],
              [-16.720238, 28.086723],
              [-16.720108, 28.086754],
              [-16.720044, 28.086772],
              [-16.719978, 28.086784],
              [-16.719911, 28.086789],
              [-16.719844, 28.086787],
              [-16.719777, 28.086777],
              [-16.719712, 28.086761],
              [-16.71965, 28.086738],
              [-16.719448, 28.086517],
              [-16.719308, 28.086194],
              [-16.719299, 28.086017],
              [-16.719283, 28.086019],
              [-16.719281, 28.085948],
              [-16.719292, 28.085896],
              [-16.71929, 28.085868],
              [-16.719301, 28.085853],
              [-16.719302, 28.085851],
              [-16.719308, 28.085822],
              [-16.719349, 28.085645],
              [-16.719352, 28.085644],
              [-16.719353, 28.085645],
              [-16.71938, 28.085513],
              [-16.719448, 28.085416],
              [-16.71953, 28.085282],
              [-16.719628, 28.085114],
              [-16.719964, 28.084493],
              [-16.720084, 28.084398],
              [-16.72028, 28.084353],
              [-16.720283, 28.084319],
              [-16.720279, 28.08434],
              [-16.720075, 28.084284],
              [-16.720036, 28.084274],
              [-16.720155, 28.084016],
              [-16.720164, 28.084],
              [-16.720211, 28.084029],
              [-16.720201, 28.084043],
              [-16.720203, 28.084045],
              [-16.720302, 28.084106],
              [-16.720308, 28.084043],
              [-16.72024, 28.083921],
              [-16.720235, 28.083636],
              [-16.720195, 28.083637],
              [-16.720192, 28.083498],
              [-16.720236, 28.083467],
              [-16.72025, 28.083236],
              [-16.720273, 28.08283],
              [-16.720282, 28.082778],
              [-16.720317, 28.082573],
              [-16.720372, 28.082293],
              [-16.720437, 28.081663],
              [-16.720527, 28.080636],
              [-16.720544, 28.080428],
              [-16.720539, 28.080205],
              [-16.720549, 28.080133],
              [-16.720573, 28.080054],
              [-16.720578, 28.079988],
              [-16.72062, 28.079909],
              [-16.72054, 28.079875],
              [-16.720492, 28.079852],
              [-16.720572, 28.079693],
              [-16.720582, 28.079673],
              [-16.720682, 28.079472],
              [-16.720704, 28.079459],
              [-16.720774, 28.079486],
              [-16.720803, 28.079546],
              [-16.720812, 28.079548],
              [-16.720836, 28.079504],
              [-16.720838, 28.079498],
              [-16.720922, 28.079286],
              [-16.721015, 28.079095],
              [-16.72102, 28.079096],
              [-16.721075, 28.07898],
              [-16.721073, 28.078979],
              [-16.721245, 28.078691],
              [-16.721247, 28.078688],
              [-16.721267, 28.078655],
              [-16.721365, 28.078513],
              [-16.721455, 28.078346],
              [-16.721946, 28.07742],
              [-16.722019, 28.077285],
              [-16.722602, 28.075454],
              [-16.722602, 28.075443],
              [-16.722704, 28.07542],
              [-16.722789, 28.075397],
              [-16.723276, 28.075325],
              [-16.723855, 28.07536],
              [-16.724069, 28.075359],
              [-16.724738, 28.075438],
              [-16.725084, 28.07539],
              [-16.725971, 28.075093],
              [-16.726195, 28.075009],
              [-16.726647, 28.074871],
              [-16.72665, 28.074879],
              [-16.726706, 28.074863],
              [-16.726844, 28.074826],
              [-16.727017, 28.074721],
              [-16.727017, 28.074704],
              [-16.727093, 28.074663],
              [-16.727098, 28.074671],
              [-16.727212, 28.074601],
              [-16.727329, 28.07448],
              [-16.727947, 28.074111],
              [-16.728516, 28.073965],
              [-16.728626, 28.074302],
              [-16.728848, 28.074223],
              [-16.728857, 28.074198],
              [-16.729091, 28.074112]
            ]
          ]
        ]
      }
    }
  ]
}
