{
  "type": "FeatureCollection",
  "name": "arona-neighborhoods",
  "metadata": {
    "schemaVersion": 1,
    "cityId": "arona",
    "cityName": "Arona",
    "representative": false,
    "source": "Núcleos turísticos 2014 — Instituto Canario de Estadística (ISTAC), Gobierno de Canarias (atribución)"
  },
  "features": [
    {
      "type": "Feature",
      "properties": {
        "id": "costa-del-silencio",
        "name": "Costa del Silencio",
        "cityId": "arona"
      },
      "geometry": {
        "type": "MultiPolygon",
        "coordinates": [
          [
            [
              [-16.638556, 28.008797],
              [-16.63868, 28.008666],
              [-16.638564, 28.008366],
              [-16.638796, 28.007994],
              [-16.63865, 28.007135],
              [-16.638219, 28.006608],
              [-16.638313, 28.006348],
              [-16.638478, 28.006391],
              [-16.63895, 28.00605],
              [-16.639151, 28.006096],
              [-16.639114, 28.005703],
              [-16.639498, 28.005452],
              [-16.64002, 28.005427],
              [-16.640035, 28.005232],
              [-16.640507, 28.00502],
              [-16.640737, 28.005171],
              [-16.640941, 28.005231],
              [-16.64165, 28.005295],
              [-16.641773, 28.004932],
              [-16.642118, 28.004724],
              [-16.642987, 28.00437],
              [-16.643347, 28.004168],
              [-16.643398, 28.003888],
              [-16.64361, 28.003777],
              [-16.645217, 28.003613],
              [-16.646556, 28.004029],
              [-16.646796, 28.004355],
              [-16.646922, 28.004462],
              [-16.646968, 28.004701],
              [-16.647151, 28.005085],
              [-16.647536, 28.00524],
              [-16.648021, 28.005903],
              [-16.648547, 28.006217],
              [-16.64848, 28.006707],
              [-16.648737, 28.007101],
              [-16.649052, 28.007124],
              [-16.648995, 28.007304],
              [-16.64914, 28.007567],
              [-16.649881, 28.007769],
              [-16.650449, 28.007873],
              [-16.650817, 28.007513],
              [-16.651538, 28.008248],
              [-16.651688, 28.008237],
              [-16.651694, 28.007871],
              [-16.652381, 28.007616],
              [-16.652629, 28.006662],
              [-16.652803, 28.006794],
              [-16.653429, 28.006308],
              [-16.65429, 28.00621],
              [-16.654739, 28.0064],
              [-16.656217, 28.006052],
              [-16.657578, 28.007064],
              [-16.658172, 28.007333],
              [-16.658684, 28.006843],
              [-16.659528, 28.006484],
              [-16.661032, 28.006668],
              [-16.661502, 28.006964],
              [-16.66123, 28.007185],
              [-16.66099, 28.007058],
              [-16.66102, 28.006978],
              [-16.660922, 28.006852],
              [-16.66069, 28.006775],
              [-16.660666, 28.006769],
              [-16.659999, 28.006686],
              [-16.659886, 28.006688],
              [-16.659263, 28.006787],
              [-16.658858, 28.006957],
              [-16.658949, 28.007337],
              [-16.65881, 28.007481],
              [-16.65845, 28.007743],
              [-16.659148, 28.008458],
              [-16.661145, 28.009016],
              [-16.661541, 28.008661],
              [-16.661354, 28.008443],
              [-16.661499, 28.008323],
              [-16.661635, 28.008165],
              [-16.662387, 28.008285],
              [-16.662486, 28.008229],
              [-16.662485, 28.008276],
              [-16.662485, 28.008282],
              [-16.662466, 28.00871],
              [-16.662447, 28.00876],
              [-16.662466, 28.008983],
              [-16.66231, 28.00936],
              [-16.662307, 28.009454],
              [-16.662546, 28.009647],
              [-16.662896, 28.010134],
              [-16.66302, 28.010343],
              [-16.66337, 28.01121],
              [-16.663585, 28.012107],
              [-16.663539, 28.012275],
              [-16.663455, 28.012442],
              [-16.663273, 28.012377],
              [-16.662895, 28.01239],
              [-16.662298, 28.012491],
              [-16.661655, 28.012575],
              [-16.660636, 28.012726],
              [-16.659828, 28.012874],
              [-16.658833, 28.01302],
              [-16.657899, 28.013147],
              [-16.657086, 28.013296],
              [-16.656373, 28.013398],
              [-16.656369, 28.013483],
              [-16.656309, 28.013488],
              [-16.656282, 28.013413],
              [-16.656022, 28.013478],
              [-16.65571, 28.013527],
              [-16.655429, 28.013543],
              [-16.655138, 28.01361],
              [-16.654359, 28.013704],
              [-16.654632, 28.015121],
              [-16.655064, 28.017019],
              [-16.655612, 28.016954],
              [-16.655872, 28.018523],
              [-16.655895, 28.01871],
              [-16.655157, 28.018844],
              [-16.653676, 28.019054],
              [-16.652048, 28.019253],
              [-16.651967, 28.019227],
              [-16.652077, 28.018529],
              [-16.652096, 28.018108],
              [-16.652103, 28.017613],
              [-16.649687, 28.017275],
              [-16.64877, 28.017161],
              [-16.646202, 28.016821],
              [-16.643227, 28.016437],
              [-16.642389, 28.016313],
              [-16.642077, 28.016272],
              [-16.641406, 28.015552],
              [-16.640921, 28.014093],
              [-16.64061, 28.013149],
              [-16.640539, 28.013097],
              [-16.640341, 28.012693],
              [-16.640107, 28.012168],
              [-16.639966, 28.011862],
              [-16.639882, 28.011626],
              [-16.639871, 28.011528],
              [-16.639464, 28.011595],
              [-16.638926, 28.011729],
              [-16.63893, 28.011343],
              [-16.638953, 28.009159],
              [-16.638601, 28.008837],
              [-16.638556, 28.008797]
            ]
          ]
        ]
      }
    },
    {
      "type": "Feature",
      "properties": {
        "id": "las-americas-arona",
        "name": "Las Américas - Arona",
        "cityId": "arona"
      },
      "geometry": {
        "type": "MultiPolygon",
        "coordinates": [
          [
            [
              [-16.733557, 28.066611],
              [-16.733546, 28.066613],
              [-16.733534, 28.066615],
              [-16.733523, 28.066617],
              [-16.733512, 28.066619],
              [-16.733501, 28.06662],
              [-16.733488, 28.066619],
              [-16.733475, 28.066619],
              [-16.733464, 28.066621],
              [-16.733452, 28.066623],
              [-16.73344, 28.066624],
              [-16.733429, 28.066625],
              [-16.733425, 28.066625],
              [-16.733052, 28.066673],
              [-16.732913, 28.066725],
              [-16.732799, 28.06678],
              [-16.732636, 28.066846],
              [-16.732448, 28.066875],
              [-16.73229, 28.066911],
              [-16.732163, 28.066928],
              [-16.731976, 28.066978],
              [-16.731771, 28.067066],
              [-16.731348, 28.067191],
              [-16.731117, 28.067242],
              [-16.730941, 28.06725],
              [-16.730614, 28.067264],
              [-16.730525, 28.067269],
              [-16.730026, 28.067289],
              [-16.729795, 28.067288],
              [-16.72962, 28.067247],
              [-16.729504, 28.067178],
              [-16.729301, 28.067034],
              [-16.729105, 28.066892],
              [-16.728976, 28.066808],
              [-16.728921, 28.066771],
              [-16.728823, 28.066767],
              [-16.728744, 28.066746],
              [-16.728524, 28.066683],
              [-16.728377, 28.066626],
              [-16.728134, 28.066485],
              [-16.727944, 28.066379],
              [-16.727721, 28.06626],
              [-16.727591, 28.066158],
              [-16.727463, 28.066078],
              [-16.727327, 28.065983],
              [-16.727248, 28.065982],
              [-16.727122, 28.066013],
              [-16.726959, 28.066091],
              [-16.726802, 28.066147],
              [-16.726633, 28.066208],
              [-16.726402, 28.066268],
              [-16.72624, 28.066326],
              [-16.72615, 28.066393],
              [-16.726072, 28.066468],
              [-16.726042, 28.066527],
              [-16.726018, 28.066561],
              [-16.726014, 28.066615],
              [-16.726015, 28.066701],
              [-16.726019, 28.066724],
              [-16.726004, 28.066744],
              [-16.725915, 28.066912],
              [-16.725827, 28.067112],
              [-16.725754, 28.067259],
              [-16.725589, 28.067404],
              [-16.725331, 28.067558],
              [-16.725268, 28.067597],
              [-16.725225, 28.067625],
              [-16.725082, 28.067609],
              [-16.724961, 28.067594],
              [-16.724849, 28.067575],
              [-16.724699, 28.067555],
              [-16.724635, 28.067544],
              [-16.724625, 28.067542],
              [-16.724436, 28.067456],
              [-16.724216, 28.067358],
              [-16.724069, 28.067283],
              [-16.72394, 28.067187],
              [-16.723485, 28.066839],
              [-16.723177, 28.06659],
              [-16.722946, 28.066422],
              [-16.722768, 28.066266],
              [-16.722639, 28.066182],
              [-16.722411, 28.066085],
              [-16.722288, 28.066019],
              [-16.722246, 28.066026],
              [-16.72215, 28.066039],
              [-16.721984, 28.066082],
              [-16.721903, 28.066103],
              [-16.721878, 28.066151],
              [-16.721794, 28.066249],
              [-16.721664, 28.066424],
              [-16.721638, 28.066533],
              [-16.721567, 28.066838],
              [-16.721466, 28.066999],
              [-16.721329, 28.066951],
              [-16.721237, 28.066949],
              [-16.721053, 28.067009],
              [-16.72094, 28.067098],
              [-16.720716, 28.067213],
              [-16.720424, 28.067265],
              [-16.720188, 28.067276],
              [-16.720177, 28.067259],
              [-16.720031, 28.067251],
              [-16.719926, 28.067197],
              [-16.719875, 28.067094],
              [-16.719868, 28.066972],
              [-16.719832, 28.066899],
              [-16.719829, 28.066854],
              [-16.719792, 28.066841],
              [-16.719795, 28.0667],
              [-16.719724, 28.066589],
              [-16.719469, 28.066353],
              [-16.719258, 28.066244],
              [-16.718768, 28.066143],
              [-16.718426, 28.066079],
              [-16.718062, 28.066007],
              [-16.716766, 28.065758],
              [-16.715948, 28.065597],
              [-16.715293, 28.065471],
              [-16.714614, 28.065338],
              [-16.714595, 28.065347],
              [-16.713079, 28.065057],
              [-16.712754, 28.064991],
              [-16.712252, 28.064901],
              [-16.712101, 28.064924],
              [-16.712015, 28.064975],
              [-16.711953, 28.06504],
              [-16.711925, 28.065116],
              [-16.711917, 28.065191],
              [-16.711915, 28.065283],
              [-16.711919, 28.065337],
              [-16.711951, 28.065411],
              [-16.71198, 28.065442],
              [-16.711825, 28.065591],
              [-16.711508, 28.065391],
              [-16.711349, 28.065293],
              [-16.711192, 28.065194],
              [-16.711076, 28.065118],
              [-16.710931, 28.065011],
              [-16.711025, 28.064825],
              [-16.711402, 28.064067],
              [-16.711451, 28.063965],
              [-16.711632, 28.063584],
              [-16.711776, 28.063336],
              [-16.711803, 28.063285],
              [-16.711848, 28.063205],
              [-16.712034, 28.062884],
              [-16.712014, 28.062782],
              [-16.712004, 28.06274],
              [-16.712005, 28.062737],
              [-16.712003, 28.062727],
              [-16.712585, 28.061921],
              [-16.712726, 28.061722],
              [-16.71273, 28.061722],
              [-16.712985, 28.061649],
              [-16.71318, 28.061661],
              [-16.713192, 28.061646],
              [-16.713193, 28.061646],
              [-16.713193, 28.061645],
              [-16.71328, 28.061651],
              [-16.714216, 28.0617],
              [-16.714218, 28.06171],
              [-16.714228, 28.061711],
              [-16.714227, 28.061729],
              [-16.714344, 28.061722],
              [-16.714393, 28.061714],
              [-16.714496, 28.061687],
              [-16.714552, 28.061658],
              [-16.714724, 28.061557],
              [-16.714879, 28.061449],
              [-16.715, 28.061376],
              [-16.715378, 28.061128],
              [-16.715462, 28.06107],
              [-16.715843, 28.060823],
              [-16.716091, 28.060663],
              [-16.716398, 28.06046],
              [-16.716859, 28.060162],
              [-16.717049, 28.060053],
              [-16.717224, 28.059964],
              [-16.717308, 28.059919],
              [-16.717394, 28.059877],
              [-16.717581, 28.059782],
              [-16.717764, 28.059695],
              [-16.717861, 28.059644],
              [-16.71788, 28.059634],
              [-16.717904, 28.059614],
              [-16.718427, 28.059438],
              [-16.718439, 28.059432],
              [-16.718456, 28.059414],
              [-16.718505, 28.059228],
              [-16.71858, 28.058925],
              [-16.718636, 28.058682],
              [-16.718632, 28.058651],
              [-16.718589, 28.058614],
              [-16.718592, 28.058603],
              [-16.718603, 28.058554],
              [-16.719152, 28.058679],
              [-16.719167, 28.058675],
              [-16.719171, 28.058666],
              [-16.719417, 28.058722],
              [-16.72001, 28.058853],
              [-16.720159, 28.058193],
              [-16.720335, 28.057394],
              [-16.720418, 28.057383],
              [-16.720597, 28.057343],
              [-16.720741, 28.057294],
              [-16.720853, 28.057233],
              [-16.720871, 28.057225],
              [-16.721084, 28.05711],
              [-16.721197, 28.057049],
              [-16.721481, 28.056893],
              [-16.721826, 28.056705],
              [-16.722225, 28.05648],
              [-16.72255, 28.056315],
              [-16.722572, 28.056303],
              [-16.722831, 28.056161],
              [-16.722925, 28.056111],
              [-16.723009, 28.056067],
              [-16.723272, 28.055923],
              [-16.723313, 28.055897],
              [-16.723378, 28.055844],
              [-16.723385, 28.055836],
              [-16.723465, 28.055734],
              [-16.723507, 28.055654],
              [-16.723516, 28.055633],
              [-16.723674, 28.05516],
              [-16.723812, 28.054714],
              [-16.723863, 28.054552],
              [-16.723875, 28.054417],
              [-16.72387, 28.054346],
              [-16.723863, 28.054268],
              [-16.72389, 28.054122],
              [-16.723912, 28.053985],
              [-16.723971, 28.054006],
              [-16.723984, 28.053993],
              [-16.72399, 28.053978],
              [-16.723997, 28.053979],
              [-16.723999, 28.053977],
              [-16.724054, 28.053989],
              [-16.724144, 28.054004],
              [-16.724176, 28.053988],
              [-16.724287, 28.053639],
              [-16.724612, 28.052651],
              [-16.724726, 28.0523],
              [-16.724727, 28.052296],
              [-16.725105, 28.052442],
              [-16.72636, 28.052464],
              [-16.727548, 28.051756],
              [-16.726684, 28.050838],
              [-16.728229, 28.051924],
              [-16.728839, 28.051713],
              [-16.728889, 28.051509],
              [-16.729484, 28.0511],
              [-16.730267, 28.051434],
              [-16.731379, 28.050788],
              [-16.731448, 28.050889],
              [-16.730101, 28.051811],
              [-16.730978, 28.05265],
              [-16.732252, 28.052983],
              [-16.733299, 28.052653],
              [-16.73352, 28.051903],
              [-16.733484, 28.051492],
              [-16.732498, 28.051146],
              [-16.732604, 28.051002],
              [-16.73363, 28.051468],
              [-16.733645, 28.051938],
              [-16.73337, 28.052879],
              [-16.734205, 28.053223],
              [-16.734269, 28.053464],
              [-16.734718, 28.053783],
              [-16.736506, 28.054408],
              [-16.737234, 28.055218],
              [-16.737306, 28.055446],
              [-16.737068, 28.056232],
              [-16.737013, 28.056354],
              [-16.736634, 28.056915],
              [-16.736386, 28.057699],
              [-16.736674, 28.058597],
              [-16.736416, 28.059536],
              [-16.736074, 28.059987],
              [-16.735657, 28.060363],
              [-16.735239, 28.06095],
              [-16.735019, 28.061286],
              [-16.734866, 28.061769],
              [-16.733215, 28.063253],
              [-16.732639, 28.06435],
              [-16.732553, 28.065287],
              [-16.732668, 28.065905],
              [-16.73309, 28.066539],
              [-16.733557, 28.066611]
            ]
          ]
        ]
      }
    },
    {
      "type": "Feature",
      "properties": {
        "id": "los-cristianos",
        "name": "Los Cristianos",
        "cityId": "arona"
      },
      "geometry": {
        "type": "MultiPolygon",
        "coordinates": [
          [
            [
              [-16.724727, 28.052296],
              [-16.724726, 28.0523],
              [-16.724612, 28.052651],
              [-16.724287, 28.053639],
              [-16.724176, 28.053988],
              [-16.724144, 28.054004],
              [-16.724054, 28.053989],
              [-16.723999, 28.053977],
              [-16.723997, 28.053979],
              [-16.72399, 28.053978],
              [-16.723984, 28.053993],
              [-16.723971, 28.054006],
              [-16.723912, 28.053985],
              [-16.72389, 28.054122],
              [-16.723863, 28.054268],
              [-16.72387, 28.054346],
              [-16.723875, 28.054417],
              [-16.723863, 28.054552],
              [-16.723812, 28.054714],
              [-16.723674, 28.05516],
              [-16.723516, 28.055633],
              [-16.723507, 28.055654],
              [-16.723465, 28.055734],
              [-16.723385, 28.055836],
              [-16.723378, 28.055844],
              [-16.723313, 28.055897],
              [-16.723272, 28.055923],
              [-16.723009, 28.056067],
              [-16.722925, 28.056111],
              [-16.722831, 28.056161],
              [-16.722572, 28.056303],
              [-16.72255, 28.056315],
              [-16.722225, 28.05648],
              [-16.721826, 28.056705],
              [-16.721481, 28.056893],
              [-16.721197, 28.057049],
              [-16.721084, 28.05711],
              [-16.720871, 28.057225],
              [-16.720853, 28.057233],
              [-16.720741, 28.057294],
              [-16.720597, 28.057343],
              [-16.720418, 28.057383],
              [-16.720335, 28.057394],
              [-16.720159, 28.058193],
              [-16.72001, 28.058853],
              [-16.719417, 28.058722],
              [-16.719171, 28.058666],
              [-16.719167, 28.058675],
              [-16.719152, 28.058679],
              [-16.718603, 28.058554],
              [-16.718592, 28.058603],
              [-16.718589, 28.058614],
              [-16.718632, 28.058651],
              [-16.718636, 28.058682],
              [-16.71858, 28.058925],
              [-16.718505, 28.059228],
              [-16.718456, 28.059414],
              [-16.718439, 28.059432],
              [-16.718427, 28.059438],
              [-16.717904, 28.059614],
              [-16.71788, 28.059634],
              [-16.717861, 28.059644],
              [-16.717764, 28.059695],
              [-16.717581, 28.059782],
              [-16.717394, 28.059877],
              [-16.717308, 28.059919],
              [-16.717224, 28.059964],
              [-16.717049, 28.060053],
              [-16.716859, 28.060162],
              [-16.716398, 28.06046],
              [-16.716091, 28.060663],
              [-16.715843, 28.060823],
              [-16.715462, 28.06107],
              [-16.715378, 28.061128],
              [-16.715, 28.061376],
              [-16.714879, 28.061449],
              [-16.714724, 28.061557],
              [-16.714552, 28.061658],
              [-16.714496, 28.061687],
              [-16.714393, 28.061714],
              [-16.714344, 28.061722],
              [-16.714227, 28.061729],
              [-16.714228, 28.061711],
              [-16.714218, 28.06171],
              [-16.714216, 28.0617],
              [-16.71328, 28.061651],
              [-16.713193, 28.061645],
              [-16.713193, 28.061646],
              [-16.713192, 28.061646],
              [-16.71318, 28.061661],
              [-16.712985, 28.061649],
              [-16.71273, 28.061722],
              [-16.712726, 28.061722],
              [-16.712585, 28.061921],
              [-16.712003, 28.062727],
              [-16.712005, 28.062737],
              [-16.712004, 28.06274],
              [-16.712014, 28.062782],
              [-16.712034, 28.062884],
              [-16.711848, 28.063205],
              [-16.711803, 28.063285],
              [-16.711776, 28.063336],
              [-16.711632, 28.063584],
              [-16.711451, 28.063965],
              [-16.711402, 28.064067],
              [-16.711025, 28.064825],
              [-16.710931, 28.065011],
              [-16.710929, 28.065015],
              [-16.710347, 28.065901],
              [-16.710225, 28.066068],
              [-16.709953, 28.066395],
              [-16.708855, 28.067482],
              [-16.707978, 28.068316],
              [-16.707499, 28.068678],
              [-16.707561, 28.068405],
              [-16.70748, 28.066962],
              [-16.707373, 28.065717],
              [-16.707309, 28.065104],
              [-16.70718, 28.063967],
              [-16.707097, 28.063225],
              [-16.705053, 28.062321],
              [-16.704632, 28.062139],
              [-16.703651, 28.061695],
              [-16.702883, 28.061367],
              [-16.702321, 28.061153],
              [-16.701867, 28.060997],
              [-16.701351, 28.060867],
              [-16.700869, 28.060756],
              [-16.700911, 28.060553],
              [-16.701303, 28.060482],
              [-16.701208, 28.060454],
              [-16.701227, 28.060391],
              [-16.701182, 28.060373],
              [-16.701185, 28.060348],
              [-16.701227, 28.060362],
              [-16.701395, 28.060268],
              [-16.701547, 28.060181],
              [-16.701629, 28.060085],
              [-16.701838, 28.059972],
              [-16.702057, 28.059925],
              [-16.702242, 28.059835],
              [-16.702514, 28.059747],
              [-16.702949, 28.059723],
              [-16.703126, 28.059695],
              [-16.703385, 28.059523],
              [-16.703421, 28.059471],
              [-16.703502, 28.05936],
              [-16.703702, 28.059159],
              [-16.703919, 28.059016],
              [-16.7042, 28.058969],
              [-16.704388, 28.05901],
              [-16.704529, 28.05906],
              [-16.704584, 28.059122],
              [-16.704618, 28.05893],
              [-16.704181, 28.058535],
              [-16.704059, 28.058643],
              [-16.703835, 28.058389],
              [-16.703999, 28.058262],
              [-16.703878, 28.05823],
              [-16.703576, 28.058499],
              [-16.703213, 28.058613],
              [-16.702369, 28.058929],
              [-16.701469, 28.058925],
              [-16.699766, 28.058855],
              [-16.699405, 28.058848],
              [-16.698713, 28.058809],
              [-16.698875, 28.058351],
              [-16.699169, 28.057818],
              [-16.699908, 28.057401],
              [-16.700689, 28.057255],
              [-16.701222, 28.056889],
              [-16.701744, 28.056364],
              [-16.701738, 28.056],
              [-16.701924, 28.055965],
              [-16.702048, 28.055691],
              [-16.702231, 28.055696],
              [-16.702242, 28.055387],
              [-16.702476, 28.055204],
              [-16.702513, 28.055182],
              [-16.702585, 28.05506],
              [-16.702527, 28.055038],
              [-16.70248, 28.054672],
              [-16.702519, 28.054561],
              [-16.7027, 28.054191],
              [-16.702786, 28.053855],
              [-16.702756, 28.05379],
              [-16.702697, 28.053765],
              [-16.702713, 28.053698],
              [-16.702597, 28.053428],
              [-16.702737, 28.053136],
              [-16.70273, 28.052956],
              [-16.702668, 28.052673],
              [-16.70268, 28.052423],
              [-16.702815, 28.052304],
              [-16.702781, 28.052205],
              [-16.702597, 28.052127],
              [-16.702555, 28.052091],
              [-16.702583, 28.052017],
              [-16.702626, 28.051854],
              [-16.702524, 28.051676],
              [-16.702467, 28.051489],
              [-16.702519, 28.051113],
              [-16.702435, 28.050537],
              [-16.702371, 28.050373],
              [-16.702491, 28.050371],
              [-16.702459, 28.050221],
              [-16.705655, 28.050299],
              [-16.705875, 28.050362],
              [-16.705966, 28.050347],
              [-16.70679, 28.050336],
              [-16.706968, 28.050341],
              [-16.707255, 28.050139],
              [-16.706729, 28.049591],
              [-16.706556, 28.049391],
              [-16.706371, 28.048989],
              [-16.706257, 28.048843],
              [-16.706178, 28.04858],
              [-16.706296, 28.047608],
              [-16.706394, 28.046761],
              [-16.706473, 28.045978],
              [-16.706465, 28.045757],
              [-16.706043, 28.045233],
              [-16.705748, 28.044917],
              [-16.704993, 28.044055],
              [-16.705455, 28.043723],
              [-16.705666, 28.043386],
              [-16.705383, 28.043349],
              [-16.707128, 28.042063],
              [-16.709018, 28.040688],
              [-16.709174, 28.041558],
              [-16.709423, 28.041984],
              [-16.710751, 28.042792],
              [-16.7113, 28.042428],
              [-16.711534, 28.042606],
              [-16.711168, 28.043151],
              [-16.7103, 28.043632],
              [-16.711085, 28.043925],
              [-16.711668, 28.043864],
              [-16.71187, 28.044322],
              [-16.711786, 28.044542],
              [-16.711943, 28.044663],
              [-16.711341, 28.045027],
              [-16.711294, 28.045346],
              [-16.710929, 28.045808],
              [-16.710964, 28.046463],
              [-16.711231, 28.047071],
              [-16.711499, 28.047331],
              [-16.711796, 28.047344],
              [-16.712054, 28.047726],
              [-16.713027, 28.04821],
              [-16.713739, 28.048754],
              [-16.713861, 28.049032],
              [-16.714571, 28.04942],
              [-16.715219, 28.049636],
              [-16.715734, 28.04958],
              [-16.715979, 28.04983],
              [-16.717623, 28.049983],
              [-16.718509, 28.049902],
              [-16.718988, 28.049503],
              [-16.718245, 28.048919],
              [-16.718831, 28.049333],
              [-16.718916, 28.049234],
              [-16.719064, 28.04934],
              [-16.719123, 28.049273],
              [-16.719666, 28.04865],
              [-16.718912, 28.048072],
              [-16.71856, 28.048428],
              [-16.718422, 28.048334],
              [-16.718704, 28.047902],
              [-16.718564, 28.047734],
              [-16.718774, 28.047606],
              [-16.71707, 28.046192],
              [-16.717119, 28.045912],
              [-16.717335, 28.045874],
              [-16.721028, 28.04856],
              [-16.723122, 28.04929],
              [-16.722163, 28.049204],
              [-16.722, 28.049575],
              [-16.72209, 28.050255],
              [-16.722384, 28.050747],
              [-16.723024, 28.051259],
              [-16.723301, 28.051314],
              [-16.723492, 28.051503],
              [-16.724074, 28.052042],
              [-16.724727, 28.052296]
            ]
          ]
        ]
      }
    }
  ]
}
