{
  "type": "FeatureCollection",
  "name": "mogan-neighborhoods",
  "metadata": {
    "schemaVersion": 1,
    "cityId": "mogan",
    "cityName": "Mogán",
    "representative": false,
    "source": "Núcleos turísticos 2014 — Instituto Canario de Estadística (ISTAC), Gobierno de Canarias (atribución)"
  },
  "features": [
    {
      "type": "Feature",
      "properties": {
        "id": "amadores",
        "name": "Amadores",
        "cityId": "mogan"
      },
      "geometry": {
        "type": "MultiPolygon",
        "coordinates": [
          [
            [
              [-15.728288, 27.793682],
              [-15.727858, 27.793583],
              [-15.72736, 27.793468],
              [-15.726906, 27.793365],
              [-15.726909, 27.793363],
              [-15.726906, 27.793362],
              [-15.726868, 27.793217],
              [-15.726784, 27.793117],
              [-15.726576, 27.792976],
              [-15.726307, 27.792836],
              [-15.726088, 27.792727],
              [-15.725841, 27.7926],
              [-15.725362, 27.792435],
              [-15.725253, 27.792632],
              [-15.725192, 27.792729],
              [-15.725084, 27.792845],
              [-15.724898, 27.792946],
              [-15.724731, 27.792997],
              [-15.724552, 27.793013],
              [-15.72467, 27.793303],
              [-15.724671, 27.793409],
              [-15.723982, 27.793464],
              [-15.723986, 27.793509],
              [-15.723385, 27.793667],
              [-15.723345, 27.793677],
              [-15.723312, 27.79359],
              [-15.723276, 27.793632],
              [-15.723185, 27.793639],
              [-15.723131, 27.793623],
              [-15.723094, 27.793588],
              [-15.723079, 27.793546],
              [-15.723079, 27.793498],
              [-15.7228, 27.793483],
              [-15.722477, 27.793501],
              [-15.722122, 27.793513],
              [-15.721853, 27.793517],
              [-15.721625, 27.793612],
              [-15.721477, 27.793703],
              [-15.721289, 27.79373],
              [-15.720955, 27.793751],
              [-15.72042, 27.794034],
              [-15.72037, 27.794057],
              [-15.720185, 27.79409],
              [-15.720183, 27.794339],
              [-15.718574, 27.795118],
              [-15.717982, 27.795021],
              [-15.7173, 27.795089],
              [-15.716759, 27.795021],
              [-15.716364, 27.795078],
              [-15.716168, 27.795027],
              [-15.714893, 27.794776],
              [-15.714114, 27.794903],
              [-15.713549, 27.795073],
              [-15.712226, 27.795219],
              [-15.711707, 27.795154],
              [-15.711558, 27.795096],
              [-15.711196, 27.795237],
              [-15.71095, 27.795271],
              [-15.710783, 27.795207],
              [-15.711001, 27.794725],
              [-15.711513, 27.794893],
              [-15.711563, 27.794732],
              [-15.711544, 27.79459],
              [-15.711552, 27.794151],
              [-15.711745, 27.793679],
              [-15.711613, 27.793528],
              [-15.711671, 27.793451],
              [-15.71131, 27.793246],
              [-15.711508, 27.792916],
              [-15.711781, 27.792579],
              [-15.711998, 27.792397],
              [-15.71238, 27.792105],
              [-15.712893, 27.79179],
              [-15.713402, 27.791416],
              [-15.713608, 27.79125],
              [-15.713885, 27.790959],
              [-15.714069, 27.79068],
              [-15.714172, 27.790451],
              [-15.714228, 27.790157],
              [-15.714238, 27.78997],
              [-15.714399, 27.789633],
              [-15.714463, 27.789375],
              [-15.714574, 27.789207],
              [-15.714503, 27.788685],
              [-15.714571, 27.788388],
              [-15.714595, 27.788286],
              [-15.714619, 27.78818],
              [-15.714629, 27.788131],
              [-15.714633, 27.788103],
              [-15.714673, 27.787712],
              [-15.714682, 27.787634],
              [-15.714686, 27.787589],
              [-15.714673, 27.787557],
              [-15.714571, 27.787323],
              [-15.714569, 27.787321],
              [-15.714483, 27.787251],
              [-15.714448, 27.787225],
              [-15.714484, 27.787195],
              [-15.714655, 27.787051],
              [-15.714741, 27.786978],
              [-15.714835, 27.786899],
              [-15.714844, 27.78689],
              [-15.714856, 27.786821],
              [-15.71487, 27.786735],
              [-15.714895, 27.786577],
              [-15.714896, 27.786567],
              [-15.714842, 27.786501],
              [-15.714775, 27.786422],
              [-15.714709, 27.786342],
              [-15.714618, 27.78623],
              [-15.71472, 27.786109],
              [-15.714784, 27.786034],
              [-15.714848, 27.785956],
              [-15.71491, 27.785883],
              [-15.714979, 27.785802],
              [-15.715043, 27.785725],
              [-15.715275, 27.785448],
              [-15.715712, 27.784845],
              [-15.716076, 27.784134],
              [-15.716405, 27.783676],
              [-15.716724, 27.783572],
              [-15.716938, 27.783386],
              [-15.717061, 27.783276],
              [-15.717069, 27.783269],
              [-15.717092, 27.783243],
              [-15.71734, 27.783315],
              [-15.717647, 27.783764],
              [-15.719008, 27.784509],
              [-15.719448, 27.78509],
              [-15.719321, 27.785527],
              [-15.719476, 27.785776],
              [-15.719828, 27.785811],
              [-15.720155, 27.786153],
              [-15.720139, 27.786672],
              [-15.720498, 27.786455],
              [-15.721266, 27.786823],
              [-15.721822, 27.786818],
              [-15.723138, 27.787332],
              [-15.723249, 27.78765],
              [-15.725503, 27.788288],
              [-15.725841, 27.788942],
              [-15.724945, 27.788452],
              [-15.724297, 27.78829],
              [-15.72394, 27.78904],
              [-15.724092, 27.789928],
              [-15.724828, 27.790802],
              [-15.725421, 27.791037],
              [-15.726018, 27.791063],
              [-15.726325, 27.790999],
              [-15.72652, 27.790229],
              [-15.726205, 27.789622],
              [-15.726485, 27.789658],
              [-15.728563, 27.792668],
              [-15.728388, 27.793362],
              [-15.728512, 27.793272],
              [-15.728664, 27.793483],
              [-15.728288, 27.793682]
            ]
          ]
        ]
      }
    },
    {
      "type": "Feature",
      "properties": {
        "id": "patalavaca-arguineguin",
        "name": "Patalavaca - Arguineguín",
        "cityId": "mogan"
      },
      "geometry": {
        "type": "MultiPolygon",
        "coordinates": [
          [
            [
              [-15.678991, 27.756232],
              [-15.678991, 27.756237],
              [-15.679772, 27.755844],
              [-15.680466, 27.756246],
              [-15.681004, 27.756315],
              [-15.68146, 27.755779],
              [-15.683079, 27.755126],
              [-15.685766, 27.756348],
              [-15.686719, 27.758562],
              [-15.686617, 27.758713],
              [-15.686355, 27.758698],
              [-15.685515, 27.756756],
              [-15.685324, 27.756821],
              [-15.685222, 27.756588],
              [-15.68467, 27.756335],
              [-15.684348, 27.756885],
              [-15.683932, 27.756833],
              [-15.68346, 27.757716],
              [-15.68443, 27.758202],
              [-15.684703, 27.757642],
              [-15.684854, 27.757623],
              [-15.684913, 27.757769],
              [-15.684584, 27.758314],
              [-15.68421, 27.758406],
              [-15.682822, 27.757802],
              [-15.682382, 27.758496],
              [-15.682367, 27.759596],
              [-15.682677, 27.760015],
              [-15.683082, 27.760217],
              [-15.683311, 27.760106],
              [-15.683518, 27.759911],
              [-15.683847, 27.759942],
              [-15.684225, 27.760438],
              [-15.684649, 27.760802],
              [-15.684631, 27.760995],
              [-15.68524, 27.761314],
              [-15.68534, 27.761801],
              [-15.685138, 27.762483],
              [-15.685503, 27.763271],
              [-15.685844, 27.763481],
              [-15.686216, 27.76339],
              [-15.687107, 27.763722],
              [-15.687502, 27.764479],
              [-15.687367, 27.764716],
              [-15.687396, 27.764864],
              [-15.687806, 27.765541],
              [-15.688838, 27.767878],
              [-15.688764, 27.768308],
              [-15.688352, 27.768918],
              [-15.688522, 27.769217],
              [-15.688393, 27.769442],
              [-15.688935, 27.770354],
              [-15.68931, 27.770554],
              [-15.689792, 27.771279],
              [-15.690116, 27.771425],
              [-15.690588, 27.771195],
              [-15.691395, 27.771145],
              [-15.692475, 27.771423],
              [-15.693463, 27.771921],
              [-15.693544, 27.772134],
              [-15.69335, 27.77229],
              [-15.692271, 27.771616],
              [-15.692063, 27.771902],
              [-15.692329, 27.772036],
              [-15.692307, 27.772331],
              [-15.693525, 27.772738],
              [-15.694829, 27.772744],
              [-15.695022, 27.772103],
              [-15.695008, 27.772766],
              [-15.695296, 27.772816],
              [-15.695853, 27.772679],
              [-15.696316, 27.772334],
              [-15.696323, 27.771937],
              [-15.69684, 27.772115],
              [-15.697172, 27.772016],
              [-15.695639, 27.771703],
              [-15.696422, 27.771135],
              [-15.696989, 27.770928],
              [-15.697384, 27.771005],
              [-15.697424, 27.771538],
              [-15.697451, 27.771602],
              [-15.697561, 27.771931],
              [-15.697906, 27.771742],
              [-15.697916, 27.771737],
              [-15.698232, 27.771561],
              [-15.698605, 27.771324],
              [-15.698579, 27.771237],
              [-15.698234, 27.770724],
              [-15.698308, 27.770356],
              [-15.69614, 27.769917],
              [-15.696001, 27.770173],
              [-15.695692, 27.76994],
              [-15.696013, 27.769576],
              [-15.698972, 27.770155],
              [-15.70009, 27.770567],
              [-15.70103, 27.77137],
              [-15.701202, 27.771825],
              [-15.70121, 27.772531],
              [-15.700886, 27.77337],
              [-15.701036, 27.773954],
              [-15.702152, 27.774676],
              [-15.70316, 27.776211],
              [-15.703147, 27.776214],
              [-15.703144, 27.776215],
              [-15.702447, 27.776425],
              [-15.702082, 27.776565],
              [-15.701868, 27.776624],
              [-15.701809, 27.776643],
              [-15.701879, 27.776724],
              [-15.701864, 27.776791],
              [-15.701811, 27.776818],
              [-15.701259, 27.776972],
              [-15.701387, 27.777196],
              [-15.701422, 27.777391],
              [-15.701574, 27.7777],
              [-15.701616, 27.777833],
              [-15.701645, 27.777994],
              [-15.701639, 27.778155],
              [-15.701546, 27.778566],
              [-15.701454, 27.778861],
              [-15.70135, 27.779322],
              [-15.701332, 27.779807],
              [-15.701415, 27.780301],
              [-15.701377, 27.78091],
              [-15.700794, 27.780951],
              [-15.700799, 27.780865],
              [-15.700743, 27.780395],
              [-15.700239, 27.780184],
              [-15.699607, 27.780049],
              [-15.69927, 27.780022],
              [-15.699185, 27.780099],
              [-15.699142, 27.780051],
              [-15.699323, 27.779889],
              [-15.699615, 27.779631],
              [-15.699854, 27.779415],
              [-15.700003, 27.779291],
              [-15.700131, 27.7792],
              [-15.700461, 27.779027],
              [-15.70053, 27.778994],
              [-15.700636, 27.77885],
              [-15.700674, 27.778803],
              [-15.7008, 27.778441],
              [-15.700799, 27.778379],
              [-15.700824, 27.778141],
              [-15.700849, 27.777875],
              [-15.700752, 27.777671],
              [-15.700562, 27.777206],
              [-15.700242, 27.777393],
              [-15.700008, 27.777523],
              [-15.699928, 27.777494],
              [-15.699847, 27.777395],
              [-15.699821, 27.777533],
              [-15.699672, 27.777643],
              [-15.699507, 27.777739],
              [-15.699352, 27.77783],
              [-15.699273, 27.777883],
              [-15.699235, 27.777912],
              [-15.699306, 27.778068],
              [-15.699313, 27.778291],
              [-15.699191, 27.778458],
              [-15.698956, 27.778598],
              [-15.698791, 27.77867],
              [-15.698589, 27.778751],
              [-15.698486, 27.778643],
              [-15.698571, 27.778424],
              [-15.698672, 27.778356],
              [-15.698756, 27.778209],
              [-15.698697, 27.778066],
              [-15.698546, 27.77791],
              [-15.698283, 27.777783],
              [-15.697983, 27.77768],
              [-15.69771, 27.777658],
              [-15.697027, 27.777775],
              [-15.696504, 27.777835],
              [-15.696161, 27.777718],
              [-15.695844, 27.777563],
              [-15.695645, 27.777221],
              [-15.695674, 27.776808],
              [-15.695683, 27.776546],
              [-15.695644, 27.776366],
              [-15.69575, 27.776108],
              [-15.69578, 27.775913],
              [-15.695689, 27.775823],
              [-15.695683, 27.775638],
              [-15.695736, 27.775576],
              [-15.695622, 27.775325],
              [-15.69481, 27.775433],
              [-15.694084, 27.775541],
              [-15.693811, 27.775567],
              [-15.693582, 27.775573],
              [-15.693255, 27.775479],
              [-15.693194, 27.775444],
              [-15.69309, 27.775514],
              [-15.69295, 27.775663],
              [-15.692845, 27.776052],
              [-15.692679, 27.776495],
              [-15.692613, 27.777008],
              [-15.69263, 27.777246],
              [-15.692648, 27.777612],
              [-15.692649, 27.777764],
              [-15.692572, 27.778135],
              [-15.692434, 27.778374],
              [-15.692201, 27.778622],
              [-15.692068, 27.778742],
              [-15.691876, 27.778904],
              [-15.691759, 27.778981],
              [-15.691669, 27.779162],
              [-15.69158, 27.77939],
              [-15.691538, 27.779538],
              [-15.691448, 27.779676],
              [-15.691347, 27.779796],
              [-15.691058, 27.779754],
              [-15.690919, 27.779736],
              [-15.690911, 27.779237],
              [-15.690964, 27.779108],
              [-15.691309, 27.778798],
              [-15.691163, 27.778561],
              [-15.691045, 27.77849],
              [-15.691087, 27.778418],
              [-15.691232, 27.778432],
              [-15.691407, 27.778312],
              [-15.691514, 27.77824],
              [-15.691621, 27.778202],
              [-15.691674, 27.778173],
              [-15.691636, 27.778102],
              [-15.691577, 27.778055],
              [-15.691625, 27.777978],
              [-15.691624, 27.777879],
              [-15.691644, 27.777712],
              [-15.691655, 27.77765],
              [-15.691622, 27.777565],
              [-15.691621, 27.777408],
              [-15.691588, 27.777303],
              [-15.691624, 27.777075],
              [-15.691692, 27.776847],
              [-15.691734, 27.776666],
              [-15.692132, 27.775442],
              [-15.692168, 27.775228],
              [-15.692237, 27.77508],
              [-15.692348, 27.774946],
              [-15.692433, 27.774775],
              [-15.692507, 27.774646],
              [-15.692602, 27.774422],
              [-15.692653, 27.774132],
              [-15.692678, 27.773908],
              [-15.692624, 27.773747],
              [-15.6925, 27.773567],
              [-15.692382, 27.773463],
              [-15.692038, 27.773189],
              [-15.691769, 27.772986],
              [-15.691517, 27.772768],
              [-15.691388, 27.772674],
              [-15.691055, 27.772433],
              [-15.690948, 27.772372],
              [-15.690487, 27.772203],
              [-15.690085, 27.772048],
              [-15.689694, 27.771879],
              [-15.689474, 27.771799],
              [-15.689351, 27.771719],
              [-15.689104, 27.771492],
              [-15.688824, 27.771251],
              [-15.688674, 27.771176],
              [-15.688503, 27.771129],
              [-15.688193, 27.771112],
              [-15.688022, 27.771113],
              [-15.68777, 27.771033],
              [-15.687625, 27.770939],
              [-15.687846, 27.771285],
              [-15.687671, 27.771476],
              [-15.687501, 27.771657],
              [-15.687411, 27.771734],
              [-15.687347, 27.771729],
              [-15.68725, 27.771682],
              [-15.687233, 27.771506],
              [-15.687253, 27.771292],
              [-15.687252, 27.771064],
              [-15.687193, 27.771079],
              [-15.687056, 27.771422],
              [-15.686866, 27.771765],
              [-15.686654, 27.772084],
              [-15.6865, 27.772213],
              [-15.686442, 27.772347],
              [-15.686352, 27.772457],
              [-15.686218, 27.772486],
              [-15.685595, 27.772817],
              [-15.685628, 27.772879],
              [-15.685597, 27.773088],
              [-15.685458, 27.773188],
              [-15.685384, 27.77327],
              [-15.685315, 27.773356],
              [-15.685283, 27.773327],
              [-15.684767, 27.77293],
              [-15.684687, 27.772836],
              [-15.684642, 27.772627],
              [-15.684545, 27.77238],
              [-15.68448, 27.772314],
              [-15.684255, 27.772163],
              [-15.684163, 27.772063],
              [-15.683906, 27.771979],
              [-15.683789, 27.77198],
              [-15.683778, 27.772027],
              [-15.683586, 27.772062],
              [-15.683324, 27.772087],
              [-15.683217, 27.772068],
              [-15.683031, 27.772183],
              [-15.682792, 27.772389],
              [-15.682627, 27.772532],
              [-15.682392, 27.772533],
              [-15.682118, 27.772373],
              [-15.681946, 27.772217],
              [-15.681704, 27.772028],
              [-15.681527, 27.771891],
              [-15.681247, 27.771526],
              [-15.681089, 27.771052],
              [-15.68106, 27.770629],
              [-15.68102, 27.77031],
              [-15.680975, 27.769949],
              [-15.680941, 27.769526],
              [-15.680922, 27.769179],
              [-15.680948, 27.768999],
              [-15.680958, 27.768946],
              [-15.68068, 27.768895],
              [-15.680514, 27.768892],
              [-15.680311, 27.768812],
              [-15.680187, 27.768655],
              [-15.680016, 27.768599],
              [-15.679968, 27.768628],
              [-15.679914, 27.76859],
              [-15.679839, 27.768614],
              [-15.67977, 27.768605],
              [-15.679659, 27.768834],
              [-15.67975, 27.768862],
              [-15.679319, 27.770081],
              [-15.678623, 27.769852],
              [-15.67828, 27.769753],
              [-15.678244, 27.769849],
              [-15.678186, 27.77011],
              [-15.678122, 27.770092],
              [-15.678147, 27.769835],
              [-15.677859, 27.769841],
              [-15.677752, 27.769789],
              [-15.677712, 27.769457],
              [-15.67783, 27.768724],
              [-15.677914, 27.768348],
              [-15.67796, 27.76801],
              [-15.67751, 27.767946],
              [-15.677355, 27.767871],
              [-15.677465, 27.767495],
              [-15.677465, 27.767457],
              [-15.677352, 27.767424],
              [-15.677546, 27.76681],
              [-15.67807, 27.766874],
              [-15.677963, 27.76676],
              [-15.677925, 27.766665],
              [-15.678113, 27.766018],
              [-15.678153, 27.765642],
              [-15.678315, 27.765056],
              [-15.67853, 27.764309],
              [-15.678619, 27.764023],
              [-15.678745, 27.763614],
              [-15.678833, 27.763133],
              [-15.679037, 27.762543],
              [-15.679006, 27.761744],
              [-15.679005, 27.761635],
              [-15.67901, 27.761578],
              [-15.678539, 27.761509],
              [-15.678508, 27.761609],
              [-15.677609, 27.761432],
              [-15.677192, 27.761358],
              [-15.676801, 27.761265],
              [-15.676421, 27.761115],
              [-15.676303, 27.761073],
              [-15.67654, 27.760625],
              [-15.676799, 27.760143],
              [-15.677084, 27.759586],
              [-15.677222, 27.759286],
              [-15.677533, 27.758671],
              [-15.677644, 27.758452],
              [-15.677756, 27.758408],
              [-15.677905, 27.758365],
              [-15.678055, 27.758378],
              [-15.678129, 27.758249],
              [-15.677812, 27.758028],
              [-15.677945, 27.757913],
              [-15.677993, 27.757865],
              [-15.678164, 27.757878],
              [-15.678207, 27.757874],
              [-15.678325, 27.757973],
              [-15.678389, 27.757896],
              [-15.67841, 27.757873],
              [-15.678625, 27.758024],
              [-15.678662, 27.75799],
              [-15.678619, 27.757933],
              [-15.678757, 27.7578],
              [-15.67881, 27.757733],
              [-15.678547, 27.757582],
              [-15.678338, 27.757512],
              [-15.678103, 27.757503],
              [-15.67741, 27.757792],
              [-15.676894, 27.758113],
              [-15.676296, 27.759114],
              [-15.676055, 27.7599],
              [-15.675896, 27.7601],
              [-15.675697, 27.759863],
              [-15.675636, 27.759579],
              [-15.67555, 27.759508],
              [-15.675561, 27.759479],
              [-15.675401, 27.759618],
              [-15.675466, 27.759693],
              [-15.675525, 27.759793],
              [-15.675574, 27.759931],
              [-15.675591, 27.760102],
              [-15.67556, 27.760306],
              [-15.675465, 27.760473],
              [-15.675349, 27.760607],
              [-15.675285, 27.760659],
              [-15.675088, 27.760784],
              [-15.674944, 27.760837],
              [-15.674576, 27.760948],
              [-15.674368, 27.761025],
              [-15.674144, 27.76114],
              [-15.674048, 27.761188],
              [-15.673841, 27.761351],
              [-15.673724, 27.761461],
              [-15.673611, 27.761362],
              [-15.673744, 27.761199],
              [-15.673956, 27.760961],
              [-15.674195, 27.760703],
              [-15.674269, 27.760584],
              [-15.674587, 27.760221],
              [-15.674757, 27.760049],
              [-15.674841, 27.759773],
              [-15.674781, 27.759583],
              [-15.674625, 27.759384],
              [-15.674437, 27.759261],
              [-15.674121, 27.759206],
              [-15.674023, 27.759188],
              [-15.674083, 27.759083],
              [-15.67412, 27.759021],
              [-15.674153, 27.758971],
              [-15.674184, 27.758916],
              [-15.674218, 27.758859],
              [-15.674256, 27.758805],
              [-15.674289, 27.758754],
              [-15.674314, 27.758697],
              [-15.67434, 27.758642],
              [-15.67436, 27.758603],
              [-15.674384, 27.758554],
              [-15.674396, 27.758534],
              [-15.674407, 27.758515],
              [-15.674419, 27.758496],
              [-15.674433, 27.758476],
              [-15.674488, 27.758396],
              [-15.674509, 27.758366],
              [-15.674526, 27.75834],
              [-15.67454, 27.758318],
              [-15.674553, 27.758298],
              [-15.674569, 27.758277],
              [-15.674587, 27.758255],
              [-15.674608, 27.758232],
              [-15.67463, 27.758207],
              [-15.674655, 27.75818],
              [-15.674682, 27.758151],
              [-15.674711, 27.758121],
              [-15.674743, 27.75809],
              [-15.674778, 27.758058],
              [-15.67482, 27.758024],
              [-15.674871, 27.757986],
              [-15.674936, 27.757941],
              [-15.675009, 27.757893],
              [-15.675077, 27.757849],
              [-15.675129, 27.757814],
              [-15.675167, 27.757787],
              [-15.675198, 27.757763],
              [-15.675229, 27.757737],
              [-15.675323, 27.757657],
              [-15.675354, 27.75763],
              [-15.675383, 27.757603],
              [-15.675411, 27.757577],
              [-15.675437, 27.757553],
              [-15.675462, 27.757531],
              [-15.675485, 27.757511],
              [-15.675507, 27.757494],
              [-15.675528, 27.757478],
              [-15.675571, 27.757445],
              [-15.675598, 27.757425],
              [-15.675626, 27.757405],
              [-15.675654, 27.757386],
              [-15.675681, 27.757369],
              [-15.675708, 27.757354],
              [-15.675782, 27.757312],
              [-15.675828, 27.757286],
              [-15.675849, 27.757274],
              [-15.67587, 27.757264],
              [-15.67589, 27.757254],
              [-15.675956, 27.757224],
              [-15.67602, 27.757194],
              [-15.676042, 27.757184],
              [-15.676065, 27.757174],
              [-15.676086, 27.757163],
              [-15.676126, 27.757141],
              [-15.676149, 27.75713],
              [-15.676176, 27.757118],
              [-15.676205, 27.757107],
              [-15.676236, 27.757095],
              [-15.676266, 27.757083],
              [-15.676296, 27.757071],
              [-15.676323, 27.757058],
              [-15.676348, 27.757046],
              [-15.676373, 27.757036],
              [-15.6764, 27.757027],
              [-15.676472, 27.757007],
              [-15.67652, 27.756993],
              [-15.67657, 27.756978],
              [-15.676616, 27.756967],
              [-15.676658, 27.756958],
              [-15.676761, 27.756941],
              [-15.676827, 27.756929],
              [-15.676894, 27.756916],
              [-15.676958, 27.756903],
              [-15.677076, 27.756878],
              [-15.677132, 27.756867],
              [-15.677184, 27.756857],
              [-15.677231, 27.75685],
              [-15.677271, 27.756845],
              [-15.677347, 27.756838],
              [-15.677386, 27.756835],
              [-15.677427, 27.75683],
              [-15.67747, 27.756824],
              [-15.677552, 27.756813],
              [-15.677585, 27.756808],
              [-15.677612, 27.756805],
              [-15.677638, 27.756804],
              [-15.677662, 27.756804],
              [-15.677683, 27.756806],
              [-15.6777, 27.756807],
              [-15.677717, 27.756809],
              [-15.677772, 27.756817],
              [-15.677813, 27.756822],
              [-15.677854, 27.756827],
              [-15.677891, 27.75683],
              [-15.677922, 27.756832],
              [-15.677946, 27.756835],
              [-15.677965, 27.756837],
              [-15.677984, 27.756839],
              [-15.678007, 27.756838],
              [-15.678035, 27.756835],
              [-15.678065, 27.756831],
              [-15.678095, 27.756827],
              [-15.678134, 27.756819],
              [-15.678187, 27.756804],
              [-15.67899, 27.756232],
              [-15.678991, 27.756232]
            ]
          ]
        ]
      }
    },
    {
      "type": "Feature",
      "properties": {
        "id": "puerto-de-mogan",
        "name": "Puerto de Mogán",
        "cityId": "mogan"
      },
      "geometry": {
        "type": "MultiPolygon",
        "coordinates": [
          [
            [
              [-15.761411, 27.817305],
              [-15.761785, 27.817224],
              [-15.761812, 27.816986],
              [-15.762978, 27.816924],
              [-15.762289, 27.817123],
              [-15.762115, 27.817404],
              [-15.762186, 27.817567],
              [-15.762723, 27.817979],
              [-15.763394, 27.818086],
              [-15.76392, 27.817883],
              [-15.764331, 27.818361],
              [-15.764443, 27.818327],
              [-15.76428, 27.817911],
              [-15.763476, 27.816938],
              [-15.763919, 27.816341],
              [-15.764225, 27.816362],
              [-15.764168, 27.817037],
              [-15.764687, 27.817071],
              [-15.764707, 27.817244],
              [-15.765092, 27.817269],
              [-15.765477, 27.817295],
              [-15.765891, 27.81732],
              [-15.765951, 27.816604],
              [-15.766415, 27.816633],
              [-15.766353, 27.817142],
              [-15.766643, 27.817294],
              [-15.76669, 27.817165],
              [-15.766972, 27.817185],
              [-15.767029, 27.81651],
              [-15.766141, 27.815944],
              [-15.763951, 27.815924],
              [-15.76392, 27.815774],
              [-15.76342, 27.815794],
              [-15.763431, 27.815546],
              [-15.766231, 27.815686],
              [-15.767019, 27.816031],
              [-15.767446, 27.816392],
              [-15.767383, 27.817405],
              [-15.767439, 27.817477],
              [-15.767422, 27.817507],
              [-15.767351, 27.817725],
              [-15.767353, 27.817944],
              [-15.767143, 27.818256],
              [-15.76671, 27.818313],
              [-15.766766, 27.818573],
              [-15.766686, 27.819018],
              [-15.766309, 27.819271],
              [-15.765918, 27.819476],
              [-15.765501, 27.819832],
              [-15.765058, 27.820147],
              [-15.764855, 27.820385],
              [-15.764413, 27.820554],
              [-15.763854, 27.820557],
              [-15.76377, 27.820825],
              [-15.763567, 27.821304],
              [-15.7637, 27.821492],
              [-15.763789, 27.821625],
              [-15.763697, 27.821858],
              [-15.763466, 27.821928],
              [-15.763482, 27.822165],
              [-15.763422, 27.822437],
              [-15.763225, 27.822744],
              [-15.762868, 27.823231],
              [-15.762859, 27.823439],
              [-15.762786, 27.823776],
              [-15.762515, 27.823811],
              [-15.761998, 27.824693],
              [-15.762029, 27.825089],
              [-15.761964, 27.825477],
              [-15.762238, 27.825863],
              [-15.762142, 27.825966],
              [-15.761997, 27.825985],
              [-15.761638, 27.825849],
              [-15.761569, 27.825797],
              [-15.761384, 27.825643],
              [-15.761219, 27.825532],
              [-15.760686, 27.825492],
              [-15.76029, 27.82571],
              [-15.760011, 27.825901],
              [-15.759703, 27.826178],
              [-15.759241, 27.82662],
              [-15.758846, 27.826975],
              [-15.758624, 27.827045],
              [-15.758383, 27.827201],
              [-15.758248, 27.827349],
              [-15.757882, 27.827661],
              [-15.757651, 27.827817],
              [-15.757362, 27.828094],
              [-15.757141, 27.828405],
              [-15.756959, 27.828656],
              [-15.75669, 27.829002],
              [-15.756479, 27.829244],
              [-15.756238, 27.829435],
              [-15.755978, 27.829635],
              [-15.755708, 27.829808],
              [-15.755422, 27.829999],
              [-15.755412, 27.830047],
              [-15.755391, 27.830085],
              [-15.75535, 27.830107],
              [-15.755297, 27.830107],
              [-15.755245, 27.830088],
              [-15.755224, 27.830036],
              [-15.755245, 27.829959],
              [-15.754931, 27.829631],
              [-15.754896, 27.829715],
              [-15.754902, 27.829804],
              [-15.754469, 27.830429],
              [-15.754061, 27.830138],
              [-15.753486, 27.829744],
              [-15.753579, 27.829627],
              [-15.753739, 27.829368],
              [-15.753943, 27.829054],
              [-15.754166, 27.828853],
              [-15.754075, 27.828743],
              [-15.754035, 27.828677],
              [-15.754022, 27.828618],
              [-15.754025, 27.828531],
              [-15.754048, 27.828484],
              [-15.754312, 27.828102],
              [-15.754787, 27.827429],
              [-15.755233, 27.8268],
              [-15.755719, 27.826136],
              [-15.756071, 27.825652],
              [-15.756216, 27.825443],
              [-15.756287, 27.825339],
              [-15.756385, 27.825204],
              [-15.756518, 27.825048],
              [-15.756616, 27.824947],
              [-15.756765, 27.824817],
              [-15.757087, 27.824528],
              [-15.757191, 27.824441],
              [-15.757231, 27.824371],
              [-15.75726, 27.824264],
              [-15.757322, 27.824145],
              [-15.757443, 27.823979],
              [-15.757541, 27.823894],
              [-15.757614, 27.823822],
              [-15.757709, 27.823762],
              [-15.757764, 27.8237],
              [-15.757868, 27.823506],
              [-15.758043, 27.823201],
              [-15.758122, 27.823053],
              [-15.758192, 27.822924],
              [-15.758232, 27.82286],
              [-15.758262, 27.822799],
              [-15.758285, 27.82274],
              [-15.758322, 27.822651],
              [-15.758344, 27.8226],
              [-15.758373, 27.822557],
              [-15.758408, 27.822509],
              [-15.758443, 27.822459],
              [-15.75846, 27.822437],
              [-15.75852, 27.822362],
              [-15.758795, 27.82259],
              [-15.759086, 27.822805],
              [-15.759123, 27.822535],
              [-15.759115, 27.822393],
              [-15.759144, 27.822333],
              [-15.759189, 27.822234],
              [-15.759258, 27.822126],
              [-15.759381, 27.821937],
              [-15.759548, 27.821814],
              [-15.759626, 27.821755],
              [-15.75984, 27.821624],
              [-15.760268, 27.821062],
              [-15.760358, 27.820686],
              [-15.760394, 27.820521],
              [-15.760694, 27.82056],
              [-15.760706, 27.820508],
              [-15.760731, 27.820411],
              [-15.760787, 27.820232],
              [-15.760561, 27.820173],
              [-15.760476, 27.820148],
              [-15.760501, 27.820076],
              [-15.76054, 27.819981],
              [-15.760606, 27.819891],
              [-15.760643, 27.819829],
              [-15.760647, 27.819797],
              [-15.760656, 27.819735],
              [-15.760672, 27.819677],
              [-15.760639, 27.819645],
              [-15.760644, 27.819579],
              [-15.760659, 27.81951],
              [-15.760671, 27.819429],
              [-15.76067, 27.81937],
              [-15.760662, 27.819298],
              [-15.760658, 27.819241],
              [-15.760652, 27.819163],
              [-15.760659, 27.819043],
              [-15.760665, 27.818952],
              [-15.760657, 27.818851],
              [-15.760885, 27.818339],
              [-15.761207, 27.817861],
              [-15.761292, 27.81768],
              [-15.761363, 27.817486],
              [-15.761397, 27.817359],
              [-15.7614, 27.81735],
              [-15.761411, 27.817305]
            ]
          ]
        ]
      }
    },
    {
      "type": "Feature",
      "properties": {
        "id": "puerto-rico",
        "name": "Puerto Rico",
        "cityId": "mogan"
      },
      "geometry": {
        "type": "MultiPolygon",
        "coordinates": [
          [
            [
              [-15.717092, 27.783243],
              [-15.717069, 27.783269],
              [-15.717061, 27.783276],
              [-15.716938, 27.783386],
              [-15.716724, 27.783572],
              [-15.716405, 27.783676],
              [-15.716076, 27.784134],
              [-15.715712, 27.784845],
              [-15.715275, 27.785448],
              [-15.715043, 27.785725],
              [-15.714979, 27.785802],
              [-15.71491, 27.785883],
              [-15.714848, 27.785956],
              [-15.714784, 27.786034],
              [-15.71472, 27.786109],
              [-15.714618, 27.78623],
              [-15.714709, 27.786342],
              [-15.714775, 27.786422],
              [-15.714842, 27.786501],
              [-15.714896, 27.786567],
              [-15.714895, 27.786577],
              [-15.71487, 27.786735],
              [-15.714856, 27.786821],
              [-15.714844, 27.78689],
              [-15.714835, 27.786899],
              [-15.714741, 27.786978],
              [-15.714655, 27.787051],
              [-15.714484, 27.787195],
              [-15.714448, 27.787225],
              [-15.714483, 27.787251],
              [-15.714569, 27.787321],
              [-15.714571, 27.787323],
              [-15.714673, 27.787557],
              [-15.714686, 27.787589],
              [-15.714682, 27.787634],
              [-15.714673, 27.787712],
              [-15.714633, 27.788103],
              [-15.714629, 27.788131],
              [-15.714619, 27.78818],
              [-15.714595, 27.788286],
              [-15.714571, 27.788388],
              [-15.714503, 27.788685],
              [-15.71447, 27.78883],
              [-15.714032, 27.789149],
              [-15.713793, 27.789521],
              [-15.713548, 27.789893],
              [-15.713332, 27.790125],
              [-15.71302, 27.790475],
              [-15.712599, 27.790714],
              [-15.712319, 27.791263],
              [-15.711821, 27.791749],
              [-15.711569, 27.791986],
              [-15.711081, 27.792193],
              [-15.71062, 27.792786],
              [-15.710068, 27.794319],
              [-15.709929, 27.794915],
              [-15.709867, 27.795177],
              [-15.709659, 27.795425],
              [-15.709422, 27.795555],
              [-15.709381, 27.795523],
              [-15.709225, 27.795671],
              [-15.709205, 27.795664],
              [-15.708905, 27.795414],
              [-15.708777, 27.79554],
              [-15.708581, 27.795692],
              [-15.708432, 27.795786],
              [-15.708239, 27.795833],
              [-15.707897, 27.795803],
              [-15.707856, 27.795703],
              [-15.708033, 27.795652],
              [-15.707737, 27.795367],
              [-15.707648, 27.795385],
              [-15.707627, 27.795303],
              [-15.707269, 27.795337],
              [-15.707048, 27.795356],
              [-15.706886, 27.795292],
              [-15.706793, 27.795192],
              [-15.706768, 27.795106],
              [-15.706714, 27.794895],
              [-15.706726, 27.794777],
              [-15.706826, 27.79464],
              [-15.706966, 27.7945],
              [-15.707122, 27.794313],
              [-15.707233, 27.794087],
              [-15.707236, 27.793943],
              [-15.707148, 27.79404],
              [-15.706708, 27.794483],
              [-15.706543, 27.794631],
              [-15.706131, 27.794949],
              [-15.705769, 27.79513],
              [-15.70581, 27.795907],
              [-15.705561, 27.796033],
              [-15.704284, 27.796036],
              [-15.703262, 27.796762],
              [-15.703525, 27.796911],
              [-15.703445, 27.79714],
              [-15.703203, 27.797031],
              [-15.703147, 27.797099],
              [-15.703224, 27.797192],
              [-15.703152, 27.797253],
              [-15.703063, 27.797168],
              [-15.702361, 27.797655],
              [-15.702604, 27.797876],
              [-15.702835, 27.798086],
              [-15.70307, 27.798314],
              [-15.702879, 27.798716],
              [-15.702823, 27.798681],
              [-15.702657, 27.798513],
              [-15.702409, 27.798296],
              [-15.702085, 27.798],
              [-15.701712, 27.797665],
              [-15.701051, 27.798199],
              [-15.70053, 27.798624],
              [-15.700591, 27.798688],
              [-15.700579, 27.798792],
              [-15.700532, 27.798857],
              [-15.700544, 27.798929],
              [-15.700468, 27.798929],
              [-15.700455, 27.79889],
              [-15.700338, 27.798844],
              [-15.700285, 27.798758],
              [-15.700189, 27.798776],
              [-15.700316, 27.799098],
              [-15.699769, 27.799259],
              [-15.699789, 27.799323],
              [-15.699564, 27.799396],
              [-15.699544, 27.799335],
              [-15.698832, 27.799561],
              [-15.698841, 27.799743],
              [-15.698266, 27.799983],
              [-15.69768, 27.800193],
              [-15.697435, 27.799697],
              [-15.697334, 27.799722],
              [-15.697145, 27.799816],
              [-15.697118, 27.799978],
              [-15.697035, 27.800147],
              [-15.697326, 27.800263],
              [-15.697318, 27.80031],
              [-15.697203, 27.800583],
              [-15.697146, 27.800583],
              [-15.697115, 27.800691],
              [-15.696936, 27.801122],
              [-15.696814, 27.801509],
              [-15.696639, 27.801843],
              [-15.696504, 27.802163],
              [-15.696374, 27.802117],
              [-15.696355, 27.802214],
              [-15.696383, 27.802253],
              [-15.696396, 27.802357],
              [-15.696446, 27.80255],
              [-15.696411, 27.802847],
              [-15.696291, 27.802884],
              [-15.696133, 27.80287],
              [-15.695968, 27.802778],
              [-15.695911, 27.802685],
              [-15.695806, 27.802682],
              [-15.695608, 27.802633],
              [-15.695406, 27.802487],
              [-15.69546, 27.802193],
              [-15.695635, 27.801845],
              [-15.695579, 27.801823],
              [-15.695406, 27.801824],
              [-15.695426, 27.801878],
              [-15.695399, 27.801971],
              [-15.695342, 27.802015],
              [-15.69525, 27.802033],
              [-15.695197, 27.802019],
              [-15.695141, 27.801983],
              [-15.694988, 27.80207],
              [-15.694948, 27.80212],
              [-15.694889, 27.802311],
              [-15.694838, 27.802497],
              [-15.694806, 27.802512],
              [-15.694673, 27.802491],
              [-15.694548, 27.802484],
              [-15.694451, 27.802427],
              [-15.694357, 27.802306],
              [-15.694356, 27.802177],
              [-15.694411, 27.801944],
              [-15.694412, 27.801475],
              [-15.694228, 27.801021],
              [-15.694205, 27.800541],
              [-15.694339, 27.800135],
              [-15.69447, 27.799837],
              [-15.694559, 27.799769],
              [-15.695517, 27.799047],
              [-15.695601, 27.7989],
              [-15.695829, 27.798677],
              [-15.696387, 27.798359],
              [-15.696688, 27.798189],
              [-15.696912, 27.798037],
              [-15.697137, 27.797803],
              [-15.697321, 27.797698],
              [-15.697603, 27.797632],
              [-15.697996, 27.797444],
              [-15.698065, 27.797422],
              [-15.698419, 27.797345],
              [-15.698656, 27.797301],
              [-15.698656, 27.797276],
              [-15.698688, 27.797222],
              [-15.69876, 27.797189],
              [-15.698817, 27.797189],
              [-15.698865, 27.797214],
              [-15.698902, 27.797253],
              [-15.699251, 27.797094],
              [-15.699388, 27.797007],
              [-15.699412, 27.797046],
              [-15.699826, 27.796865],
              [-15.699781, 27.796783],
              [-15.700058, 27.796567],
              [-15.700135, 27.796634],
              [-15.700371, 27.79644],
              [-15.701056, 27.795852],
              [-15.701579, 27.795108],
              [-15.701974, 27.794536],
              [-15.702346, 27.794129],
              [-15.702674, 27.793723],
              [-15.703026, 27.793349],
              [-15.703618, 27.792704],
              [-15.702205, 27.792231],
              [-15.702503, 27.791538],
              [-15.702713, 27.791025],
              [-15.703159, 27.789597],
              [-15.703291, 27.789456],
              [-15.703347, 27.78937],
              [-15.703435, 27.789191],
              [-15.703611, 27.789014],
              [-15.703803, 27.788863],
              [-15.703959, 27.788737],
              [-15.704168, 27.788592],
              [-15.704304, 27.788466],
              [-15.70436, 27.788373],
              [-15.704364, 27.788333],
              [-15.704352, 27.787853],
              [-15.704099, 27.787858],
              [-15.704096, 27.787425],
              [-15.704342, 27.787423],
              [-15.704361, 27.787312],
              [-15.704118, 27.78712],
              [-15.703954, 27.786673],
              [-15.703902, 27.786684],
              [-15.703797, 27.78671],
              [-15.703761, 27.786649],
              [-15.703732, 27.786656],
              [-15.703684, 27.786717],
              [-15.703516, 27.786768],
              [-15.703491, 27.786747],
              [-15.703037, 27.786846],
              [-15.702971, 27.786574],
              [-15.70287, 27.786582],
              [-15.702672, 27.786576],
              [-15.702467, 27.786573],
              [-15.702245, 27.786488],
              [-15.702163, 27.786338],
              [-15.702098, 27.786163],
              [-15.702048, 27.78597],
              [-15.701971, 27.785845],
              [-15.701942, 27.785716],
              [-15.701993, 27.785511],
              [-15.702108, 27.785299],
              [-15.702361, 27.785058],
              [-15.702616, 27.784641],
              [-15.702789, 27.784594],
              [-15.703236, 27.784606],
              [-15.703265, 27.784742],
              [-15.703302, 27.784817],
              [-15.703299, 27.784964],
              [-15.703277, 27.785026],
              [-15.703622, 27.785109],
              [-15.703815, 27.785029],
              [-15.704096, 27.784992],
              [-15.704439, 27.785044],
              [-15.704673, 27.785139],
              [-15.704842, 27.784992],
              [-15.704425, 27.784689],
              [-15.704384, 27.7846],
              [-15.704564, 27.784484],
              [-15.705111, 27.784324],
              [-15.70588, 27.784216],
              [-15.706024, 27.784126],
              [-15.706569, 27.783704],
              [-15.706675, 27.783832],
              [-15.706639, 27.783868],
              [-15.706801, 27.784029],
              [-15.706825, 27.784014],
              [-15.706805, 27.783979],
              [-15.706844, 27.783857],
              [-15.707025, 27.783745],
              [-15.706944, 27.783641],
              [-15.70712, 27.783547],
              [-15.706986, 27.783351],
              [-15.707167, 27.78326],
              [-15.707191, 27.783267],
              [-15.707528, 27.783054],
              [-15.707548, 27.783068],
              [-15.707637, 27.783018],
              [-15.707474, 27.782771],
              [-15.707469, 27.782696],
              [-15.707501, 27.782657],
              [-15.707851, 27.78258],
              [-15.707771, 27.78205],
              [-15.708045, 27.782012],
              [-15.708214, 27.781979],
              [-15.70821, 27.781922],
              [-15.708009, 27.780812],
              [-15.708033, 27.780812],
              [-15.70933, 27.78026],
              [-15.709335, 27.780258],
              [-15.709372, 27.780282],
              [-15.710103, 27.780182],
              [-15.710428, 27.780664],
              [-15.711067, 27.781085],
              [-15.710968, 27.781308],
              [-15.710044, 27.780928],
              [-15.71039, 27.781152],
              [-15.71036, 27.781206],
              [-15.71026, 27.781401],
              [-15.710024, 27.781858],
              [-15.709833, 27.7818],
              [-15.709654, 27.782144],
              [-15.709514, 27.782415],
              [-15.709399, 27.782633],
              [-15.710189, 27.782973],
              [-15.71028, 27.782809],
              [-15.710861, 27.783048],
              [-15.710928, 27.782919],
              [-15.711061, 27.782662],
              [-15.71124, 27.78231],
              [-15.711575, 27.782426],
              [-15.711699, 27.782644],
              [-15.712465, 27.782293],
              [-15.711305, 27.780322],
              [-15.71098, 27.780187],
              [-15.711111, 27.779865],
              [-15.711403, 27.779884],
              [-15.712952, 27.782342],
              [-15.712192, 27.782939],
              [-15.712064, 27.783333],
              [-15.71229, 27.783397],
              [-15.712911, 27.782868],
              [-15.713468, 27.782882],
              [-15.712515, 27.783289],
              [-15.712378, 27.783548],
              [-15.712416, 27.784218],
              [-15.713367, 27.784465],
              [-15.714345, 27.784362],
              [-15.715083, 27.784001],
              [-15.715017, 27.783883],
              [-15.715286, 27.783897],
              [-15.71605, 27.78312],
              [-15.71597, 27.78305],
              [-15.715566, 27.782696],
              [-15.715272, 27.782566],
              [-15.714482, 27.782743],
              [-15.714234, 27.782817],
              [-15.714113, 27.782649],
              [-15.714338, 27.782436],
              [-15.715373, 27.782192],
              [-15.716662, 27.782894],
              [-15.716822, 27.783165],
              [-15.717092, 27.783243]
            ]
          ]
        ]
      }
    },
    {
      "type": "Feature",
      "properties": {
        "id": "taurito",
        "name": "Taurito",
        "cityId": "mogan"
      },
      "geometry": {
        "type": "MultiPolygon",
        "coordinates": [
          [
            [
              [-15.755852, 27.815327],
              [-15.755847, 27.815331],
              [-15.755486, 27.81571],
              [-15.755209, 27.815792],
              [-15.755055, 27.815847],
              [-15.754969, 27.815888],
              [-15.754847, 27.815993],
              [-15.754705, 27.816081],
              [-15.754372, 27.81629],
              [-15.754043, 27.81652],
              [-15.753791, 27.816721],
              [-15.753625, 27.816886],
              [-15.753414, 27.817083],
              [-15.753207, 27.817298],
              [-15.752976, 27.81751],
              [-15.753213, 27.817767],
              [-15.753697, 27.818234],
              [-15.753662, 27.818326],
              [-15.753631, 27.818414],
              [-15.75356, 27.818552],
              [-15.753344, 27.818723],
              [-15.753116, 27.818757],
              [-15.752867, 27.818726],
              [-15.752552, 27.818843],
              [-15.752576, 27.819225],
              [-15.752473, 27.819354],
              [-15.752276, 27.819392],
              [-15.752189, 27.819448],
              [-15.752128, 27.819577],
              [-15.752244, 27.819912],
              [-15.752185, 27.820048],
              [-15.752141, 27.820117],
              [-15.7521, 27.820128],
              [-15.751827, 27.82014],
              [-15.751737, 27.820166],
              [-15.75162, 27.820395],
              [-15.751527, 27.820454],
              [-15.751299, 27.820531],
              [-15.751156, 27.820645],
              [-15.750999, 27.820827],
              [-15.75087, 27.821118],
              [-15.750822, 27.821235],
              [-15.750729, 27.821344],
              [-15.750635, 27.821424],
              [-15.750482, 27.82169],
              [-15.750256, 27.822054],
              [-15.750064, 27.822106],
              [-15.750056, 27.822132],
              [-15.750015, 27.822099],
              [-15.750137, 27.821942],
              [-15.750201, 27.821779],
              [-15.750277, 27.821531],
              [-15.750292, 27.821397],
              [-15.750262, 27.821201],
              [-15.750196, 27.821049],
              [-15.749587, 27.820904],
              [-15.749635, 27.820813],
              [-15.74962, 27.820392],
              [-15.749601, 27.819985],
              [-15.749599, 27.819673],
              [-15.74958, 27.819314],
              [-15.749053, 27.819302],
              [-15.749037, 27.818765],
              [-15.748976, 27.818747],
              [-15.748968, 27.818192],
              [-15.749004, 27.818141],
              [-15.749527, 27.81812],
              [-15.749538, 27.817953],
              [-15.749552, 27.817692],
              [-15.7496, 27.817441],
              [-15.749699, 27.817125],
              [-15.749767, 27.816907],
              [-15.749867, 27.816612],
              [-15.749931, 27.81643],
              [-15.749543, 27.81632],
              [-15.749774, 27.815448],
              [-15.74985, 27.815208],
              [-15.749944, 27.814655],
              [-15.750106, 27.813979],
              [-15.750201, 27.813535],
              [-15.750211, 27.813503],
              [-15.750349, 27.813067],
              [-15.750628, 27.812706],
              [-15.751532, 27.812959],
              [-15.751588, 27.812799],
              [-15.751546, 27.812556],
              [-15.752365, 27.812516],
              [-15.752392, 27.812514],
              [-15.752476, 27.812669],
              [-15.7525, 27.813301],
              [-15.752751, 27.813787],
              [-15.753668, 27.814753],
              [-15.753958, 27.814839],
              [-15.754644, 27.814626],
              [-15.755349, 27.814655],
              [-15.755794, 27.814902],
              [-15.755852, 27.815327]
            ]
          ]
        ]
      }
    },
    {
      "type": "Feature",
      "properties": {
        "id": "tauro-playa-el-cura",
        "name": "Tauro - Playa El Cura",
        "cityId": "mogan"
      },
      "geometry": {
        "type": "MultiPolygon",
        "coordinates": [
          [
            [
              [-15.726906, 27.793365],
              [-15.72736, 27.793468],
              [-15.727858, 27.793583],
              [-15.728288, 27.793682],
              [-15.728057, 27.793804],
              [-15.728025, 27.794039],
              [-15.727608, 27.794135],
              [-15.727288, 27.794239],
              [-15.727275, 27.794464],
              [-15.72704, 27.794585],
              [-15.727234, 27.794991],
              [-15.727873, 27.795905],
              [-15.72819, 27.796114],
              [-15.728803, 27.796448],
              [-15.72917, 27.796404],
              [-15.729623, 27.79669],
              [-15.729652, 27.796993],
              [-15.730281, 27.797584],
              [-15.73019, 27.797788],
              [-15.73108, 27.798563],
              [-15.731786, 27.798715],
              [-15.73192, 27.798476],
              [-15.733072, 27.797807],
              [-15.733806, 27.797677],
              [-15.735055, 27.798741],
              [-15.735181, 27.799735],
              [-15.73511, 27.800399],
              [-15.734995, 27.800901],
              [-15.734722, 27.802409],
              [-15.734037, 27.80446],
              [-15.733753, 27.807834],
              [-15.733201, 27.807968],
              [-15.732473, 27.807671],
              [-15.731458, 27.807653],
              [-15.730852, 27.807799],
              [-15.730501, 27.807817],
              [-15.730549, 27.807971],
              [-15.730544, 27.808112],
              [-15.73049, 27.808256],
              [-15.73035, 27.808589],
              [-15.730266, 27.808739],
              [-15.73025, 27.80882],
              [-15.730269, 27.809222],
              [-15.730323, 27.809453],
              [-15.730324, 27.809609],
              [-15.730323, 27.809716],
              [-15.730253, 27.809711],
              [-15.730221, 27.809712],
              [-15.730108, 27.809688],
              [-15.730022, 27.809646],
              [-15.729967, 27.809565],
              [-15.729914, 27.809608],
              [-15.729389, 27.810724],
              [-15.728915, 27.812054],
              [-15.728656, 27.811941],
              [-15.728346, 27.810605],
              [-15.728024, 27.80979],
              [-15.727621, 27.809764],
              [-15.72638, 27.809751],
              [-15.724795, 27.809769],
              [-15.724569, 27.809703],
              [-15.72411, 27.809376],
              [-15.724087, 27.809126],
              [-15.724096, 27.808757],
              [-15.724186, 27.808577],
              [-15.724278, 27.80844],
              [-15.724568, 27.80822],
              [-15.724965, 27.807921],
              [-15.725192, 27.807788],
              [-15.725191, 27.80766],
              [-15.725073, 27.807135],
              [-15.726619, 27.806242],
              [-15.727621, 27.804252],
              [-15.725097, 27.803879],
              [-15.72404, 27.803727],
              [-15.720614, 27.804705],
              [-15.718038, 27.80762],
              [-15.71741, 27.807681],
              [-15.716385, 27.811075],
              [-15.715441, 27.810886],
              [-15.7157, 27.808578],
              [-15.715111, 27.808531],
              [-15.715146, 27.807114],
              [-15.715169, 27.806426],
              [-15.715242, 27.805122],
              [-15.715291, 27.804749],
              [-15.715383, 27.804495],
              [-15.715397, 27.804178],
              [-15.715396, 27.804041],
              [-15.715514, 27.803637],
              [-15.71576, 27.802967],
              [-15.716122, 27.802504],
              [-15.716385, 27.802422],
              [-15.716622, 27.802526],
              [-15.71679, 27.802331],
              [-15.717266, 27.80171],
              [-15.717485, 27.801451],
              [-15.717505, 27.801243],
              [-15.71703, 27.800938],
              [-15.717001, 27.801038],
              [-15.716905, 27.801077],
              [-15.716704, 27.801173],
              [-15.716433, 27.801251],
              [-15.716512, 27.801332],
              [-15.716413, 27.801442],
              [-15.716207, 27.801606],
              [-15.715677, 27.801759],
              [-15.71572, 27.80185],
              [-15.715702, 27.801902],
              [-15.715493, 27.801984],
              [-15.715412, 27.801908],
              [-15.715286, 27.802014],
              [-15.715128, 27.802113],
              [-15.715027, 27.802285],
              [-15.715108, 27.80233],
              [-15.715061, 27.802438],
              [-15.715001, 27.802422],
              [-15.714975, 27.802465],
              [-15.714777, 27.80269],
              [-15.714752, 27.802858],
              [-15.714738, 27.803249],
              [-15.714746, 27.803622],
              [-15.714703, 27.804007],
              [-15.714695, 27.804088],
              [-15.714664, 27.804284],
              [-15.714503, 27.804266],
              [-15.714663, 27.80447],
              [-15.714109, 27.804442],
              [-15.714087, 27.804691],
              [-15.714068, 27.805071],
              [-15.714045, 27.805274],
              [-15.713995, 27.805377],
              [-15.713973, 27.805396],
              [-15.713888, 27.805458],
              [-15.713804, 27.805461],
              [-15.713783, 27.805485],
              [-15.713736, 27.80565],
              [-15.713638, 27.805847],
              [-15.713329, 27.8058],
              [-15.713407, 27.805478],
              [-15.713065, 27.805415],
              [-15.712661, 27.805606],
              [-15.712239, 27.805486],
              [-15.712277, 27.805223],
              [-15.712503, 27.804479],
              [-15.7126, 27.804065],
              [-15.712583, 27.803528],
              [-15.71292, 27.802889],
              [-15.712767, 27.802873],
              [-15.712392, 27.803008],
              [-15.712253, 27.802773],
              [-15.711851, 27.802909],
              [-15.711718, 27.803043],
              [-15.71159, 27.80328],
              [-15.711524, 27.803414],
              [-15.71142, 27.803575],
              [-15.711288, 27.803809],
              [-15.711299, 27.803926],
              [-15.711186, 27.804309],
              [-15.71099, 27.804305],
              [-15.710756, 27.804228],
              [-15.710639, 27.803997],
              [-15.71068, 27.803751],
              [-15.710703, 27.803543],
              [-15.710511, 27.803286],
              [-15.709974, 27.803451],
              [-15.70917, 27.803214],
              [-15.70915, 27.803018],
              [-15.709433, 27.802768],
              [-15.709809, 27.802826],
              [-15.709926, 27.802668],
              [-15.709743, 27.802556],
              [-15.709791, 27.80247],
              [-15.709971, 27.80213],
              [-15.710085, 27.801898],
              [-15.710224, 27.801699],
              [-15.710499, 27.801432],
              [-15.710846, 27.801199],
              [-15.71095, 27.801423],
              [-15.711239, 27.801304],
              [-15.711458, 27.801028],
              [-15.711577, 27.800875],
              [-15.711561, 27.80083],
              [-15.711571, 27.800789],
              [-15.711636, 27.800734],
              [-15.711978, 27.800596],
              [-15.712869, 27.800474],
              [-15.712982, 27.800932],
              [-15.713082, 27.800989],
              [-15.713192, 27.800984],
              [-15.713402, 27.800641],
              [-15.713602, 27.800341],
              [-15.713893, 27.80013],
              [-15.714292, 27.799882],
              [-15.714198, 27.799538],
              [-15.713994, 27.799475],
              [-15.713563, 27.799398],
              [-15.712951, 27.799389],
              [-15.712436, 27.799526],
              [-15.712072, 27.799628],
              [-15.712131, 27.799757],
              [-15.711068, 27.800199],
              [-15.70987, 27.800652],
              [-15.709726, 27.800388],
              [-15.709627, 27.800431],
              [-15.709236, 27.800627],
              [-15.709043, 27.800709],
              [-15.708591, 27.800878],
              [-15.708285, 27.800918],
              [-15.708285, 27.801002],
              [-15.708272, 27.801052],
              [-15.708189, 27.80106],
              [-15.707897, 27.8012],
              [-15.707844, 27.80131],
              [-15.707702, 27.801334],
              [-15.707675, 27.801303],
              [-15.707642, 27.801206],
              [-15.707641, 27.800988],
              [-15.707934, 27.799838],
              [-15.708253, 27.799311],
              [-15.708397, 27.798906],
              [-15.70844, 27.79878],
              [-15.708433, 27.798695],
              [-15.708399, 27.798604],
              [-15.708416, 27.79849],
              [-15.708467, 27.798429],
              [-15.708586, 27.798375],
              [-15.708681, 27.79837],
              [-15.708784, 27.798411],
              [-15.708857, 27.798422],
              [-15.708989, 27.798457],
              [-15.70926, 27.798449],
              [-15.709366, 27.798424],
              [-15.709495, 27.798399],
              [-15.70968, 27.798361],
              [-15.70996, 27.798298],
              [-15.710164, 27.798252],
              [-15.710726, 27.798133],
              [-15.710872, 27.798097],
              [-15.711123, 27.798044],
              [-15.711339, 27.79799],
              [-15.711725, 27.797927],
              [-15.71197, 27.797893],
              [-15.712015, 27.797893],
              [-15.712292, 27.797884],
              [-15.712545, 27.797879],
              [-15.712826, 27.79789],
              [-15.713298, 27.797916],
              [-15.713764, 27.797946],
              [-15.713898, 27.797956],
              [-15.714343, 27.797983],
              [-15.714515, 27.797962],
              [-15.71461, 27.797966],
              [-15.714987, 27.797971],
              [-15.715377, 27.797973],
              [-15.715472, 27.797974],
              [-15.715585, 27.797975],
              [-15.715682, 27.797973],
              [-15.715819, 27.797966],
              [-15.715936, 27.797949],
              [-15.716026, 27.797904],
              [-15.716058, 27.797875],
              [-15.716058, 27.797852],
              [-15.716066, 27.797826],
              [-15.71608, 27.797802],
              [-15.716104, 27.797782],
              [-15.71614, 27.797763],
              [-15.71618, 27.797761],
              [-15.716215, 27.797768],
              [-15.71624, 27.797784],
              [-15.716261, 27.797804],
              [-15.716276, 27.797828],
              [-15.716277, 27.797857],
              [-15.716374, 27.797916],
              [-15.716463, 27.79794],
              [-15.71657, 27.797958],
              [-15.716695, 27.797979],
              [-15.71691, 27.798009],
              [-15.717179, 27.798021],
              [-15.717592, 27.79802],
              [-15.717949, 27.798],
              [-15.718383, 27.797988],
              [-15.718489, 27.797977],
              [-15.718934, 27.797926],
              [-15.720098, 27.797799],
              [-15.72045, 27.797753],
              [-15.720766, 27.797687],
              [-15.720866, 27.797659],
              [-15.721081, 27.797588],
              [-15.721308, 27.797496],
              [-15.721483, 27.797385],
              [-15.721569, 27.797342],
              [-15.721683, 27.797258],
              [-15.721832, 27.797153],
              [-15.72194, 27.797072],
              [-15.722038, 27.796987],
              [-15.722187, 27.796874],
              [-15.722301, 27.796785],
              [-15.722512, 27.796622],
              [-15.722753, 27.796484],
              [-15.722962, 27.796393],
              [-15.723198, 27.796326],
              [-15.72344, 27.796277],
              [-15.723562, 27.796244],
              [-15.723724, 27.796165],
              [-15.723777, 27.796112],
              [-15.72384, 27.796082],
              [-15.723907, 27.796073],
              [-15.723978, 27.79608],
              [-15.724139, 27.796039],
              [-15.724321, 27.79595],
              [-15.724541, 27.795824],
              [-15.724823, 27.795711],
              [-15.724938, 27.795663],
              [-15.725044, 27.79562],
              [-15.725182, 27.795556],
              [-15.725342, 27.795473],
              [-15.725641, 27.795286],
              [-15.725984, 27.795057],
              [-15.726145, 27.794946],
              [-15.726275, 27.794854],
              [-15.726393, 27.794757],
              [-15.72648, 27.794673],
              [-15.726535, 27.794596],
              [-15.726614, 27.794479],
              [-15.72666, 27.794396],
              [-15.726693, 27.79432],
              [-15.726734, 27.794204],
              [-15.726761, 27.794116],
              [-15.726796, 27.794015],
              [-15.726823, 27.793949],
              [-15.726852, 27.793805],
              [-15.726871, 27.793711],
              [-15.726888, 27.793619],
              [-15.72691, 27.793489],
              [-15.726906, 27.793365]
            ]
          ]
        ]
      }
    }
  ]
}
