{
  "type": "FeatureCollection",
  "name": "tias-neighborhoods",
  "metadata": {
    "schemaVersion": 1,
    "cityId": "tias",
    "cityName": "Tías",
    "representative": false,
    "source": "Núcleos turísticos 2014 — Instituto Canario de Estadística (ISTAC), Gobierno de Canarias (atribución)"
  },
  "features": [
    {
      "type": "Feature",
      "properties": {
        "id": "la-tinosa",
        "name": "La Tiñosa",
        "cityId": "tias"
      },
      "geometry": {
        "type": "MultiPolygon",
        "coordinates": [
          [
            [
              [-13.67006, 28.919216],
              [-13.670092, 28.919214],
              [-13.671099, 28.919832],
              [-13.671533, 28.920164],
              [-13.671351, 28.920586],
              [-13.673784, 28.92015],
              [-13.675117, 28.920369],
              [-13.676087, 28.919971],
              [-13.676088, 28.919968],
              [-13.6761, 28.919965],
              [-13.676456, 28.920655],
              [-13.676293, 28.920718],
              [-13.676103, 28.920354],
              [-13.675948, 28.920418],
              [-13.675853, 28.920238],
              [-13.675202, 28.920504],
              [-13.674802, 28.920568],
              [-13.674118, 28.920505],
              [-13.67382, 28.920477],
              [-13.67369, 28.920465],
              [-13.673201, 28.921039],
              [-13.673298, 28.92114],
              [-13.673093, 28.921168],
              [-13.673299, 28.92124],
              [-13.672664, 28.92138],
              [-13.672748, 28.921523],
              [-13.673006, 28.921442],
              [-13.673506, 28.921606],
              [-13.674775, 28.921657],
              [-13.67516, 28.92136],
              [-13.67551, 28.921675],
              [-13.675557, 28.921556],
              [-13.676123, 28.921656],
              [-13.676615, 28.921366],
              [-13.676926, 28.921512],
              [-13.677961, 28.921237],
              [-13.67896, 28.92132],
              [-13.679329, 28.920945],
              [-13.679752, 28.920989],
              [-13.680226, 28.920404],
              [-13.680993, 28.920258],
              [-13.68123, 28.920488],
              [-13.681112, 28.920947],
              [-13.680995, 28.921473],
              [-13.680828, 28.922165],
              [-13.680645, 28.922937],
              [-13.680451, 28.923455],
              [-13.680146, 28.924433],
              [-13.680144, 28.924462],
              [-13.68003, 28.9251],
              [-13.679941, 28.925687],
              [-13.679802, 28.926368],
              [-13.67968, 28.92692],
              [-13.679621, 28.927246],
              [-13.679569, 28.927535],
              [-13.679557, 28.92764],
              [-13.67953, 28.927778],
              [-13.679507, 28.927913],
              [-13.679486, 28.92806],
              [-13.679468, 28.928201],
              [-13.679455, 28.928319],
              [-13.67945, 28.928368],
              [-13.679403, 28.928389],
              [-13.67926, 28.928458],
              [-13.67917, 28.928506],
              [-13.679082, 28.928554],
              [-13.679008, 28.928605],
              [-13.678923, 28.928662],
              [-13.67873, 28.928816],
              [-13.678612, 28.928914],
              [-13.678506, 28.928998],
              [-13.678389, 28.929084],
              [-13.678272, 28.929166],
              [-13.678213, 28.929206],
              [-13.678088, 28.929289],
              [-13.678116, 28.929349],
              [-13.678133, 28.929393],
              [-13.678146, 28.92944],
              [-13.678151, 28.92948],
              [-13.678153, 28.929538],
              [-13.67793, 28.929561],
              [-13.677832, 28.929575],
              [-13.677745, 28.92959],
              [-13.677668, 28.929608],
              [-13.677592, 28.929632],
              [-13.677527, 28.929654],
              [-13.677428, 28.929689],
              [-13.677299, 28.929739],
              [-13.677209, 28.929774],
              [-13.677157, 28.929795],
              [-13.677111, 28.929822],
              [-13.677072, 28.929851],
              [-13.677045, 28.929875],
              [-13.676997, 28.929924],
              [-13.676925, 28.929999],
              [-13.676846, 28.930073],
              [-13.676781, 28.930131],
              [-13.676696, 28.930208],
              [-13.676613, 28.930272],
              [-13.676524, 28.930339],
              [-13.676434, 28.930399],
              [-13.676304, 28.930478],
              [-13.676261, 28.930502],
              [-13.675804, 28.930602],
              [-13.675639, 28.93066],
              [-13.675458, 28.930712],
              [-13.675134, 28.930801],
              [-13.674905, 28.930867],
              [-13.674611, 28.930946],
              [-13.674573, 28.930956],
              [-13.674564, 28.930959],
              [-13.674438, 28.930993],
              [-13.674211, 28.931055],
              [-13.673915, 28.931136],
              [-13.673406, 28.931277],
              [-13.673184, 28.931335],
              [-13.67282, 28.931424],
              [-13.672578, 28.931479],
              [-13.672339, 28.931527],
              [-13.672154, 28.931564],
              [-13.671934, 28.931603],
              [-13.671756, 28.931632],
              [-13.671365, 28.931674],
              [-13.671106, 28.931694],
              [-13.67092, 28.931702],
              [-13.670727, 28.931705],
              [-13.670501, 28.931706],
              [-13.670274, 28.931699],
              [-13.670078, 28.931689],
              [-13.669938, 28.931677],
              [-13.669749, 28.931661],
              [-13.669574, 28.931638],
              [-13.669197, 28.931581],
              [-13.669035, 28.931548],
              [-13.668848, 28.931507],
              [-13.668599, 28.931445],
              [-13.668401, 28.931385],
              [-13.668064, 28.931283],
              [-13.667873, 28.93122],
              [-13.667516, 28.931095],
              [-13.667313, 28.931017],
              [-13.667088, 28.93093],
              [-13.666837, 28.930826],
              [-13.666516, 28.930693],
              [-13.666331, 28.930617],
              [-13.666192, 28.930561],
              [-13.666051, 28.930507],
              [-13.66584, 28.930423],
              [-13.665669, 28.930353],
              [-13.665386, 28.930264],
              [-13.665239, 28.930223],
              [-13.665056, 28.928827],
              [-13.664679, 28.927744],
              [-13.664818, 28.927057],
              [-13.66496, 28.926475],
              [-13.665209, 28.92513],
              [-13.6653, 28.924784],
              [-13.665371, 28.924448],
              [-13.665435, 28.924261],
              [-13.665523, 28.924162],
              [-13.66566, 28.924071],
              [-13.665845, 28.923966],
              [-13.666079, 28.923848],
              [-13.666319, 28.923731],
              [-13.66662, 28.923592],
              [-13.666716, 28.923524],
              [-13.666882, 28.923422],
              [-13.666894, 28.923414],
              [-13.667036, 28.923343],
              [-13.667128, 28.923301],
              [-13.667422, 28.923164],
              [-13.667537, 28.923106],
              [-13.667947, 28.922882],
              [-13.668246, 28.92268],
              [-13.66864, 28.922469],
              [-13.669105, 28.922164],
              [-13.669411, 28.921976],
              [-13.669845, 28.921698],
              [-13.67023, 28.921471],
              [-13.670173, 28.920644],
              [-13.670127, 28.91999],
              [-13.67006, 28.919216]
            ]
          ]
        ]
      }
    },
    {
      "type": "Feature",
      "properties": {
        "id": "matagorda-los-pocillos",
        "name": "Matagorda - Los Pocillos",
        "cityId": "tias"
      },
      "geometry": {
        "type": "MultiPolygon",
        "coordinates": [
          [
            [
              [-13.614832, 28.932428],
              [-13.616085, 28.931287],
              [-13.618772, 28.931905],
              [-13.61951, 28.931752],
              [-13.620776, 28.931017],
              [-13.623035, 28.93015],
              [-13.624223, 28.9295],
              [-13.625232, 28.928752],
              [-13.625741, 28.927658],
              [-13.626977, 28.926976],
              [-13.627711, 28.926877],
              [-13.628462, 28.926984],
              [-13.629025, 28.927353],
              [-13.629484, 28.927967],
              [-13.629782, 28.928059],
              [-13.631951, 28.927857],
              [-13.633191, 28.927417],
              [-13.634703, 28.926535],
              [-13.636927, 28.924755],
              [-13.638512, 28.922862],
              [-13.63899, 28.921825],
              [-13.639072, 28.921142],
              [-13.639492, 28.920783],
              [-13.640956, 28.920151],
              [-13.641469, 28.920223],
              [-13.642377, 28.920072],
              [-13.642761, 28.919883],
              [-13.643243, 28.919677],
              [-13.643572, 28.919468],
              [-13.64385, 28.920157],
              [-13.643917, 28.920469],
              [-13.644213, 28.922501],
              [-13.644336, 28.923357],
              [-13.644337, 28.923368],
              [-13.644411, 28.92367],
              [-13.644325, 28.923715],
              [-13.643812, 28.923982],
              [-13.643336, 28.924215],
              [-13.64262, 28.924579],
              [-13.642145, 28.924818],
              [-13.642364, 28.925135],
              [-13.642453, 28.925267],
              [-13.642853, 28.925849],
              [-13.642984, 28.926019],
              [-13.643271, 28.926495],
              [-13.643383, 28.926933],
              [-13.643386, 28.927323],
              [-13.643339, 28.927509],
              [-13.643242, 28.927766],
              [-13.643216, 28.927884],
              [-13.643156, 28.928138],
              [-13.643246, 28.928429],
              [-13.643256, 28.928615],
              [-13.643219, 28.928658],
              [-13.643206, 28.928809],
              [-13.643309, 28.928975],
              [-13.643457, 28.929049],
              [-13.643506, 28.929531],
              [-13.643138, 28.929794],
              [-13.642432, 28.930128],
              [-13.642469, 28.930259],
              [-13.642498, 28.930306],
              [-13.642439, 28.930335],
              [-13.642229, 28.930432],
              [-13.642008, 28.930538],
              [-13.641863, 28.930609],
              [-13.641666, 28.93071],
              [-13.641508, 28.93079],
              [-13.641278, 28.930912],
              [-13.641172, 28.930969],
              [-13.640971, 28.931085],
              [-13.640794, 28.931184],
              [-13.640629, 28.931282],
              [-13.640417, 28.931413],
              [-13.640216, 28.931535],
              [-13.639981, 28.931686],
              [-13.639837, 28.931777],
              [-13.639546, 28.931973],
              [-13.639258, 28.932173],
              [-13.639137, 28.932257],
              [-13.638962, 28.93238],
              [-13.638898, 28.932429],
              [-13.638801, 28.932509],
              [-13.638508, 28.932747],
              [-13.638298, 28.932926],
              [-13.638047, 28.933135],
              [-13.637786, 28.933352],
              [-13.637535, 28.933557],
              [-13.637312, 28.933742],
              [-13.63719, 28.933849],
              [-13.636995, 28.93402],
              [-13.63683, 28.93417],
              [-13.636634, 28.934346],
              [-13.636465, 28.934496],
              [-13.636398, 28.934554],
              [-13.636321, 28.93463],
              [-13.636141, 28.93479],
              [-13.635938, 28.934973],
              [-13.635745, 28.935147],
              [-13.635477, 28.93539],
              [-13.635163, 28.935665],
              [-13.63485, 28.93593],
              [-13.634627, 28.936113],
              [-13.634386, 28.936298],
              [-13.633984, 28.936598],
              [-13.633795, 28.936734],
              [-13.633591, 28.936874],
              [-13.633352, 28.937032],
              [-13.633132, 28.937169],
              [-13.63282, 28.937365],
              [-13.632419, 28.937604],
              [-13.632139, 28.937768],
              [-13.631969, 28.937861],
              [-13.631531, 28.938092],
              [-13.631286, 28.938215],
              [-13.630909, 28.938394],
              [-13.630516, 28.938571],
              [-13.630269, 28.938679],
              [-13.630021, 28.938785],
              [-13.629729, 28.938901],
              [-13.62945, 28.939004],
              [-13.629232, 28.939086],
              [-13.628958, 28.93918],
              [-13.628668, 28.939276],
              [-13.628444, 28.939348],
              [-13.628185, 28.939429],
              [-13.6277, 28.93956],
              [-13.627339, 28.93966],
              [-13.627048, 28.939724],
              [-13.626748, 28.939794],
              [-13.626554, 28.939834],
              [-13.626205, 28.939903],
              [-13.625809, 28.939976],
              [-13.625381, 28.940046],
              [-13.624815, 28.940137],
              [-13.624362, 28.940211],
              [-13.623918, 28.940281],
              [-13.623455, 28.940351],
              [-13.622997, 28.940428],
              [-13.622525, 28.940502],
              [-13.62225, 28.940542],
              [-13.62183, 28.94061],
              [-13.621475, 28.940665],
              [-13.620932, 28.940752],
              [-13.620555, 28.940811],
              [-13.620216, 28.940866],
              [-13.619807, 28.940925],
              [-13.619517, 28.94097],
              [-13.619305, 28.941009],
              [-13.618911, 28.941026],
              [-13.618708, 28.941012],
              [-13.618565, 28.940986],
              [-13.618399, 28.940932],
              [-13.61822, 28.940845],
              [-13.618041, 28.940733],
              [-13.617905, 28.940602],
              [-13.617777, 28.940442],
              [-13.617669, 28.940233],
              [-13.617548, 28.939972],
              [-13.617343, 28.939364],
              [-13.617227, 28.938978],
              [-13.616755, 28.937672],
              [-13.616168, 28.935923],
              [-13.615554, 28.934114],
              [-13.615108, 28.932963],
              [-13.614832, 28.932428]
            ]
          ]
        ]
      }
    },
    {
      "type": "Feature",
      "properties": {
        "id": "playa-grande",
        "name": "Playa Grande",
        "cityId": "tias"
      },
      "geometry": {
        "type": "MultiPolygon",
        "coordinates": [
          [
            [
              [-13.643572, 28.919468],
              [-13.643618, 28.919439],
              [-13.643646, 28.919245],
              [-13.643981, 28.91928],
              [-13.644406, 28.919586],
              [-13.644926, 28.919423],
              [-13.645351, 28.919381],
              [-13.645979, 28.919146],
              [-13.646051, 28.919397],
              [-13.646273, 28.919507],
              [-13.64822, 28.92006],
              [-13.64897, 28.919855],
              [-13.649644, 28.919531],
              [-13.649683, 28.919375],
              [-13.650111, 28.919612],
              [-13.650671, 28.919232],
              [-13.652465, 28.918815],
              [-13.653123, 28.918949],
              [-13.654606, 28.918705],
              [-13.654883, 28.9191],
              [-13.656212, 28.919698],
              [-13.662624, 28.919786],
              [-13.665663, 28.919445],
              [-13.666073, 28.919307],
              [-13.66606, 28.918956],
              [-13.666108, 28.918945],
              [-13.666159, 28.919141],
              [-13.66682, 28.918952],
              [-13.66704, 28.919188],
              [-13.667622, 28.919206],
              [-13.667852, 28.918817],
              [-13.668168, 28.918692],
              [-13.668201, 28.918966],
              [-13.668764, 28.919102],
              [-13.669087, 28.918924],
              [-13.669166, 28.919268],
              [-13.67006, 28.919216],
              [-13.670127, 28.91999],
              [-13.670173, 28.920644],
              [-13.67023, 28.921471],
              [-13.669845, 28.921698],
              [-13.669411, 28.921976],
              [-13.669105, 28.922164],
              [-13.66864, 28.922469],
              [-13.668246, 28.92268],
              [-13.667947, 28.922882],
              [-13.667537, 28.923106],
              [-13.667422, 28.923164],
              [-13.667128, 28.923301],
              [-13.667036, 28.923343],
              [-13.666894, 28.923414],
              [-13.666882, 28.923422],
              [-13.666716, 28.923524],
              [-13.66662, 28.923592],
              [-13.666319, 28.923731],
              [-13.666079, 28.923848],
              [-13.665845, 28.923966],
              [-13.66566, 28.924071],
              [-13.665523, 28.924162],
              [-13.665435, 28.924261],
              [-13.665371, 28.924448],
              [-13.6653, 28.924784],
              [-13.665209, 28.92513],
              [-13.66496, 28.926475],
              [-13.664818, 28.927057],
              [-13.664679, 28.927744],
              [-13.665056, 28.928827],
              [-13.665239, 28.930223],
              [-13.664925, 28.930167],
              [-13.664443, 28.930096],
              [-13.663498, 28.930091],
              [-13.663064, 28.930092],
              [-13.662736, 28.930251],
              [-13.662151, 28.930579],
              [-13.661527, 28.931012],
              [-13.661034, 28.931361],
              [-13.660721, 28.931644],
              [-13.660533, 28.931919],
              [-13.660474, 28.932244],
              [-13.660331, 28.932791],
              [-13.660247, 28.933001],
              [-13.65997, 28.933423],
              [-13.659197, 28.934428],
              [-13.658469, 28.935361],
              [-13.657967, 28.935986],
              [-13.65749, 28.937199],
              [-13.656796, 28.938363],
              [-13.655996, 28.939381],
              [-13.655057, 28.94059],
              [-13.654833, 28.941161],
              [-13.654656, 28.942209],
              [-13.65426, 28.943495],
              [-13.652037, 28.939055],
              [-13.651838, 28.9388],
              [-13.651688, 28.938438],
              [-13.651633, 28.93801],
              [-13.651622, 28.937544],
              [-13.651463, 28.935773],
              [-13.6514, 28.935063],
              [-13.651381, 28.934426],
              [-13.649331, 28.933171],
              [-13.648851, 28.932729],
              [-13.648732, 28.930842],
              [-13.648494, 28.929158],
              [-13.648392, 28.928496],
              [-13.647379, 28.928685],
              [-13.646298, 28.928932],
              [-13.645317, 28.929214],
              [-13.644135, 28.92961],
              [-13.64399, 28.929677],
              [-13.644087, 28.929882],
              [-13.644387, 28.930215],
              [-13.644562, 28.930329],
              [-13.64471, 28.930428],
              [-13.644962, 28.930542],
              [-13.645362, 28.930837],
              [-13.645859, 28.93128],
              [-13.646104, 28.93153],
              [-13.646331, 28.931897],
              [-13.646551, 28.93204],
              [-13.646725, 28.932207],
              [-13.646732, 28.932542],
              [-13.646674, 28.93313],
              [-13.645299, 28.933539],
              [-13.644358, 28.933262],
              [-13.643454, 28.93181],
              [-13.642615, 28.930499],
              [-13.642498, 28.930306],
              [-13.642469, 28.930259],
              [-13.642432, 28.930128],
              [-13.643138, 28.929794],
              [-13.643506, 28.929531],
              [-13.643457, 28.929049],
              [-13.643309, 28.928975],
              [-13.643206, 28.928809],
              [-13.643219, 28.928658],
              [-13.643256, 28.928615],
              [-13.643246, 28.928429],
              [-13.643156, 28.928138],
              [-13.643216, 28.927884],
              [-13.643242, 28.927766],
              [-13.643339, 28.927509],
              [-13.643386, 28.927323],
              [-13.643383, 28.926933],
              [-13.643271, 28.926495],
              [-13.642984, 28.926019],
              [-13.642853, 28.925849],
              [-13.642453, 28.925267],
              [-13.642364, 28.925135],
              [-13.642145, 28.924818],
              [-13.64262, 28.924579],
              [-13.643336, 28.924215],
              [-13.643812, 28.923982],
              [-13.644325, 28.923715],
              [-13.644411, 28.92367],
              [-13.644337, 28.923368],
              [-13.644336, 28.923357],
              [-13.644213, 28.922501],
              [-13.643917, 28.920469],
              [-13.64385, 28.920157],
              [-13.643572, 28.919468]
            ]
          ]
        ]
      }
    }
  ]
}
