{
  "type": "FeatureCollection",
  "name": "la-oliva-neighborhoods",
  "metadata": {
    "schemaVersion": 1,
    "cityId": "la-oliva",
    "cityName": "La Oliva",
    "representative": false,
    "source": "Núcleos turísticos 2014 — Instituto Canario de Estadística (ISTAC), Gobierno de Canarias (atribución)"
  },
  "features": [
    {
      "type": "Feature",
      "properties": {
        "id": "corralejo",
        "name": "Corralejo",
        "cityId": "la-oliva"
      },
      "geometry": {
        "type": "MultiPolygon",
        "coordinates": [
          [
            [
              [-13.837032, 28.712844],
              [-13.836905, 28.712566],
              [-13.836956, 28.712375],
              [-13.837311, 28.712077],
              [-13.837177, 28.711947],
              [-13.837413, 28.711706],
              [-13.837564, 28.711726],
              [-13.837657, 28.711698],
              [-13.837856, 28.711829],
              [-13.838111, 28.711788],
              [-13.838302, 28.711632],
              [-13.838465, 28.711562],
              [-13.838574, 28.711548],
              [-13.838916, 28.711441],
              [-13.839068, 28.711443],
              [-13.839313, 28.711349],
              [-13.839427, 28.711326],
              [-13.839459, 28.711317],
              [-13.839444, 28.711733],
              [-13.839412, 28.712162],
              [-13.839182, 28.71237],
              [-13.8385, 28.712847],
              [-13.837927, 28.712761],
              [-13.837714, 28.712859],
              [-13.837225, 28.712989],
              [-13.837032, 28.712844]
            ]
          ],
          [
            [
              [-13.839064, 28.708324],
              [-13.83918, 28.70769],
              [-13.839889, 28.707729],
              [-13.839983, 28.707539],
              [-13.84027, 28.707561],
              [-13.841478, 28.707523],
              [-13.841626, 28.707391],
              [-13.841779, 28.707263],
              [-13.841915, 28.707245],
              [-13.842187, 28.707128],
              [-13.842409, 28.70713],
              [-13.842835, 28.707306],
              [-13.843379, 28.70764],
              [-13.8434, 28.707664],
              [-13.843129, 28.708154],
              [-13.842951, 28.70862],
              [-13.842909, 28.708949],
              [-13.842874, 28.709216],
              [-13.842778, 28.709502],
              [-13.842438, 28.709456],
              [-13.84063, 28.709336],
              [-13.839081, 28.709256],
              [-13.839057, 28.709012],
              [-13.839064, 28.708324]
            ]
          ],
          [
            [
              [-13.870679, 28.744655],
              [-13.870597, 28.744734],
              [-13.870451, 28.745091],
              [-13.870226, 28.745066],
              [-13.869877, 28.744987],
              [-13.86954, 28.745088],
              [-13.869307, 28.744893],
              [-13.868931, 28.745405],
              [-13.868305, 28.746282],
              [-13.868067, 28.746689],
              [-13.867123, 28.746762],
              [-13.866788, 28.747046],
              [-13.866002, 28.746918],
              [-13.865427, 28.74602],
              [-13.864738, 28.745809],
              [-13.864354, 28.745454],
              [-13.863826, 28.744482],
              [-13.863873, 28.743495],
              [-13.863626, 28.743197],
              [-13.863752, 28.743109],
              [-13.863613, 28.742832],
              [-13.863696, 28.742462],
              [-13.864314, 28.742253],
              [-13.864178, 28.741957],
              [-13.863307, 28.741136],
              [-13.860774, 28.740528],
              [-13.860699, 28.740207],
              [-13.86089, 28.740045],
              [-13.861022, 28.74022],
              [-13.862444, 28.740524],
              [-13.862394, 28.740417],
              [-13.862592, 28.740428],
              [-13.862577, 28.740108],
              [-13.863341, 28.740273],
              [-13.863387, 28.740099],
              [-13.863743, 28.740182],
              [-13.863542, 28.740878],
              [-13.863703, 28.741093],
              [-13.863889, 28.741344],
              [-13.864355, 28.741788],
              [-13.864551, 28.741719],
              [-13.864942, 28.741577],
              [-13.865375, 28.74143],
              [-13.865523, 28.741282],
              [-13.865594, 28.741193],
              [-13.865645, 28.741216],
              [-13.865814, 28.741069],
              [-13.865657, 28.740869],
              [-13.865971, 28.740953],
              [-13.866206, 28.740753],
              [-13.866274, 28.740356],
              [-13.866874, 28.739546],
              [-13.866817, 28.739203],
              [-13.866957, 28.739049],
              [-13.866581, 28.738971],
              [-13.867327, 28.739008],
              [-13.867328, 28.738269],
              [-13.866934, 28.737678],
              [-13.867236, 28.737177],
              [-13.867376, 28.736277],
              [-13.86763, 28.735969],
              [-13.867275, 28.735431],
              [-13.866839, 28.735199],
              [-13.86677, 28.73493],
              [-13.866829, 28.734852],
              [-13.866858, 28.73417],
              [-13.866559, 28.733594],
              [-13.866026, 28.733296],
              [-13.865351, 28.733541],
              [-13.864994, 28.733466],
              [-13.864608, 28.732542],
              [-13.863596, 28.731766],
              [-13.863518, 28.731507],
              [-13.86239, 28.731017],
              [-13.862138, 28.731109],
              [-13.861822, 28.730767],
              [-13.860842, 28.730754],
              [-13.860575, 28.730944],
              [-13.860203, 28.731474],
              [-13.860018, 28.731717],
              [-13.859762, 28.73205],
              [-13.859587, 28.732157],
              [-13.859366, 28.732296],
              [-13.858651, 28.732256],
              [-13.858102, 28.731845],
              [-13.857404, 28.730884],
              [-13.855285, 28.730032],
              [-13.855124, 28.729389],
              [-13.854956, 28.729427],
              [-13.854597, 28.728304],
              [-13.854393, 28.728049],
              [-13.854041, 28.72802],
              [-13.853685, 28.728175],
              [-13.852967, 28.728138],
              [-13.853349, 28.72785],
              [-13.853346, 28.727624],
              [-13.852559, 28.726992],
              [-13.851874, 28.72711],
              [-13.850871, 28.726784],
              [-13.850511, 28.727017],
              [-13.850236, 28.726929],
              [-13.849811, 28.727334],
              [-13.849802, 28.7273],
              [-13.849799, 28.727293],
              [-13.849328, 28.725781],
              [-13.849608, 28.725765],
              [-13.849983, 28.725722],
              [-13.850316, 28.725689],
              [-13.850609, 28.725659],
              [-13.850983, 28.72563],
              [-13.851219, 28.725614],
              [-13.851512, 28.725631],
              [-13.8518, 28.725658],
              [-13.852047, 28.725707],
              [-13.852404, 28.725807],
              [-13.85282, 28.725971],
              [-13.853427, 28.726231],
              [-13.855133, 28.725923],
              [-13.855483, 28.725854],
              [-13.855911, 28.725786],
              [-13.85824, 28.725355],
              [-13.860882, 28.724879],
              [-13.862576, 28.724571],
              [-13.863561, 28.724397],
              [-13.864046, 28.724297],
              [-13.864665, 28.724173],
              [-13.864504, 28.723226],
              [-13.865107, 28.723124],
              [-13.865341, 28.724046],
              [-13.865817, 28.723961],
              [-13.866139, 28.723899],
              [-13.865886, 28.722493],
              [-13.86599, 28.721519],
              [-13.865739, 28.719123],
              [-13.865124, 28.716043],
              [-13.864712, 28.714046],
              [-13.864379, 28.712288],
              [-13.863876, 28.709985],
              [-13.863822, 28.709304],
              [-13.863335, 28.706769],
              [-13.862555, 28.703766],
              [-13.86583, 28.703954],
              [-13.867528, 28.704751],
              [-13.86928, 28.705535],
              [-13.871521, 28.706199],
              [-13.872892, 28.706539],
              [-13.877199, 28.707082],
              [-13.878268, 28.70718],
              [-13.880099, 28.70756],
              [-13.880924, 28.707686],
              [-13.881821, 28.705449],
              [-13.882438, 28.704104],
              [-13.883181, 28.704278],
              [-13.882993, 28.706085],
              [-13.882627, 28.70893],
              [-13.882122, 28.713116],
              [-13.881497, 28.717171],
              [-13.881685, 28.721124],
              [-13.881556, 28.723046],
              [-13.882814, 28.72197],
              [-13.884069, 28.722386],
              [-13.884892, 28.723969],
              [-13.882141, 28.725355],
              [-13.882722, 28.728022],
              [-13.883546, 28.72828],
              [-13.883553, 28.728913],
              [-13.883994, 28.730755],
              [-13.883703, 28.731338],
              [-13.882605, 28.731412],
              [-13.881316, 28.730303],
              [-13.880243, 28.730581],
              [-13.880095, 28.73052],
              [-13.87986, 28.729658],
              [-13.879076, 28.729556],
              [-13.878325, 28.727508],
              [-13.87707, 28.724573],
              [-13.876934, 28.724643],
              [-13.876811, 28.72469],
              [-13.875584, 28.727951],
              [-13.874482, 28.730927],
              [-13.874453, 28.731166],
              [-13.875237, 28.731339],
              [-13.874952, 28.732579],
              [-13.87402, 28.732356],
              [-13.87342, 28.733963],
              [-13.873169, 28.734689],
              [-13.87304, 28.735369],
              [-13.873621, 28.735469],
              [-13.873848, 28.735757],
              [-13.87377, 28.73676],
              [-13.874934, 28.736829],
              [-13.874879, 28.739432],
              [-13.873538, 28.739373],
              [-13.873477, 28.738775],
              [-13.872395, 28.738671],
              [-13.872295, 28.739088],
              [-13.871869, 28.740971],
              [-13.871016, 28.740844],
              [-13.870974, 28.740839],
              [-13.870935, 28.741433],
              [-13.87092, 28.742028],
              [-13.87091, 28.742604],
              [-13.870887, 28.742901],
              [-13.870804, 28.74304],
              [-13.870544, 28.743801],
              [-13.870679, 28.744655]
            ]
          ]
        ]
      }
    },
    {
      "type": "Feature",
      "properties": {
        "id": "el-cotillo",
        "name": "El Cotillo",
        "cityId": "la-oliva"
      },
      "geometry": {
        "type": "MultiPolygon",
        "coordinates": [
          [
            [
              [-14.017548, 28.697327],
              [-14.017547, 28.697327],
              [-14.017522, 28.697324],
              [-14.016218, 28.697087],
              [-14.012948, 28.697022],
              [-14.007263, 28.696741],
              [-14.007607, 28.695431],
              [-14.008286, 28.693836],
              [-14.008195, 28.692707],
              [-14.008845, 28.691538],
              [-14.008972, 28.691067],
              [-14.008954, 28.689175],
              [-14.008345, 28.687118],
              [-14.008266, 28.685208],
              [-14.007803, 28.684467],
              [-14.006738, 28.684283],
              [-14.006129, 28.683923],
              [-14.005942, 28.682607],
              [-14.00597, 28.681779],
              [-14.006662, 28.681487],
              [-14.007611, 28.681097],
              [-14.007931, 28.680726],
              [-14.008283, 28.680166],
              [-14.008426, 28.680144],
              [-14.009239, 28.680092],
              [-14.01018, 28.679878],
              [-14.010252, 28.679865],
              [-14.011029, 28.679819],
              [-14.011012, 28.679925],
              [-14.011254, 28.679866],
              [-14.011063, 28.680489],
              [-14.01152, 28.680713],
              [-14.011536, 28.680919],
              [-14.01162, 28.681261],
              [-14.012155, 28.681228],
              [-14.01302, 28.681744],
              [-14.012758, 28.680953],
              [-14.012291, 28.680988],
              [-14.011999, 28.68079],
              [-14.012092, 28.680736],
              [-14.012644, 28.680533],
              [-14.013039, 28.680783],
              [-14.013334, 28.681798],
              [-14.013442, 28.681937],
              [-14.01347, 28.682258],
              [-14.013847, 28.682752],
              [-14.013715, 28.682895],
              [-14.011498, 28.683184],
              [-14.011518, 28.68386],
              [-14.011602, 28.683982],
              [-14.0119, 28.683822],
              [-14.01224, 28.683901],
              [-14.013149, 28.684836],
              [-14.013535, 28.685458],
              [-14.01432, 28.68521],
              [-14.014678, 28.685373],
              [-14.014555, 28.685502],
              [-14.014623, 28.685783],
              [-14.014455, 28.686072],
              [-14.014492, 28.68632],
              [-14.014507, 28.686424],
              [-14.014182, 28.686535],
              [-14.014065, 28.686763],
              [-14.01409, 28.686931],
              [-14.014524, 28.686855],
              [-14.014769, 28.686858],
              [-14.014933, 28.687107],
              [-14.015098, 28.687193],
              [-14.014838, 28.687636],
              [-14.014426, 28.687514],
              [-14.013921, 28.688001],
              [-14.013313, 28.688409],
              [-14.013172, 28.688872],
              [-14.013283, 28.688975],
              [-14.013084, 28.689179],
              [-14.012506, 28.689489],
              [-14.012218, 28.689825],
              [-14.012205, 28.69002],
              [-14.012467, 28.690036],
              [-14.012594, 28.690285],
              [-14.012893, 28.69056],
              [-14.012918, 28.691116],
              [-14.012991, 28.691291],
              [-14.013005, 28.691626],
              [-14.013376, 28.691893],
              [-14.013664, 28.692027],
              [-14.013785, 28.692252],
              [-14.014384, 28.692628],
              [-14.015324, 28.693039],
              [-14.016186, 28.69274],
              [-14.01711, 28.692073],
              [-14.017453, 28.692065],
              [-14.017696, 28.692104],
              [-14.017347, 28.69248],
              [-14.016116, 28.692992],
              [-14.01632, 28.693633],
              [-14.016724, 28.69392],
              [-14.017517, 28.693869],
              [-14.017905, 28.693361],
              [-14.018486, 28.693868],
              [-14.018114, 28.694108],
              [-14.018112, 28.694304],
              [-14.017982, 28.695528],
              [-14.017734, 28.695733],
              [-14.017616, 28.695723],
              [-14.017421, 28.695544],
              [-14.017036, 28.695631],
              [-14.016773, 28.695763],
              [-14.016774, 28.696153],
              [-14.017445, 28.696356],
              [-14.017685, 28.696255],
              [-14.017634, 28.696557],
              [-14.017677, 28.696787],
              [-14.018005, 28.697176],
              [-14.01759, 28.697234],
              [-14.017548, 28.697327]
            ]
          ]
        ]
      }
    }
  ]
}
