{
  "type": "FeatureCollection",
  "name": "yaiza-neighborhoods",
  "metadata": {
    "schemaVersion": 1,
    "cityId": "yaiza",
    "cityName": "Yaiza",
    "representative": false,
    "source": "Núcleos turísticos 2014 — Instituto Canario de Estadística (ISTAC), Gobierno de Canarias (atribución)"
  },
  "features": [
    {
      "type": "Feature",
      "properties": {
        "id": "montana-roja",
        "name": "Montaña Roja",
        "cityId": "yaiza"
      },
      "geometry": {
        "type": "MultiPolygon",
        "coordinates": [
          [
            [
              [-13.832125, 28.877839],
              [-13.831804, 28.875228],
              [-13.831612, 28.87287],
              [-13.831286, 28.868852],
              [-13.831279, 28.868008],
              [-13.83126, 28.867471],
              [-13.830588, 28.865192],
              [-13.830886, 28.864991],
              [-13.831321, 28.864615],
              [-13.831727, 28.864162],
              [-13.832647, 28.862902],
              [-13.833447, 28.86172],
              [-13.833626, 28.861577],
              [-13.833806, 28.861461],
              [-13.834015, 28.861372],
              [-13.834253, 28.861282],
              [-13.83561, 28.860758],
              [-13.835744, 28.860694],
              [-13.835864, 28.860617],
              [-13.835969, 28.860513],
              [-13.836558, 28.85959],
              [-13.835748, 28.859008],
              [-13.835668, 28.858858],
              [-13.835637, 28.858797],
              [-13.835593, 28.858705],
              [-13.835722, 28.858765],
              [-13.836798, 28.857249],
              [-13.8368, 28.856969],
              [-13.837087, 28.856566],
              [-13.839081, 28.855578],
              [-13.839486, 28.855483],
              [-13.839782, 28.855611],
              [-13.839957, 28.85545],
              [-13.839923, 28.855632],
              [-13.840549, 28.856297],
              [-13.840889, 28.856956],
              [-13.841445, 28.856765],
              [-13.842447, 28.856864],
              [-13.842396, 28.856966],
              [-13.84135, 28.856909],
              [-13.841618, 28.857658],
              [-13.84245, 28.858057],
              [-13.843177, 28.858076],
              [-13.842874, 28.857],
              [-13.843321, 28.857998],
              [-13.843629, 28.858238],
              [-13.844188, 28.858328],
              [-13.844348, 28.858666],
              [-13.844573, 28.858645],
              [-13.844599, 28.858905],
              [-13.844945, 28.859032],
              [-13.845525, 28.859692],
              [-13.845854, 28.859827],
              [-13.845891, 28.860057],
              [-13.846268, 28.860322],
              [-13.846242, 28.860539],
              [-13.846637, 28.860854],
              [-13.846844, 28.860821],
              [-13.847389, 28.86114],
              [-13.848162, 28.861223],
              [-13.848464, 28.861178],
              [-13.848611, 28.860982],
              [-13.849564, 28.861132],
              [-13.850153, 28.860919],
              [-13.851144, 28.861362],
              [-13.852227, 28.861329],
              [-13.852953, 28.861522],
              [-13.853324, 28.861379],
              [-13.853741, 28.861595],
              [-13.853799, 28.861808],
              [-13.854089, 28.861858],
              [-13.854692, 28.861662],
              [-13.855263, 28.861056],
              [-13.855936, 28.860971],
              [-13.856118, 28.860761],
              [-13.857318, 28.860712],
              [-13.858, 28.860453],
              [-13.858365, 28.860445],
              [-13.859332, 28.860974],
              [-13.859764, 28.860956],
              [-13.860698, 28.861258],
              [-13.861199, 28.861231],
              [-13.861261, 28.861077],
              [-13.861983, 28.860957],
              [-13.862607, 28.860615],
              [-13.863141, 28.860597],
              [-13.864746, 28.859596],
              [-13.865133, 28.85953],
              [-13.865127, 28.859162],
              [-13.86702, 28.858366],
              [-13.867224, 28.857998],
              [-13.867839, 28.857706],
              [-13.868081, 28.857208],
              [-13.868433, 28.856989],
              [-13.86838, 28.856775],
              [-13.868922, 28.855976],
              [-13.869544, 28.855502],
              [-13.871167, 28.85523],
              [-13.87208, 28.854854],
              [-13.872943, 28.855113],
              [-13.873226, 28.855298],
              [-13.873208, 28.855621],
              [-13.873505, 28.855636],
              [-13.873565, 28.855959],
              [-13.873985, 28.855991],
              [-13.874097, 28.856394],
              [-13.874664, 28.856442],
              [-13.874486, 28.856856],
              [-13.874817, 28.857066],
              [-13.874963, 28.857296],
              [-13.87513, 28.857459],
              [-13.874949, 28.857662],
              [-13.875221, 28.857769],
              [-13.875185, 28.857982],
              [-13.87549, 28.85815],
              [-13.875736, 28.858669],
              [-13.876313, 28.858922],
              [-13.876531, 28.859223],
              [-13.876911, 28.859455],
              [-13.877014, 28.859706],
              [-13.876901, 28.859975],
              [-13.877098, 28.860233],
              [-13.877052, 28.860504],
              [-13.876748, 28.860795],
              [-13.876876, 28.861009],
              [-13.876599, 28.861025],
              [-13.876732, 28.861116],
              [-13.876637, 28.861301],
              [-13.8771, 28.861735],
              [-13.876647, 28.861876],
              [-13.876849, 28.861951],
              [-13.87681, 28.862381],
              [-13.877164, 28.862204],
              [-13.877357, 28.862536],
              [-13.877196, 28.862634],
              [-13.876945, 28.862487],
              [-13.877093, 28.862713],
              [-13.876928, 28.862867],
              [-13.877533, 28.863378],
              [-13.877305, 28.863526],
              [-13.877183, 28.863746],
              [-13.877247, 28.863902],
              [-13.877349, 28.864221],
              [-13.877063, 28.864587],
              [-13.877089, 28.865234],
              [-13.876871, 28.865106],
              [-13.876403, 28.86545],
              [-13.876783, 28.865487],
              [-13.876797, 28.865649],
              [-13.876655, 28.865656],
              [-13.87646, 28.866002],
              [-13.876666, 28.866084],
              [-13.87639, 28.866594],
              [-13.875593, 28.866787],
              [-13.875968, 28.866977],
              [-13.876046, 28.867255],
              [-13.875851, 28.867605],
              [-13.875701, 28.867527],
              [-13.875704, 28.867767],
              [-13.875148, 28.867936],
              [-13.875035, 28.868236],
              [-13.874772, 28.868294],
              [-13.874954, 28.868616],
              [-13.874647, 28.869057],
              [-13.874913, 28.869048],
              [-13.875184, 28.869892],
              [-13.874933, 28.870117],
              [-13.875143, 28.870152],
              [-13.875266, 28.870565],
              [-13.874906, 28.871013],
              [-13.875336, 28.871315],
              [-13.875172, 28.871582],
              [-13.87543, 28.87191],
              [-13.875325, 28.872305],
              [-13.8753, 28.872305],
              [-13.874452, 28.872314],
              [-13.870668, 28.87239],
              [-13.870963, 28.875186],
              [-13.870917, 28.875723],
              [-13.870707, 28.876294],
              [-13.870417, 28.876757],
              [-13.870047, 28.877148],
              [-13.866978, 28.878769],
              [-13.863835, 28.87971],
              [-13.863183, 28.879776],
              [-13.862695, 28.879772],
              [-13.856076, 28.87857],
              [-13.855629, 28.87853],
              [-13.855221, 28.878634],
              [-13.853709, 28.87923],
              [-13.853139, 28.879297],
              [-13.852529, 28.879256],
              [-13.852042, 28.879108],
              [-13.846536, 28.876662],
              [-13.845776, 28.879234],
              [-13.844091, 28.880759],
              [-13.843607, 28.880325],
              [-13.842882, 28.87971],
              [-13.842114, 28.879202],
              [-13.841264, 28.878801],
              [-13.840331, 28.878614],
              [-13.839559, 28.8785],
              [-13.837933, 28.878343],
              [-13.835454, 28.878107],
              [-13.832158, 28.878114],
              [-13.832125, 28.877839]
            ]
          ]
        ]
      }
    },
    {
      "type": "Feature",
      "properties": {
        "id": "playa-blanca",
        "name": "Playa Blanca",
        "cityId": "yaiza"
      },
      "geometry": {
        "type": "MultiPolygon",
        "coordinates": [
          [
            [
              [-13.835593, 28.858705],
              [-13.835637, 28.858797],
              [-13.835668, 28.858858],
              [-13.835748, 28.859008],
              [-13.836558, 28.85959],
              [-13.835969, 28.860513],
              [-13.835864, 28.860617],
              [-13.835744, 28.860694],
              [-13.83561, 28.860758],
              [-13.834253, 28.861282],
              [-13.834015, 28.861372],
              [-13.833806, 28.861461],
              [-13.833626, 28.861577],
              [-13.833447, 28.86172],
              [-13.832647, 28.862902],
              [-13.831727, 28.864162],
              [-13.831321, 28.864615],
              [-13.830886, 28.864991],
              [-13.830588, 28.865192],
              [-13.83126, 28.867471],
              [-13.831279, 28.868008],
              [-13.831286, 28.868852],
              [-13.831612, 28.87287],
              [-13.831804, 28.875228],
              [-13.832125, 28.877839],
              [-13.827734, 28.877335],
              [-13.821042, 28.877841],
              [-13.820196, 28.872629],
              [-13.819926, 28.870962],
              [-13.819624, 28.868392],
              [-13.818841, 28.865868],
              [-13.819035, 28.865323],
              [-13.819102, 28.864511],
              [-13.818993, 28.863887],
              [-13.819019, 28.862909],
              [-13.818994, 28.86254],
              [-13.819011, 28.862337],
              [-13.819057, 28.862083],
              [-13.819031, 28.861791],
              [-13.818976, 28.861574],
              [-13.819003, 28.861021],
              [-13.819073, 28.861067],
              [-13.819074, 28.861035],
              [-13.81901, 28.860962],
              [-13.819014, 28.860921],
              [-13.819654, 28.861332],
              [-13.820727, 28.861287],
              [-13.821281, 28.861421],
              [-13.82186, 28.86083],
              [-13.822392, 28.860724],
              [-13.821814, 28.861148],
              [-13.821964, 28.861537],
              [-13.822598, 28.861943],
              [-13.823458, 28.862156],
              [-13.824191, 28.862101],
              [-13.824951, 28.861755],
              [-13.824937, 28.861052],
              [-13.824433, 28.860858],
              [-13.824857, 28.86082],
              [-13.82512, 28.861021],
              [-13.825197, 28.8619],
              [-13.827492, 28.861815],
              [-13.828367, 28.862538],
              [-13.828976, 28.862624],
              [-13.830155, 28.862319],
              [-13.830599, 28.861965],
              [-13.830699, 28.861795],
              [-13.830948, 28.861686],
              [-13.831218, 28.861509],
              [-13.831793, 28.861105],
              [-13.832469, 28.861155],
              [-13.833109, 28.860814],
              [-13.833615, 28.860754],
              [-13.833854, 28.860445],
              [-13.833538, 28.859962],
              [-13.833856, 28.860211],
              [-13.8341, 28.860072],
              [-13.834271, 28.860018],
              [-13.83458, 28.859823],
              [-13.834771, 28.859598],
              [-13.834957, 28.859381],
              [-13.834963, 28.859372],
              [-13.835122, 28.859178],
              [-13.834331, 28.858645],
              [-13.833098, 28.859135],
              [-13.832422, 28.859587],
              [-13.832232, 28.859451],
              [-13.832297, 28.859288],
              [-13.834356, 28.858126],
              [-13.835593, 28.858705]
            ]
          ]
        ]
      }
    },
    {
      "type": "Feature",
      "properties": {
        "id": "puerto-calero",
        "name": "Puerto Calero",
        "cityId": "yaiza"
      },
      "geometry": {
        "type": "MultiPolygon",
        "coordinates": [
          [
            [
              [-13.711324, 28.915463],
              [-13.711533, 28.915998],
              [-13.712007, 28.917541],
              [-13.712115, 28.917996],
              [-13.712296, 28.918488],
              [-13.712413, 28.919413],
              [-13.711953, 28.919666],
              [-13.711922, 28.919939],
              [-13.712186, 28.920436],
              [-13.711953, 28.921141],
              [-13.711262, 28.921665],
              [-13.710923, 28.921722],
              [-13.710611, 28.921831],
              [-13.710375, 28.921712],
              [-13.709989, 28.921524],
              [-13.709672, 28.921344],
              [-13.709406, 28.921438],
              [-13.709126, 28.921491],
              [-13.709, 28.921743],
              [-13.708582, 28.922667],
              [-13.708376, 28.923071],
              [-13.70814, 28.92372],
              [-13.7079, 28.923927],
              [-13.707405, 28.924038],
              [-13.706705, 28.924124],
              [-13.706124, 28.924215],
              [-13.705538, 28.924318],
              [-13.705103, 28.924434],
              [-13.704929, 28.924497],
              [-13.704609, 28.924502],
              [-13.704974, 28.925293],
              [-13.703823, 28.925595],
              [-13.703399, 28.924811],
              [-13.702483, 28.925028],
              [-13.701677, 28.925233],
              [-13.701095, 28.925388],
              [-13.700966, 28.925366],
              [-13.700951, 28.924947],
              [-13.700993, 28.924157],
              [-13.701043, 28.923234],
              [-13.701097, 28.922567],
              [-13.701155, 28.921318],
              [-13.701251, 28.920771],
              [-13.701208, 28.920249],
              [-13.700858, 28.919828],
              [-13.700833, 28.919766],
              [-13.70086, 28.91964],
              [-13.700889, 28.919435],
              [-13.700845, 28.919308],
              [-13.700782, 28.919159],
              [-13.700738, 28.919033],
              [-13.700714, 28.918901],
              [-13.700728, 28.918833],
              [-13.700697, 28.918678],
              [-13.700615, 28.918517],
              [-13.700526, 28.918385],
              [-13.700463, 28.918219],
              [-13.700166, 28.917752],
              [-13.699828, 28.916709],
              [-13.700062, 28.916549],
              [-13.706282, 28.915364],
              [-13.706877, 28.915276],
              [-13.707012, 28.915382],
              [-13.705387, 28.915839],
              [-13.700112, 28.916764],
              [-13.70047, 28.917935],
              [-13.700704, 28.91789],
              [-13.701, 28.917834],
              [-13.701022, 28.917832],
              [-13.70146, 28.91775],
              [-13.701873, 28.917672],
              [-13.70263, 28.917532],
              [-13.703005, 28.917468],
              [-13.703454, 28.917276],
              [-13.703941, 28.916998],
              [-13.704413, 28.916788],
              [-13.704306, 28.916335],
              [-13.704538, 28.916299],
              [-13.704579, 28.916437],
              [-13.704582, 28.916453],
              [-13.704617, 28.916575],
              [-13.704643, 28.916672],
              [-13.704981, 28.916574],
              [-13.705021, 28.91675],
              [-13.705228, 28.916713],
              [-13.705373, 28.916688],
              [-13.706518, 28.916482],
              [-13.706397, 28.915964],
              [-13.706561, 28.915935],
              [-13.70682, 28.916401],
              [-13.706688, 28.916565],
              [-13.707122, 28.916463],
              [-13.707356, 28.916596],
              [-13.707797, 28.916511],
              [-13.707874, 28.91619],
              [-13.708423, 28.915955],
              [-13.710897, 28.915704],
              [-13.711324, 28.915463]
            ]
          ]
        ]
      }
    },
    {
      "type": "Feature",
      "properties": {
        "id": "rubicon-papagayo",
        "name": "Rubicón - Papagayo",
        "cityId": "yaiza"
      },
      "geometry": {
        "type": "MultiPolygon",
        "coordinates": [
          [
            [
              [-13.819014, 28.860921],
              [-13.81901, 28.860962],
              [-13.819074, 28.861035],
              [-13.819073, 28.861067],
              [-13.819003, 28.861021],
              [-13.818976, 28.861574],
              [-13.819031, 28.861791],
              [-13.819057, 28.862083],
              [-13.819011, 28.862337],
              [-13.818994, 28.86254],
              [-13.819019, 28.862909],
              [-13.818993, 28.863887],
              [-13.819102, 28.864511],
              [-13.819035, 28.865323],
              [-13.818841, 28.865868],
              [-13.819624, 28.868392],
              [-13.819926, 28.870962],
              [-13.820196, 28.872629],
              [-13.820128, 28.872602],
              [-13.81906, 28.872225],
              [-13.808995, 28.868604],
              [-13.806736, 28.868532],
              [-13.800407, 28.868424],
              [-13.796042, 28.866909],
              [-13.795311, 28.866635],
              [-13.795249, 28.866598],
              [-13.794829, 28.866451],
              [-13.796868, 28.860334],
              [-13.79789, 28.857008],
              [-13.798171, 28.856809],
              [-13.798419, 28.856652],
              [-13.798603, 28.85661],
              [-13.798619, 28.856606],
              [-13.79861, 28.856772],
              [-13.798858, 28.85766],
              [-13.80022, 28.858412],
              [-13.801815, 28.858876],
              [-13.802423, 28.858877],
              [-13.803046, 28.858542],
              [-13.803398, 28.858123],
              [-13.804142, 28.857691],
              [-13.804045, 28.857558],
              [-13.804395, 28.857238],
              [-13.805449, 28.85688],
              [-13.806309, 28.857354],
              [-13.806608, 28.85704],
              [-13.806814, 28.857034],
              [-13.807, 28.857188],
              [-13.806857, 28.857304],
              [-13.807199, 28.857424],
              [-13.807406, 28.857196],
              [-13.807486, 28.857312],
              [-13.807734, 28.857066],
              [-13.807944, 28.857149],
              [-13.808487, 28.856914],
              [-13.808686, 28.856478],
              [-13.809003, 28.856868],
              [-13.809455, 28.856903],
              [-13.809752, 28.856505],
              [-13.809882, 28.856581],
              [-13.810463, 28.856356],
              [-13.810594, 28.855374],
              [-13.810969, 28.855155],
              [-13.811166, 28.854678],
              [-13.811435, 28.854522],
              [-13.811561, 28.85463],
              [-13.811475, 28.855246],
              [-13.811588, 28.855357],
              [-13.811354, 28.855947],
              [-13.811591, 28.856189],
              [-13.813073, 28.855692],
              [-13.813251, 28.855862],
              [-13.814772, 28.85573],
              [-13.816191, 28.855886],
              [-13.818111, 28.856533],
              [-13.819674, 28.85762],
              [-13.819326, 28.857901],
              [-13.819214, 28.857525],
              [-13.818223, 28.856851],
              [-13.817071, 28.856345],
              [-13.816797, 28.856544],
              [-13.816745, 28.856255],
              [-13.815803, 28.856039],
              [-13.815406, 28.855987],
              [-13.815201, 28.85597],
              [-13.815045, 28.855961],
              [-13.814561, 28.855953],
              [-13.813919, 28.855993],
              [-13.813128, 28.856118],
              [-13.813381, 28.857433],
              [-13.813309, 28.857772],
              [-13.814983, 28.857714],
              [-13.813313, 28.857783],
              [-13.813447, 28.858011],
              [-13.813682, 28.858144],
              [-13.813929, 28.858403],
              [-13.814319, 28.85848],
              [-13.814514, 28.858732],
              [-13.815058, 28.858962],
              [-13.815197, 28.858922],
              [-13.815034, 28.8588],
              [-13.815192, 28.858636],
              [-13.815405, 28.858788],
              [-13.815247, 28.858593],
              [-13.815319, 28.858395],
              [-13.816184, 28.858861],
              [-13.816468, 28.858817],
              [-13.816686, 28.858532],
              [-13.816815, 28.85836],
              [-13.816805, 28.85812],
              [-13.816265, 28.857831],
              [-13.816358, 28.857366],
              [-13.816461, 28.857097],
              [-13.816874, 28.857222],
              [-13.816879, 28.857219],
              [-13.816715, 28.857789],
              [-13.817112, 28.857991],
              [-13.817926, 28.857684],
              [-13.818208, 28.857677],
              [-13.818047, 28.857295],
              [-13.818481, 28.857698],
              [-13.818721, 28.858042],
              [-13.81863, 28.858304],
              [-13.817509, 28.858294],
              [-13.817511, 28.85843],
              [-13.817122, 28.858587],
              [-13.816753, 28.85923],
              [-13.817033, 28.860011],
              [-13.817696, 28.860595],
              [-13.818835, 28.860804],
              [-13.819014, 28.86092],
              [-13.819014, 28.860921]
            ]
          ]
        ]
      }
    }
  ]
}
