{
  "type": "FeatureCollection",
  "name": "huelva-neighborhoods",
  "metadata": {
    "schemaVersion": 1,
    "cityId": "huelva",
    "cityName": "Huelva",
    "representative": false,
    "source": "Barrios urbanos DERA — Instituto de Estadística y Cartografía de Andalucía (Junta de Andalucía), CC BY 4.0"
  },
  "features": [
    {
      "type": "Feature",
      "properties": {
        "id": "barriada-alcalde-diego-sayago-el-torrejon",
        "name": "Barriada Alcalde Diego Sayago (EL Torrejón)",
        "cityId": "huelva"
      },
      "geometry": {
        "type": "Polygon",
        "coordinates": [
          [
            [-6.927572, 37.274836],
            [-6.928016, 37.27527],
            [-6.928712, 37.275822],
            [-6.928296, 37.27627],
            [-6.930943, 37.277893],
            [-6.930106, 37.278664],
            [-6.930934, 37.279072],
            [-6.93181, 37.279379],
            [-6.933006, 37.27774],
            [-6.932731, 37.277511],
            [-6.933586, 37.276739],
            [-6.932584, 37.276366],
            [-6.934403, 37.274903],
            [-6.934968, 37.274295],
            [-6.93538, 37.273776],
            [-6.934255, 37.273407],
            [-6.932159, 37.271583],
            [-6.927572, 37.274836]
          ]
        ]
      }
    },
    {
      "type": "Feature",
      "properties": {
        "id": "barriada-de-balbueno",
        "name": "Barriada de Balbueno",
        "cityId": "huelva"
      },
      "geometry": {
        "type": "Polygon",
        "coordinates": [
          [
            [-6.932735, 37.25939],
            [-6.93374, 37.25881],
            [-6.934385, 37.258382],
            [-6.934893, 37.25811],
            [-6.934814, 37.258046],
            [-6.934059, 37.257321],
            [-6.934124, 37.257271],
            [-6.932828, 37.256119],
            [-6.931835, 37.256924],
            [-6.932283, 37.257442],
            [-6.932943, 37.257995],
            [-6.93213, 37.2585],
            [-6.93194, 37.258617],
            [-6.931942, 37.258619],
            [-6.932735, 37.25939]
          ]
        ]
      }
    },
    {
      "type": "Feature",
      "properties": {
        "id": "barriada-de-cardenas",
        "name": "Barriada de Cardeñas",
        "cityId": "huelva"
      },
      "geometry": {
        "type": "Polygon",
        "coordinates": [
          [
            [-6.950113, 37.273209],
            [-6.949682, 37.274544],
            [-6.94941, 37.275387],
            [-6.94845, 37.277732],
            [-6.947807, 37.279265],
            [-6.945713, 37.28426],
            [-6.945522, 37.284694],
            [-6.945576, 37.284709],
            [-6.945646, 37.284721],
            [-6.945718, 37.284726],
            [-6.945791, 37.284723],
            [-6.945862, 37.284714],
            [-6.945931, 37.284697],
            [-6.945997, 37.284674],
            [-6.945999, 37.284673],
            [-6.945984, 37.284737],
            [-6.946913, 37.28484],
            [-6.946975, 37.284837],
            [-6.947178, 37.284821],
            [-6.94738, 37.284798],
            [-6.947581, 37.284768],
            [-6.94778, 37.28473],
            [-6.947976, 37.284686],
            [-6.948046, 37.284668],
            [-6.948608, 37.283871],
            [-6.950654, 37.28061],
            [-6.950712, 37.280591],
            [-6.950794, 37.280556],
            [-6.950871, 37.280516],
            [-6.950943, 37.280469],
            [-6.951009, 37.280417],
            [-6.951068, 37.28036],
            [-6.95112, 37.280299],
            [-6.951164, 37.280234],
            [-6.9512, 37.280166],
            [-6.951228, 37.280096],
            [-6.951246, 37.280023],
            [-6.951256, 37.27995],
            [-6.951257, 37.279876],
            [-6.95125, 37.279812],
            [-6.952248, 37.278357],
            [-6.954554, 37.274157],
            [-6.954371, 37.274114],
            [-6.950366, 37.273192],
            [-6.950113, 37.273209]
          ]
        ]
      }
    },
    {
      "type": "Feature",
      "properties": {
        "id": "barriada-de-guadalupe",
        "name": "Barriada de Guadalupe",
        "cityId": "huelva"
      },
      "geometry": {
        "type": "Polygon",
        "coordinates": [
          [
            [-6.938716, 37.262038],
            [-6.938925, 37.262003],
            [-6.939711, 37.262945],
            [-6.940537, 37.262286],
            [-6.941084, 37.262016],
            [-6.942448, 37.261563],
            [-6.94203, 37.260847],
            [-6.941842, 37.260525],
            [-6.940843, 37.259367],
            [-6.940066, 37.259812],
            [-6.939176, 37.260217],
            [-6.938612, 37.2605],
            [-6.938124, 37.260671],
            [-6.937478, 37.261168],
            [-6.938716, 37.262038]
          ]
        ]
      }
    },
    {
      "type": "Feature",
      "properties": {
        "id": "barriada-de-jesus",
        "name": "Barriada de Jesús",
        "cityId": "huelva"
      },
      "geometry": {
        "type": "Polygon",
        "coordinates": [
          [
            [-6.934124, 37.257271],
            [-6.934059, 37.257321],
            [-6.934814, 37.258046],
            [-6.934893, 37.25811],
            [-6.936238, 37.257315],
            [-6.936958, 37.256828],
            [-6.937578, 37.256542],
            [-6.938207, 37.256433],
            [-6.937164, 37.255497],
            [-6.936614, 37.254986],
            [-6.936231, 37.254536],
            [-6.934864, 37.255309],
            [-6.935586, 37.255925],
            [-6.93512, 37.256514],
            [-6.934124, 37.257271]
          ]
        ]
      }
    },
    {
      "type": "Feature",
      "properties": {
        "id": "barriada-de-jose-antonio",
        "name": "Barriada de José Antonio",
        "cityId": "huelva"
      },
      "geometry": {
        "type": "Polygon",
        "coordinates": [
          [
            [-6.930369, 37.263311],
            [-6.929753, 37.261299],
            [-6.927947, 37.262377],
            [-6.928974, 37.263556],
            [-6.930369, 37.263311]
          ]
        ]
      }
    },
    {
      "type": "Feature",
      "properties": {
        "id": "barriada-de-la-cinta",
        "name": "Barriada de la Cinta",
        "cityId": "huelva"
      },
      "geometry": {
        "type": "Polygon",
        "coordinates": [
          [
            [-6.93194, 37.258617],
            [-6.93213, 37.2585],
            [-6.932943, 37.257995],
            [-6.932283, 37.257442],
            [-6.931835, 37.256924],
            [-6.931292, 37.257292],
            [-6.931026, 37.257438],
            [-6.930876, 37.25751],
            [-6.930869, 37.257514],
            [-6.930864, 37.257516],
            [-6.930851, 37.257522],
            [-6.930737, 37.257602],
            [-6.930306, 37.257886],
            [-6.930904, 37.258596],
            [-6.931073, 37.258478],
            [-6.931432, 37.258957],
            [-6.931887, 37.258653],
            [-6.93194, 37.258617]
          ]
        ]
      }
    },
    {
      "type": "Feature",
      "properties": {
        "id": "barriada-de-la-condesa",
        "name": "Barriada de la Condesa",
        "cityId": "huelva"
      },
      "geometry": {
        "type": "Polygon",
        "coordinates": [
          [
            [-6.932131, 37.26323],
            [-6.931751, 37.261723],
            [-6.931561, 37.261786],
            [-6.931404, 37.261118],
            [-6.930942, 37.26059],
            [-6.929753, 37.261299],
            [-6.930369, 37.263311],
            [-6.931961, 37.263148],
            [-6.932131, 37.26323]
          ]
        ]
      }
    },
    {
      "type": "Feature",
      "properties": {
        "id": "barriada-de-la-florida",
        "name": "Barriada de la Florida",
        "cityId": "huelva"
      },
      "geometry": {
        "type": "Polygon",
        "coordinates": [
          [
            [-6.928029, 37.268197],
            [-6.929066, 37.269023],
            [-6.930304, 37.270018],
            [-6.931167, 37.270695],
            [-6.931622, 37.270415],
            [-6.934734, 37.268172],
            [-6.936183, 37.267067],
            [-6.935775, 37.266554],
            [-6.935039, 37.266901],
            [-6.934867, 37.266627],
            [-6.933992, 37.266347],
            [-6.933738, 37.266173],
            [-6.933646, 37.266092],
            [-6.933184, 37.266318],
            [-6.932131, 37.264978],
            [-6.931378, 37.26534],
            [-6.930907, 37.264725],
            [-6.931607, 37.264351],
            [-6.931243, 37.263901],
            [-6.930113, 37.264753],
            [-6.931033, 37.266531],
            [-6.929662, 37.267216],
            [-6.928775, 37.267687],
            [-6.928029, 37.268197]
          ]
        ]
      }
    },
    {
      "type": "Feature",
      "properties": {
        "id": "barriada-de-la-hispanidad",
        "name": "Barriada de la Hispanidad",
        "cityId": "huelva"
      },
      "geometry": {
        "type": "Polygon",
        "coordinates": [
          [
            [-6.939989, 37.269948],
            [-6.938384, 37.268459],
            [-6.937485, 37.267704],
            [-6.934545, 37.269877],
            [-6.936133, 37.273078],
            [-6.936559, 37.272698],
            [-6.936753, 37.272525],
            [-6.938091, 37.271582],
            [-6.938459, 37.271248],
            [-6.939989, 37.269948]
          ]
        ]
      }
    },
    {
      "type": "Feature",
      "properties": {
        "id": "barriada-de-la-navidad",
        "name": "Barriada de la Navidad",
        "cityId": "huelva"
      },
      "geometry": {
        "type": "Polygon",
        "coordinates": [
          [
            [-6.95651, 37.269812],
            [-6.95679, 37.268914],
            [-6.956833, 37.268758],
            [-6.956707, 37.26873],
            [-6.95207, 37.267727],
            [-6.952003, 37.267907],
            [-6.950982, 37.270674],
            [-6.952365, 37.270739],
            [-6.952752, 37.270218],
            [-6.953174, 37.269851],
            [-6.953524, 37.269685],
            [-6.954546, 37.269695],
            [-6.954644, 37.269449],
            [-6.954989, 37.269516],
            [-6.95651, 37.269812]
          ]
        ]
      }
    },
    {
      "type": "Feature",
      "properties": {
        "id": "barriada-de-la-orden",
        "name": "Barriada de la Orden",
        "cityId": "huelva"
      },
      "geometry": {
        "type": "Polygon",
        "coordinates": [
          [
            [-6.939464, 37.280014],
            [-6.939353, 37.281583],
            [-6.939294, 37.282578],
            [-6.939347, 37.283584],
            [-6.93935, 37.283653],
            [-6.939379, 37.283653],
            [-6.94051, 37.283672],
            [-6.941446, 37.283683],
            [-6.942279, 37.28374],
            [-6.943042, 37.283827],
            [-6.943647, 37.28392],
            [-6.944342, 37.284038],
            [-6.94509, 37.284154],
            [-6.9452, 37.284172],
            [-6.945158, 37.284311],
            [-6.945163, 37.284343],
            [-6.945179, 37.284399],
            [-6.945205, 37.284453],
            [-6.945221, 37.28448],
            [-6.945238, 37.284504],
            [-6.945279, 37.284552],
            [-6.945328, 37.284594],
            [-6.945382, 37.284632],
            [-6.945443, 37.284664],
            [-6.945507, 37.28469],
            [-6.945522, 37.284694],
            [-6.945713, 37.28426],
            [-6.947807, 37.279265],
            [-6.94748, 37.279173],
            [-6.946971, 37.278947],
            [-6.946515, 37.278676],
            [-6.945892, 37.278366],
            [-6.945113, 37.27773],
            [-6.944594, 37.277306],
            [-6.944305, 37.277051],
            [-6.944025, 37.276972],
            [-6.943644, 37.277073],
            [-6.943327, 37.277348],
            [-6.942907, 37.277759],
            [-6.942527, 37.277882],
            [-6.942221, 37.278378],
            [-6.940938, 37.2797],
            [-6.940127, 37.280036],
            [-6.939464, 37.280014]
          ]
        ]
      }
    },
    {
      "type": "Feature",
      "properties": {
        "id": "barriada-de-las-adoratrices",
        "name": "Barriada de las Adoratrices",
        "cityId": "huelva"
      },
      "geometry": {
        "type": "Polygon",
        "coordinates": [
          [
            [-6.94295, 37.262208],
            [-6.940258, 37.26417],
            [-6.94078, 37.26427],
            [-6.941156, 37.264734],
            [-6.940259, 37.265367],
            [-6.940845, 37.265852],
            [-6.941558, 37.26538],
            [-6.942059, 37.266247],
            [-6.942854, 37.266683],
            [-6.942852, 37.266694],
            [-6.942851, 37.266714],
            [-6.942854, 37.266735],
            [-6.942862, 37.266754],
            [-6.942873, 37.266772],
            [-6.942889, 37.266789],
            [-6.942908, 37.266802],
            [-6.942929, 37.266813],
            [-6.942953, 37.266821],
            [-6.942978, 37.266826],
            [-6.943004, 37.266827],
            [-6.943029, 37.266824],
            [-6.943053, 37.266818],
            [-6.943076, 37.266809],
            [-6.943088, 37.266802],
            [-6.946248, 37.265221],
            [-6.945936, 37.264954],
            [-6.945513, 37.26477],
            [-6.944783, 37.264529],
            [-6.944902, 37.264172],
            [-6.945311, 37.263541],
            [-6.945354, 37.263319],
            [-6.945627, 37.263266],
            [-6.945632, 37.262825],
            [-6.945623, 37.262766],
            [-6.945548, 37.262276],
            [-6.945765, 37.262203],
            [-6.945632, 37.261766],
            [-6.9454, 37.261553],
            [-6.945086, 37.261365],
            [-6.944731, 37.261421],
            [-6.94295, 37.262208]
          ]
        ]
      }
    },
    {
      "type": "Feature",
      "properties": {
        "id": "barriada-de-las-colonias",
        "name": "Barriada de las Colonias",
        "cityId": "huelva"
      },
      "geometry": {
        "type": "Polygon",
        "coordinates": [
          [
            [-6.950982, 37.270674],
            [-6.952003, 37.267907],
            [-6.951745, 37.267848],
            [-6.952241, 37.265207],
            [-6.951351, 37.265067],
            [-6.951046, 37.265288],
            [-6.950811, 37.265478],
            [-6.950826, 37.265772],
            [-6.950987, 37.265823],
            [-6.950577, 37.267043],
            [-6.950241, 37.266998],
            [-6.948155, 37.267011],
            [-6.948154, 37.267011],
            [-6.948155, 37.267021],
            [-6.948154, 37.267073],
            [-6.948142, 37.267125],
            [-6.948122, 37.267175],
            [-6.948115, 37.267189],
            [-6.948046, 37.267312],
            [-6.94797, 37.267431],
            [-6.947885, 37.267548],
            [-6.947793, 37.26766],
            [-6.947693, 37.267769],
            [-6.947586, 37.267872],
            [-6.947472, 37.267972],
            [-6.947447, 37.267991],
            [-6.947438, 37.268078],
            [-6.947431, 37.268212],
            [-6.947434, 37.268345],
            [-6.947445, 37.268477],
            [-6.947467, 37.268514],
            [-6.947502, 37.268588],
            [-6.947529, 37.268664],
            [-6.947546, 37.268742],
            [-6.947555, 37.26882],
            [-6.947555, 37.268899],
            [-6.947545, 37.268978],
            [-6.947526, 37.269055],
            [-6.947499, 37.269131],
            [-6.947463, 37.269204],
            [-6.947419, 37.269275],
            [-6.947366, 37.269342],
            [-6.947306, 37.269404],
            [-6.94724, 37.269463],
            [-6.947221, 37.269477],
            [-6.946908, 37.269818],
            [-6.946326, 37.27083],
            [-6.946257, 37.271097],
            [-6.946279, 37.271515],
            [-6.946288, 37.271521],
            [-6.946449, 37.271622],
            [-6.946605, 37.271729],
            [-6.946755, 37.271841],
            [-6.946898, 37.271959],
            [-6.947034, 37.272082],
            [-6.947164, 37.272209],
            [-6.947286, 37.27234],
            [-6.947401, 37.272476],
            [-6.947509, 37.272616],
            [-6.947608, 37.272759],
            [-6.9477, 37.272906],
            [-6.947783, 37.273056],
            [-6.947858, 37.273209],
            [-6.947924, 37.273364],
            [-6.947982, 37.273522],
            [-6.948031, 37.273681],
            [-6.948071, 37.273842],
            [-6.948102, 37.274004],
            [-6.948124, 37.274167],
            [-6.948136, 37.274299],
            [-6.948942, 37.274404],
            [-6.949682, 37.274544],
            [-6.950113, 37.273209],
            [-6.950982, 37.270674]
          ]
        ]
      }
    },
    {
      "type": "Feature",
      "properties": {
        "id": "barriada-de-los-rosales",
        "name": "Barriada de los Rosales",
        "cityId": "huelva"
      },
      "geometry": {
        "type": "Polygon",
        "coordinates": [
          [
            [-6.924337, 37.264616],
            [-6.927894, 37.262422],
            [-6.925891, 37.25957],
            [-6.922542, 37.261679],
            [-6.921894, 37.262087],
            [-6.923239, 37.26348],
            [-6.924337, 37.264616]
          ]
        ]
      }
    },
    {
      "type": "Feature",
      "properties": {
        "id": "barriada-de-tartessos",
        "name": "Barriada de Tartessos",
        "cityId": "huelva"
      },
      "geometry": {
        "type": "Polygon",
        "coordinates": [
          [
            [-6.933852, 37.25422],
            [-6.934472, 37.254999],
            [-6.933567, 37.255492],
            [-6.932828, 37.256119],
            [-6.934124, 37.257271],
            [-6.93512, 37.256514],
            [-6.935586, 37.255925],
            [-6.934864, 37.255309],
            [-6.936231, 37.254536],
            [-6.936075, 37.254188],
            [-6.936315, 37.253496],
            [-6.935092, 37.253316],
            [-6.934642, 37.253684],
            [-6.933852, 37.25422]
          ]
        ]
      }
    },
    {
      "type": "Feature",
      "properties": {
        "id": "barriada-de-viaplana",
        "name": "Barriada de Viaplana",
        "cityId": "huelva"
      },
      "geometry": {
        "type": "Polygon",
        "coordinates": [
          [
            [-6.938124, 37.260671],
            [-6.937201, 37.259907],
            [-6.935995, 37.258999],
            [-6.934893, 37.25811],
            [-6.934385, 37.258382],
            [-6.93374, 37.25881],
            [-6.932735, 37.25939],
            [-6.932792, 37.259473],
            [-6.932095, 37.259903],
            [-6.931397, 37.260318],
            [-6.930942, 37.26059],
            [-6.931404, 37.261118],
            [-6.931561, 37.261786],
            [-6.931751, 37.261723],
            [-6.932363, 37.261338],
            [-6.932758, 37.261844],
            [-6.933223, 37.261688],
            [-6.933767, 37.262357],
            [-6.934911, 37.261744],
            [-6.935738, 37.262811],
            [-6.935923, 37.26265],
            [-6.936607, 37.263651],
            [-6.937683, 37.263097],
            [-6.937919, 37.262906],
            [-6.938716, 37.262038],
            [-6.937478, 37.261168],
            [-6.938124, 37.260671]
          ]
        ]
      }
    },
    {
      "type": "Feature",
      "properties": {
        "id": "barriada-de-vistalegre",
        "name": "Barriada de Vistalegre",
        "cityId": "huelva"
      },
      "geometry": {
        "type": "Polygon",
        "coordinates": [
          [
            [-6.921158, 37.266542],
            [-6.917978, 37.268467],
            [-6.917643, 37.26867],
            [-6.917339, 37.268854],
            [-6.917282, 37.268944],
            [-6.917257, 37.268984],
            [-6.917179, 37.269523],
            [-6.917134, 37.270018],
            [-6.91723, 37.270508],
            [-6.917307, 37.270957],
            [-6.917585, 37.271555],
            [-6.9182, 37.272522],
            [-6.918959, 37.273554],
            [-6.919605, 37.274436],
            [-6.920253, 37.275359],
            [-6.920979, 37.276421],
            [-6.921531, 37.277193],
            [-6.921748, 37.27744],
            [-6.921803, 37.277404],
            [-6.925048, 37.275226],
            [-6.925055, 37.275221],
            [-6.926359, 37.274296],
            [-6.927717, 37.273346],
            [-6.929744, 37.271789],
            [-6.931162, 37.2707],
            [-6.931167, 37.270695],
            [-6.930304, 37.270018],
            [-6.929066, 37.269023],
            [-6.928029, 37.268197],
            [-6.926226, 37.266426],
            [-6.924337, 37.264616],
            [-6.921158, 37.266542]
          ]
        ]
      }
    },
    {
      "type": "Feature",
      "properties": {
        "id": "barriada-de-zafra",
        "name": "Barriada de Zafra",
        "cityId": "huelva"
      },
      "geometry": {
        "type": "Polygon",
        "coordinates": [
          [
            [-6.957331, 37.25538],
            [-6.957133, 37.255641],
            [-6.95727, 37.255787],
            [-6.957322, 37.255889],
            [-6.957328, 37.256002],
            [-6.95717, 37.256139],
            [-6.955752, 37.258778],
            [-6.954576, 37.260184],
            [-6.955362, 37.260553],
            [-6.954364, 37.262434],
            [-6.954554, 37.262456],
            [-6.954608, 37.262369],
            [-6.954975, 37.262394],
            [-6.95501, 37.262355],
            [-6.955094, 37.26227],
            [-6.955184, 37.26219],
            [-6.955281, 37.262115],
            [-6.955384, 37.262046],
            [-6.955493, 37.261982],
            [-6.955607, 37.261924],
            [-6.955725, 37.261873],
            [-6.955848, 37.261828],
            [-6.955974, 37.26179],
            [-6.956103, 37.261758],
            [-6.956234, 37.261734],
            [-6.956367, 37.261717],
            [-6.956502, 37.261707],
            [-6.956636, 37.261704],
            [-6.956696, 37.261705],
            [-6.958517, 37.26204],
            [-6.961352, 37.262595],
            [-6.962412, 37.2628],
            [-6.96278, 37.26287],
            [-6.963111, 37.260777],
            [-6.958744, 37.251185],
            [-6.95873, 37.251188],
            [-6.958716, 37.251161],
            [-6.9578, 37.251379],
            [-6.957685, 37.25129],
            [-6.957772, 37.251416],
            [-6.958603, 37.253773],
            [-6.957331, 37.25538]
          ]
        ]
      }
    },
    {
      "type": "Feature",
      "properties": {
        "id": "barriada-del-carmen",
        "name": "Barriada del Carmen",
        "cityId": "huelva"
      },
      "geometry": {
        "type": "Polygon",
        "coordinates": [
          [
            [-6.947807, 37.279265],
            [-6.94845, 37.277732],
            [-6.94941, 37.275387],
            [-6.949682, 37.274544],
            [-6.948942, 37.274404],
            [-6.948136, 37.274299],
            [-6.948124, 37.274167],
            [-6.948102, 37.274004],
            [-6.948071, 37.273842],
            [-6.948031, 37.273681],
            [-6.947982, 37.273522],
            [-6.947924, 37.273364],
            [-6.947858, 37.273209],
            [-6.947783, 37.273056],
            [-6.9477, 37.272906],
            [-6.947608, 37.272759],
            [-6.947509, 37.272616],
            [-6.947401, 37.272476],
            [-6.947286, 37.27234],
            [-6.947164, 37.272209],
            [-6.947034, 37.272082],
            [-6.946898, 37.271959],
            [-6.946755, 37.271841],
            [-6.946605, 37.271729],
            [-6.946449, 37.271622],
            [-6.946288, 37.271521],
            [-6.946279, 37.271515],
            [-6.946115, 37.272072],
            [-6.945888, 37.272477],
            [-6.945772, 37.2729],
            [-6.945789, 37.27323],
            [-6.945777, 37.273282],
            [-6.945746, 37.273385],
            [-6.945707, 37.273486],
            [-6.945658, 37.273585],
            [-6.945602, 37.273681],
            [-6.945537, 37.273773],
            [-6.945464, 37.273862],
            [-6.945384, 37.273946],
            [-6.945297, 37.274026],
            [-6.945203, 37.274101],
            [-6.945103, 37.27417],
            [-6.944997, 37.274234],
            [-6.944886, 37.274292],
            [-6.94477, 37.274343],
            [-6.94465, 37.274388],
            [-6.944635, 37.274393],
            [-6.944572, 37.274407],
            [-6.944505, 37.27443],
            [-6.944442, 37.274459],
            [-6.944383, 37.274494],
            [-6.944332, 37.274535],
            [-6.944287, 37.274581],
            [-6.944249, 37.274632],
            [-6.94422, 37.274685],
            [-6.9442, 37.274741],
            [-6.944189, 37.274799],
            [-6.944188, 37.274857],
            [-6.944195, 37.274915],
            [-6.944212, 37.274972],
            [-6.944226, 37.275003],
            [-6.944195, 37.275996],
            [-6.944149, 37.276048],
            [-6.944074, 37.276124],
            [-6.943992, 37.276196],
            [-6.943903, 37.276262],
            [-6.943809, 37.276323],
            [-6.943709, 37.276378],
            [-6.943604, 37.276427],
            [-6.943583, 37.276436],
            [-6.943565, 37.276448],
            [-6.943498, 37.276503],
            [-6.943438, 37.276562],
            [-6.943385, 37.276626],
            [-6.943339, 37.276693],
            [-6.943303, 37.276764],
            [-6.943275, 37.276837],
            [-6.943256, 37.276912],
            [-6.943246, 37.276988],
            [-6.943245, 37.277065],
            [-6.943254, 37.277141],
            [-6.943272, 37.277216],
            [-6.943298, 37.27729],
            [-6.943327, 37.277348],
            [-6.943644, 37.277073],
            [-6.944025, 37.276972],
            [-6.944305, 37.277051],
            [-6.944594, 37.277306],
            [-6.945113, 37.27773],
            [-6.945892, 37.278366],
            [-6.946515, 37.278676],
            [-6.946971, 37.278947],
            [-6.94748, 37.279173],
            [-6.947807, 37.279265]
          ]
        ]
      }
    },
    {
      "type": "Feature",
      "properties": {
        "id": "barriada-del-matadero",
        "name": "Barriada del Matadero",
        "cityId": "huelva"
      },
      "geometry": {
        "type": "Polygon",
        "coordinates": [
          [
            [-6.934642, 37.253684],
            [-6.935092, 37.253316],
            [-6.936315, 37.253496],
            [-6.938575, 37.253972],
            [-6.941367, 37.254607],
            [-6.941428, 37.252598],
            [-6.943564, 37.253242],
            [-6.943527, 37.253133],
            [-6.942664, 37.250549],
            [-6.941214, 37.250485],
            [-6.940704, 37.250854],
            [-6.940502, 37.252379],
            [-6.94044, 37.252365],
            [-6.939689, 37.252205],
            [-6.938747, 37.251983],
            [-6.937857, 37.251884],
            [-6.93733, 37.251846],
            [-6.937208, 37.251831],
            [-6.935297, 37.251726],
            [-6.933716, 37.252137],
            [-6.933587, 37.252112],
            [-6.932898, 37.252337],
            [-6.93256, 37.252432],
            [-6.932509, 37.252445],
            [-6.932685, 37.252405],
            [-6.932499, 37.252807],
            [-6.934642, 37.253684]
          ]
        ]
      }
    },
    {
      "type": "Feature",
      "properties": {
        "id": "barriada-el-higueral",
        "name": "Barriada El Higueral",
        "cityId": "huelva"
      },
      "geometry": {
        "type": "Polygon",
        "coordinates": [
          [
            [-6.924337, 37.264616],
            [-6.926226, 37.266426],
            [-6.928029, 37.268197],
            [-6.928775, 37.267687],
            [-6.929662, 37.267216],
            [-6.931033, 37.266531],
            [-6.930113, 37.264753],
            [-6.931243, 37.263901],
            [-6.932131, 37.26323],
            [-6.931961, 37.263148],
            [-6.930369, 37.263311],
            [-6.928974, 37.263556],
            [-6.927947, 37.262377],
            [-6.927894, 37.262422],
            [-6.924337, 37.264616]
          ]
        ]
      }
    },
    {
      "type": "Feature",
      "properties": {
        "id": "barriada-el-polvorin",
        "name": "Barriada El Polvorín",
        "cityId": "huelva"
      },
      "geometry": {
        "type": "Polygon",
        "coordinates": [
          [
            [-6.92749, 37.254524],
            [-6.927502, 37.254538],
            [-6.930057, 37.256815],
            [-6.932092, 37.255457],
            [-6.933852, 37.25422],
            [-6.934642, 37.253684],
            [-6.932499, 37.252807],
            [-6.932685, 37.252405],
            [-6.932509, 37.252445],
            [-6.931429, 37.252687],
            [-6.930073, 37.25307],
            [-6.929676, 37.253239],
            [-6.929178, 37.253475],
            [-6.929068, 37.25352],
            [-6.928966, 37.253576],
            [-6.928815, 37.253648],
            [-6.928671, 37.253737],
            [-6.928446, 37.25386],
            [-6.928206, 37.254027],
            [-6.928097, 37.254095],
            [-6.927945, 37.254208],
            [-6.92749, 37.254524]
          ]
        ]
      }
    },
    {
      "type": "Feature",
      "properties": {
        "id": "barriada-el-seminario",
        "name": "Barriada El Seminario",
        "cityId": "huelva"
      },
      "geometry": {
        "type": "Polygon",
        "coordinates": [
          [
            [-6.936839, 37.274675],
            [-6.936634, 37.274256],
            [-6.936587, 37.274174],
            [-6.936532, 37.274064],
            [-6.936486, 37.273952],
            [-6.936448, 37.273839],
            [-6.93642, 37.273723],
            [-6.9364, 37.273606],
            [-6.936389, 37.273489],
            [-6.936388, 37.273371],
            [-6.936395, 37.273254],
            [-6.936412, 37.273137],
            [-6.936437, 37.273021],
            [-6.936472, 37.272906],
            [-6.936515, 37.272793],
            [-6.936559, 37.272698],
            [-6.936133, 37.273078],
            [-6.93538, 37.273776],
            [-6.934968, 37.274295],
            [-6.934403, 37.274903],
            [-6.932584, 37.276366],
            [-6.933586, 37.276739],
            [-6.932731, 37.277511],
            [-6.933006, 37.27774],
            [-6.93181, 37.279379],
            [-6.930934, 37.279072],
            [-6.930106, 37.278664],
            [-6.929971, 37.278767],
            [-6.929798, 37.278829],
            [-6.929273, 37.27952],
            [-6.929299, 37.279551],
            [-6.929323, 37.279593],
            [-6.929338, 37.279637],
            [-6.929345, 37.279683],
            [-6.929343, 37.279729],
            [-6.929332, 37.279774],
            [-6.929312, 37.279817],
            [-6.929284, 37.279857],
            [-6.929249, 37.279893],
            [-6.929207, 37.279924],
            [-6.929159, 37.27995],
            [-6.929138, 37.279959],
            [-6.929114, 37.280079],
            [-6.929076, 37.280226],
            [-6.92903, 37.280371],
            [-6.928974, 37.280514],
            [-6.92891, 37.280655],
            [-6.928838, 37.280793],
            [-6.928757, 37.280928],
            [-6.928668, 37.28106],
            [-6.928571, 37.281188],
            [-6.928467, 37.281312],
            [-6.928355, 37.281432],
            [-6.928254, 37.281531],
            [-6.928204, 37.281586],
            [-6.928144, 37.281661],
            [-6.928092, 37.281741],
            [-6.928048, 37.281824],
            [-6.928029, 37.28187],
            [-6.928013, 37.281909],
            [-6.927987, 37.281993],
            [-6.928103, 37.282039],
            [-6.928625, 37.282247],
            [-6.929919, 37.28267],
            [-6.931245, 37.283049],
            [-6.932566, 37.28333],
            [-6.93358, 37.283493],
            [-6.935, 37.283643],
            [-6.935136, 37.28365],
            [-6.93514, 37.283619],
            [-6.935248, 37.282801],
            [-6.935842, 37.28148],
            [-6.936529, 37.279847],
            [-6.936672, 37.277283],
            [-6.936731, 37.275782],
            [-6.936818, 37.275316],
            [-6.936814, 37.27472],
            [-6.936839, 37.274675]
          ]
        ]
      }
    },
    {
      "type": "Feature",
      "properties": {
        "id": "barriada-huerta-mena",
        "name": "Barriada Huerta Mena",
        "cityId": "huelva"
      },
      "geometry": {
        "type": "Polygon",
        "coordinates": [
          [
            [-6.94203, 37.260847],
            [-6.942896, 37.259585],
            [-6.943806, 37.258518],
            [-6.944092, 37.258178],
            [-6.945043, 37.257352],
            [-6.945539, 37.256828],
            [-6.94489, 37.256541],
            [-6.944319, 37.256185],
            [-6.944008, 37.256041],
            [-6.943786, 37.256004],
            [-6.943403, 37.256083],
            [-6.942641, 37.256285],
            [-6.942212, 37.25652],
            [-6.941324, 37.256417],
            [-6.938207, 37.256433],
            [-6.937578, 37.256542],
            [-6.936958, 37.256828],
            [-6.936238, 37.257315],
            [-6.934893, 37.25811],
            [-6.935995, 37.258999],
            [-6.937201, 37.259907],
            [-6.938124, 37.260671],
            [-6.938612, 37.2605],
            [-6.939176, 37.260217],
            [-6.940066, 37.259812],
            [-6.940843, 37.259367],
            [-6.941842, 37.260525],
            [-6.94203, 37.260847]
          ]
        ]
      }
    },
    {
      "type": "Feature",
      "properties": {
        "id": "barriada-jardines-sierra-de-huelva",
        "name": "Barriada Jardines Sierra de Huelva",
        "cityId": "huelva"
      },
      "geometry": {
        "type": "Polygon",
        "coordinates": [
          [
            [-6.925048, 37.275226],
            [-6.925931, 37.276012],
            [-6.927572, 37.274836],
            [-6.932159, 37.271583],
            [-6.931162, 37.2707],
            [-6.929744, 37.271789],
            [-6.927717, 37.273346],
            [-6.926359, 37.274296],
            [-6.925055, 37.275221],
            [-6.925048, 37.275226]
          ]
        ]
      }
    },
    {
      "type": "Feature",
      "properties": {
        "id": "barriada-martin-alonso-pinzon",
        "name": "Barriada Martín Alonso Pinzón",
        "cityId": "huelva"
      },
      "geometry": {
        "type": "Polygon",
        "coordinates": [
          [
            [-6.931835, 37.256924],
            [-6.931336, 37.256449],
            [-6.930404, 37.257084],
            [-6.930864, 37.257516],
            [-6.930869, 37.257514],
            [-6.930876, 37.25751],
            [-6.931026, 37.257438],
            [-6.931292, 37.257292],
            [-6.931835, 37.256924]
          ]
        ]
      }
    },
    {
      "type": "Feature",
      "properties": {
        "id": "barriada-molino-de-la-vega",
        "name": "Barriada Molino de la Vega",
        "cityId": "huelva"
      },
      "geometry": {
        "type": "Polygon",
        "coordinates": [
          [
            [-6.956833, 37.268758],
            [-6.956966, 37.268787],
            [-6.956964, 37.268795],
            [-6.957048, 37.268804],
            [-6.958234, 37.269063],
            [-6.959521, 37.269347],
            [-6.961603, 37.269807],
            [-6.961947, 37.269634],
            [-6.962881, 37.267587],
            [-6.963424, 37.266906],
            [-6.96361, 37.266232],
            [-6.963393, 37.265227],
            [-6.963416, 37.26523],
            [-6.963429, 37.265188],
            [-6.963383, 37.26518],
            [-6.963247, 37.264552],
            [-6.96335, 37.264535],
            [-6.963419, 37.264562],
            [-6.963407, 37.265045],
            [-6.963562, 37.265022],
            [-6.96351, 37.264452],
            [-6.963233, 37.264487],
            [-6.963125, 37.263988],
            [-6.963794, 37.263894],
            [-6.963776, 37.263841],
            [-6.963583, 37.263866],
            [-6.963492, 37.263553],
            [-6.963358, 37.263557],
            [-6.963449, 37.263858],
            [-6.963106, 37.263899],
            [-6.963094, 37.263843],
            [-6.96278, 37.26287],
            [-6.962412, 37.2628],
            [-6.961352, 37.262595],
            [-6.958517, 37.26204],
            [-6.956696, 37.261705],
            [-6.956636, 37.261704],
            [-6.956502, 37.261707],
            [-6.956367, 37.261717],
            [-6.956234, 37.261734],
            [-6.956103, 37.261758],
            [-6.955974, 37.26179],
            [-6.955848, 37.261828],
            [-6.955725, 37.261873],
            [-6.955607, 37.261924],
            [-6.955493, 37.261982],
            [-6.955384, 37.262046],
            [-6.955281, 37.262115],
            [-6.955184, 37.26219],
            [-6.955094, 37.26227],
            [-6.95501, 37.262355],
            [-6.954975, 37.262394],
            [-6.954608, 37.262369],
            [-6.954554, 37.262456],
            [-6.954364, 37.262434],
            [-6.953805, 37.262397],
            [-6.953835, 37.262506],
            [-6.953859, 37.262631],
            [-6.953875, 37.262756],
            [-6.953882, 37.262882],
            [-6.953879, 37.263008],
            [-6.953867, 37.263134],
            [-6.953847, 37.263259],
            [-6.953817, 37.263383],
            [-6.95378, 37.263501],
            [-6.953649, 37.263634],
            [-6.953124, 37.264176],
            [-6.952812, 37.264504],
            [-6.952794, 37.264518],
            [-6.952703, 37.2646],
            [-6.952618, 37.264687],
            [-6.952542, 37.264778],
            [-6.952473, 37.264873],
            [-6.952412, 37.264972],
            [-6.952359, 37.265073],
            [-6.952322, 37.26516],
            [-6.952241, 37.265207],
            [-6.951745, 37.267848],
            [-6.952003, 37.267907],
            [-6.95207, 37.267727],
            [-6.956707, 37.26873],
            [-6.956833, 37.268758]
          ]
        ]
      }
    },
    {
      "type": "Feature",
      "properties": {
        "id": "barriada-nuestra-senora-del-rocio",
        "name": "Barriada Nuestra Señora del Rocío",
        "cityId": "huelva"
      },
      "geometry": {
        "type": "Polygon",
        "coordinates": [
          [
            [-6.928974, 37.25758],
            [-6.929726, 37.258214],
            [-6.930419, 37.259061],
            [-6.931117, 37.259991],
            [-6.931397, 37.260318],
            [-6.932095, 37.259903],
            [-6.932792, 37.259473],
            [-6.932735, 37.25939],
            [-6.931942, 37.258619],
            [-6.93194, 37.258617],
            [-6.931887, 37.258653],
            [-6.931432, 37.258957],
            [-6.931073, 37.258478],
            [-6.930904, 37.258596],
            [-6.930306, 37.257886],
            [-6.929585, 37.257181],
            [-6.928974, 37.25758]
          ]
        ]
      }
    },
    {
      "type": "Feature",
      "properties": {
        "id": "barriada-perez-cubillas",
        "name": "Barriada Pérez Cubillas",
        "cityId": "huelva"
      },
      "geometry": {
        "type": "Polygon",
        "coordinates": [
          [
            [-6.929585, 37.257181],
            [-6.930057, 37.256815],
            [-6.927502, 37.254538],
            [-6.92749, 37.254524],
            [-6.92648, 37.255224],
            [-6.925199, 37.256236],
            [-6.924698, 37.256606],
            [-6.924713, 37.256621],
            [-6.926967, 37.258844],
            [-6.928974, 37.25758],
            [-6.929585, 37.257181]
          ]
        ]
      }
    },
    {
      "type": "Feature",
      "properties": {
        "id": "barriada-pinar-de-balbueno",
        "name": "Barriada Pinar de Balbueno",
        "cityId": "huelva"
      },
      "geometry": {
        "type": "Polygon",
        "coordinates": [
          [
            [-6.928974, 37.25758],
            [-6.926967, 37.258844],
            [-6.926149, 37.259407],
            [-6.925891, 37.25957],
            [-6.927894, 37.262422],
            [-6.927947, 37.262377],
            [-6.929753, 37.261299],
            [-6.930942, 37.26059],
            [-6.931397, 37.260318],
            [-6.931117, 37.259991],
            [-6.930419, 37.259061],
            [-6.929726, 37.258214],
            [-6.928974, 37.25758]
          ]
        ]
      }
    },
    {
      "type": "Feature",
      "properties": {
        "id": "barriada-principe-felipe",
        "name": "Barriada Príncipe Felipe",
        "cityId": "huelva"
      },
      "geometry": {
        "type": "Polygon",
        "coordinates": [
          [
            [-6.925048, 37.275226],
            [-6.921803, 37.277404],
            [-6.921748, 37.27744],
            [-6.922, 37.277728],
            [-6.922878, 37.278658],
            [-6.923565, 37.279312],
            [-6.924523, 37.280084],
            [-6.926003, 37.281037],
            [-6.927454, 37.281779],
            [-6.927987, 37.281993],
            [-6.928013, 37.281909],
            [-6.928029, 37.28187],
            [-6.928048, 37.281824],
            [-6.928092, 37.281741],
            [-6.928144, 37.281661],
            [-6.928204, 37.281586],
            [-6.928254, 37.281531],
            [-6.928355, 37.281432],
            [-6.928467, 37.281312],
            [-6.928571, 37.281188],
            [-6.928668, 37.28106],
            [-6.928757, 37.280928],
            [-6.928838, 37.280793],
            [-6.92891, 37.280655],
            [-6.928974, 37.280514],
            [-6.92903, 37.280371],
            [-6.929076, 37.280226],
            [-6.929114, 37.280079],
            [-6.929138, 37.279959],
            [-6.929159, 37.27995],
            [-6.929207, 37.279924],
            [-6.929249, 37.279893],
            [-6.929284, 37.279857],
            [-6.929312, 37.279817],
            [-6.929332, 37.279774],
            [-6.929343, 37.279729],
            [-6.929345, 37.279683],
            [-6.929338, 37.279637],
            [-6.929323, 37.279593],
            [-6.929299, 37.279551],
            [-6.929273, 37.27952],
            [-6.929798, 37.278829],
            [-6.929971, 37.278767],
            [-6.930106, 37.278664],
            [-6.930943, 37.277893],
            [-6.928296, 37.27627],
            [-6.928712, 37.275822],
            [-6.928016, 37.27527],
            [-6.927572, 37.274836],
            [-6.925931, 37.276012],
            [-6.925048, 37.275226]
          ]
        ]
      }
    },
    {
      "type": "Feature",
      "properties": {
        "id": "barriada-principe-juan-carlos",
        "name": "Barriada Príncipe Juan Carlos",
        "cityId": "huelva"
      },
      "geometry": {
        "type": "Polygon",
        "coordinates": [
          [
            [-6.936529, 37.279847],
            [-6.935842, 37.28148],
            [-6.935248, 37.282801],
            [-6.93514, 37.283619],
            [-6.935136, 37.28365],
            [-6.935708, 37.283676],
            [-6.936467, 37.283665],
            [-6.937455, 37.283661],
            [-6.938567, 37.283652],
            [-6.93935, 37.283653],
            [-6.939347, 37.283584],
            [-6.939294, 37.282578],
            [-6.939353, 37.281583],
            [-6.939464, 37.280014],
            [-6.936529, 37.279847]
          ]
        ]
      }
    },
    {
      "type": "Feature",
      "properties": {
        "id": "barriada-reina-victoria-barrio-obrero",
        "name": "Barriada Reina Victoria (Barrio Obrero)",
        "cityId": "huelva"
      },
      "geometry": {
        "type": "Polygon",
        "coordinates": [
          [
            [-6.936231, 37.254536],
            [-6.936614, 37.254986],
            [-6.937164, 37.255497],
            [-6.938207, 37.256433],
            [-6.941324, 37.256417],
            [-6.941367, 37.254607],
            [-6.938575, 37.253972],
            [-6.936315, 37.253496],
            [-6.936075, 37.254188],
            [-6.936231, 37.254536]
          ]
        ]
      }
    },
    {
      "type": "Feature",
      "properties": {
        "id": "barriada-san-antonio",
        "name": "Barriada San Antonio",
        "cityId": "huelva"
      },
      "geometry": {
        "type": "Polygon",
        "coordinates": [
          [
            [-6.947447, 37.267991],
            [-6.947472, 37.267972],
            [-6.947586, 37.267872],
            [-6.947693, 37.267769],
            [-6.947793, 37.26766],
            [-6.947885, 37.267548],
            [-6.94797, 37.267431],
            [-6.948046, 37.267312],
            [-6.948115, 37.267189],
            [-6.948122, 37.267175],
            [-6.948142, 37.267125],
            [-6.948154, 37.267073],
            [-6.948155, 37.267021],
            [-6.948154, 37.267011],
            [-6.948148, 37.266969],
            [-6.948131, 37.266918],
            [-6.948106, 37.266869],
            [-6.948072, 37.266824],
            [-6.94803, 37.266784],
            [-6.947982, 37.266748],
            [-6.947928, 37.266719],
            [-6.947876, 37.266698],
            [-6.947169, 37.265839],
            [-6.946821, 37.26552],
            [-6.946283, 37.265251],
            [-6.946248, 37.265221],
            [-6.943088, 37.266802],
            [-6.943076, 37.266809],
            [-6.943053, 37.266818],
            [-6.943029, 37.266824],
            [-6.943004, 37.266827],
            [-6.942978, 37.266826],
            [-6.942953, 37.266821],
            [-6.942929, 37.266813],
            [-6.942908, 37.266802],
            [-6.942889, 37.266789],
            [-6.942873, 37.266772],
            [-6.942862, 37.266754],
            [-6.942854, 37.266735],
            [-6.942851, 37.266714],
            [-6.942852, 37.266694],
            [-6.942854, 37.266683],
            [-6.942059, 37.266247],
            [-6.941558, 37.26538],
            [-6.940845, 37.265852],
            [-6.940259, 37.265367],
            [-6.941156, 37.264734],
            [-6.94078, 37.26427],
            [-6.940258, 37.26417],
            [-6.937334, 37.266227],
            [-6.938181, 37.266909],
            [-6.938246, 37.266823],
            [-6.938999, 37.267471],
            [-6.939155, 37.267087],
            [-6.939946, 37.266443],
            [-6.940085, 37.266411],
            [-6.941876, 37.267108],
            [-6.942693, 37.267292],
            [-6.942309, 37.268006],
            [-6.942061, 37.268294],
            [-6.942744, 37.268608],
            [-6.942908, 37.268392],
            [-6.943801, 37.268012],
            [-6.944131, 37.267945],
            [-6.944324, 37.268289],
            [-6.94533, 37.268059],
            [-6.94639, 37.267519],
            [-6.946728, 37.267606],
            [-6.947447, 37.267991]
          ]
        ]
      }
    },
    {
      "type": "Feature",
      "properties": {
        "id": "barriada-santa-lucia",
        "name": "Barriada Santa Lucía",
        "cityId": "huelva"
      },
      "geometry": {
        "type": "Polygon",
        "coordinates": [
          [
            [-6.950113, 37.273209],
            [-6.950366, 37.273192],
            [-6.954371, 37.274114],
            [-6.954554, 37.274157],
            [-6.955552, 37.2724],
            [-6.95603, 37.271351],
            [-6.95651, 37.269812],
            [-6.954989, 37.269516],
            [-6.954644, 37.269449],
            [-6.954546, 37.269695],
            [-6.953524, 37.269685],
            [-6.953174, 37.269851],
            [-6.952752, 37.270218],
            [-6.952365, 37.270739],
            [-6.950982, 37.270674],
            [-6.950113, 37.273209]
          ]
        ]
      }
    },
    {
      "type": "Feature",
      "properties": {
        "id": "barriada-santa-marta",
        "name": "Barriada Santa Marta",
        "cityId": "huelva"
      },
      "geometry": {
        "type": "Polygon",
        "coordinates": [
          [
            [-6.939464, 37.280014],
            [-6.940127, 37.280036],
            [-6.940938, 37.2797],
            [-6.942221, 37.278378],
            [-6.942527, 37.277882],
            [-6.942907, 37.277759],
            [-6.941136, 37.277157],
            [-6.940181, 37.276836],
            [-6.936839, 37.274675],
            [-6.936814, 37.27472],
            [-6.936818, 37.275316],
            [-6.936731, 37.275782],
            [-6.936672, 37.277283],
            [-6.936529, 37.279847],
            [-6.939464, 37.280014]
          ]
        ]
      }
    },
    {
      "type": "Feature",
      "properties": {
        "id": "barriada-tres-ventanas",
        "name": "Barriada Tres Ventanas",
        "cityId": "huelva"
      },
      "geometry": {
        "type": "Polygon",
        "coordinates": [
          [
            [-6.942061, 37.268294],
            [-6.942309, 37.268006],
            [-6.942693, 37.267292],
            [-6.941876, 37.267108],
            [-6.940085, 37.266411],
            [-6.939946, 37.266443],
            [-6.939155, 37.267087],
            [-6.938999, 37.267471],
            [-6.938246, 37.266823],
            [-6.938181, 37.266909],
            [-6.937334, 37.266227],
            [-6.936698, 37.266673],
            [-6.936695, 37.266676],
            [-6.937485, 37.267704],
            [-6.938384, 37.268459],
            [-6.939989, 37.269948],
            [-6.940894, 37.269133],
            [-6.941505, 37.268748],
            [-6.942061, 37.268294]
          ]
        ]
      }
    },
    {
      "type": "Feature",
      "properties": {
        "id": "barriada-vicente-yanez-pinzon",
        "name": "Barriada Vicente Yánez Pinzón",
        "cityId": "huelva"
      },
      "geometry": {
        "type": "Polygon",
        "coordinates": [
          [
            [-6.930306, 37.257886],
            [-6.930737, 37.257602],
            [-6.930851, 37.257522],
            [-6.930864, 37.257516],
            [-6.930404, 37.257084],
            [-6.931336, 37.256449],
            [-6.931835, 37.256924],
            [-6.932828, 37.256119],
            [-6.933567, 37.255492],
            [-6.934472, 37.254999],
            [-6.933852, 37.25422],
            [-6.932092, 37.255457],
            [-6.930057, 37.256815],
            [-6.929585, 37.257181],
            [-6.930306, 37.257886]
          ]
        ]
      }
    },
    {
      "type": "Feature",
      "properties": {
        "id": "barrio-de-pescaderia",
        "name": "Barrio de Pescadería",
        "cityId": "huelva"
      },
      "geometry": {
        "type": "Polygon",
        "coordinates": [
          [
            [-6.952935, 37.252394],
            [-6.952463, 37.25309],
            [-6.953815, 37.253618],
            [-6.955394, 37.254271],
            [-6.955656, 37.253998],
            [-6.957331, 37.25538],
            [-6.958603, 37.253773],
            [-6.957772, 37.251416],
            [-6.957685, 37.25129],
            [-6.957455, 37.250958],
            [-6.9574, 37.250972],
            [-6.953154, 37.252047],
            [-6.953005, 37.25229],
            [-6.952942, 37.252393],
            [-6.952935, 37.252394]
          ]
        ]
      }
    },
    {
      "type": "Feature",
      "properties": {
        "id": "barrio-de-san-sebastian",
        "name": "Barrio de San Sebastián",
        "cityId": "huelva"
      },
      "geometry": {
        "type": "Polygon",
        "coordinates": [
          [
            [-6.942448, 37.261563],
            [-6.942716, 37.261951],
            [-6.94295, 37.262208],
            [-6.944731, 37.261421],
            [-6.945086, 37.261365],
            [-6.9454, 37.261553],
            [-6.945632, 37.261766],
            [-6.945765, 37.262203],
            [-6.945548, 37.262276],
            [-6.945623, 37.262766],
            [-6.948687, 37.262149],
            [-6.949014, 37.262072],
            [-6.949401, 37.262081],
            [-6.950079, 37.26186],
            [-6.949762, 37.260547],
            [-6.949513, 37.260533],
            [-6.949434, 37.260073],
            [-6.948852, 37.260026],
            [-6.948941, 37.259604],
            [-6.949634, 37.25914],
            [-6.94954, 37.258922],
            [-6.949828, 37.258626],
            [-6.949374, 37.258399],
            [-6.949543, 37.25793],
            [-6.949532, 37.257817],
            [-6.949392, 37.257672],
            [-6.949197, 37.257528],
            [-6.948799, 37.257279],
            [-6.948578, 37.257189],
            [-6.948294, 37.257138],
            [-6.94804, 37.257139],
            [-6.947719, 37.257097],
            [-6.947453, 37.257031],
            [-6.94722, 37.256896],
            [-6.947151, 37.256831],
            [-6.947007, 37.256776],
            [-6.946823, 37.257014],
            [-6.946124, 37.256948],
            [-6.945539, 37.256828],
            [-6.945043, 37.257352],
            [-6.944092, 37.258178],
            [-6.943806, 37.258518],
            [-6.942896, 37.259585],
            [-6.94203, 37.260847],
            [-6.942448, 37.261563]
          ]
        ]
      }
    },
    {
      "type": "Feature",
      "properties": {
        "id": "nuevo-colombino",
        "name": "Nuevo Colombino",
        "cityId": "huelva"
      },
      "geometry": {
        "type": "Polygon",
        "coordinates": [
          [
            [-6.9574, 37.250972],
            [-6.957297, 37.250735],
            [-6.956894, 37.249815],
            [-6.956268, 37.248245],
            [-6.955724, 37.24697],
            [-6.955308, 37.245852],
            [-6.95523, 37.245503],
            [-6.955028, 37.244534],
            [-6.955026, 37.244523],
            [-6.955025, 37.244512],
            [-6.953026, 37.244693],
            [-6.951456, 37.244864],
            [-6.950358, 37.245007],
            [-6.948748, 37.245274],
            [-6.948833, 37.245388],
            [-6.949019, 37.245627],
            [-6.949389, 37.246072],
            [-6.94996, 37.24682],
            [-6.950576, 37.247907],
            [-6.951437, 37.248222],
            [-6.951328, 37.24841],
            [-6.95132, 37.248548],
            [-6.951271, 37.248895],
            [-6.951203, 37.249594],
            [-6.951149, 37.249995],
            [-6.951044, 37.250261],
            [-6.950899, 37.250343],
            [-6.950843, 37.250405],
            [-6.950842, 37.25053],
            [-6.950916, 37.250813],
            [-6.950962, 37.250979],
            [-6.951018, 37.251465],
            [-6.951174, 37.252532],
            [-6.951205, 37.252633],
            [-6.949934, 37.252904],
            [-6.949856, 37.252922],
            [-6.949637, 37.253019],
            [-6.950702, 37.25275],
            [-6.952935, 37.252394],
            [-6.952942, 37.252393],
            [-6.953005, 37.25229],
            [-6.953154, 37.252047],
            [-6.9574, 37.250972]
          ]
        ]
      }
    },
    {
      "type": "Feature",
      "properties": {
        "id": "poligono-industrial-la-esperanza",
        "name": "Polígono Industrial la Esperanza",
        "cityId": "huelva"
      },
      "geometry": {
        "type": "Polygon",
        "coordinates": [
          [
            [-6.920449, 37.260457],
            [-6.920414, 37.260538],
            [-6.920356, 37.2607],
            [-6.920335, 37.260757],
            [-6.919915, 37.261936],
            [-6.919758, 37.262446],
            [-6.9194, 37.263428],
            [-6.919198, 37.264026],
            [-6.919129, 37.264271],
            [-6.919097, 37.264384],
            [-6.919271, 37.264145],
            [-6.919266, 37.264168],
            [-6.919274, 37.264156],
            [-6.919468, 37.263852],
            [-6.919552, 37.263745],
            [-6.919651, 37.263632],
            [-6.919758, 37.263524],
            [-6.919871, 37.26342],
            [-6.919991, 37.263321],
            [-6.920118, 37.263227],
            [-6.92025, 37.263139],
            [-6.920374, 37.263064],
            [-6.921194, 37.26254],
            [-6.921894, 37.262087],
            [-6.920625, 37.260742],
            [-6.920449, 37.260457]
          ]
        ]
      }
    },
    {
      "type": "Feature",
      "properties": {
        "id": "poligono-industrial-la-lunita",
        "name": "Polígono Industrial la Lunita",
        "cityId": "huelva"
      },
      "geometry": {
        "type": "Polygon",
        "coordinates": [
          [
            [-6.920172, 37.265416],
            [-6.921158, 37.266542],
            [-6.924337, 37.264616],
            [-6.923239, 37.26348],
            [-6.920172, 37.265416]
          ]
        ]
      }
    },
    {
      "type": "Feature",
      "properties": {
        "id": "poligono-industrial-marismas-del-polvorin",
        "name": "Polígono Industrial Marismas del Polvorín",
        "cityId": "huelva"
      },
      "geometry": {
        "type": "Polygon",
        "coordinates": [
          [
            [-6.920449, 37.260457],
            [-6.920625, 37.260742],
            [-6.921894, 37.262087],
            [-6.922542, 37.261679],
            [-6.925891, 37.25957],
            [-6.926149, 37.259407],
            [-6.926967, 37.258844],
            [-6.924713, 37.256621],
            [-6.924698, 37.256606],
            [-6.923633, 37.257427],
            [-6.922109, 37.258553],
            [-6.922007, 37.258634],
            [-6.921855, 37.258762],
            [-6.92171, 37.258894],
            [-6.92166, 37.258944],
            [-6.921306, 37.259217],
            [-6.921184, 37.259341],
            [-6.921061, 37.259478],
            [-6.920944, 37.259619],
            [-6.920836, 37.259764],
            [-6.920735, 37.259913],
            [-6.920642, 37.260065],
            [-6.920558, 37.26022],
            [-6.920482, 37.260378],
            [-6.920449, 37.260457]
          ]
        ]
      }
    },
    {
      "type": "Feature",
      "properties": {
        "id": "poligono-industrial-romeralejo",
        "name": "Polígono Industrial Romeralejo",
        "cityId": "huelva"
      },
      "geometry": {
        "type": "Polygon",
        "coordinates": [
          [
            [-6.920172, 37.265416],
            [-6.919001, 37.265151],
            [-6.918999, 37.265158],
            [-6.918884, 37.265137],
            [-6.91885, 37.265257],
            [-6.918811, 37.265393],
            [-6.918594, 37.265971],
            [-6.918254, 37.266868],
            [-6.917671, 37.268383],
            [-6.917619, 37.268504],
            [-6.91766, 37.268493],
            [-6.917643, 37.26867],
            [-6.917978, 37.268467],
            [-6.921158, 37.266542],
            [-6.920172, 37.265416]
          ]
        ]
      }
    },
    {
      "type": "Feature",
      "properties": {
        "id": "poligono-indutrial-la-paz",
        "name": "Polígono Indutrial La Paz",
        "cityId": "huelva"
      },
      "geometry": {
        "type": "Polygon",
        "coordinates": [
          [
            [-6.920558, 37.26022],
            [-6.920087, 37.259997],
            [-6.920045, 37.259991],
            [-6.919886, 37.259971],
            [-6.919726, 37.259958],
            [-6.919565, 37.259953],
            [-6.919404, 37.259954],
            [-6.91939, 37.259955],
            [-6.919336, 37.259957],
            [-6.919244, 37.259963],
            [-6.919084, 37.259979],
            [-6.918926, 37.260003],
            [-6.91877, 37.260033],
            [-6.918616, 37.26007],
            [-6.918465, 37.260114],
            [-6.918317, 37.260165],
            [-6.918173, 37.260222],
            [-6.918057, 37.260275],
            [-6.916468, 37.261654],
            [-6.91645, 37.262075],
            [-6.916403, 37.263589],
            [-6.916246, 37.268684],
            [-6.916205, 37.269416],
            [-6.916211, 37.269413],
            [-6.916423, 37.269296],
            [-6.916629, 37.269172],
            [-6.91683, 37.269043],
            [-6.917025, 37.268909],
            [-6.917101, 37.268854],
            [-6.917282, 37.268944],
            [-6.917339, 37.268854],
            [-6.917643, 37.26867],
            [-6.91766, 37.268493],
            [-6.917619, 37.268504],
            [-6.917671, 37.268383],
            [-6.918254, 37.266868],
            [-6.918594, 37.265971],
            [-6.918811, 37.265393],
            [-6.91885, 37.265257],
            [-6.918884, 37.265137],
            [-6.919097, 37.264384],
            [-6.919129, 37.264271],
            [-6.919198, 37.264026],
            [-6.9194, 37.263428],
            [-6.919758, 37.262446],
            [-6.919915, 37.261936],
            [-6.920335, 37.260757],
            [-6.920356, 37.2607],
            [-6.920414, 37.260538],
            [-6.920449, 37.260457],
            [-6.920482, 37.260378],
            [-6.920558, 37.26022]
          ]
        ]
      }
    },
    {
      "type": "Feature",
      "properties": {
        "id": "poligono-indutrial-polirrosas",
        "name": "Polígono Indutrial Polirrosas",
        "cityId": "huelva"
      },
      "geometry": {
        "type": "Polygon",
        "coordinates": [
          [
            [-6.923239, 37.26348],
            [-6.921894, 37.262087],
            [-6.921194, 37.26254],
            [-6.920374, 37.263064],
            [-6.92025, 37.263139],
            [-6.920118, 37.263227],
            [-6.919991, 37.263321],
            [-6.919871, 37.26342],
            [-6.919758, 37.263524],
            [-6.919651, 37.263632],
            [-6.919552, 37.263745],
            [-6.919468, 37.263852],
            [-6.919274, 37.264156],
            [-6.919266, 37.264168],
            [-6.919271, 37.264145],
            [-6.919097, 37.264384],
            [-6.918884, 37.265137],
            [-6.918999, 37.265158],
            [-6.919001, 37.265151],
            [-6.920172, 37.265416],
            [-6.923239, 37.26348]
          ]
        ]
      }
    },
    {
      "type": "Feature",
      "properties": {
        "id": "poligono-san-sebastian",
        "name": "Polígono San Sebastián",
        "cityId": "huelva"
      },
      "geometry": {
        "type": "Polygon",
        "coordinates": [
          [
            [-6.938716, 37.262038],
            [-6.937919, 37.262906],
            [-6.937683, 37.263097],
            [-6.936607, 37.263651],
            [-6.935923, 37.26265],
            [-6.935738, 37.262811],
            [-6.934911, 37.261744],
            [-6.933767, 37.262357],
            [-6.933223, 37.261688],
            [-6.932758, 37.261844],
            [-6.932363, 37.261338],
            [-6.931751, 37.261723],
            [-6.932131, 37.26323],
            [-6.931243, 37.263901],
            [-6.931607, 37.264351],
            [-6.930907, 37.264725],
            [-6.931378, 37.26534],
            [-6.932131, 37.264978],
            [-6.933184, 37.266318],
            [-6.933646, 37.266092],
            [-6.933738, 37.266173],
            [-6.933992, 37.266347],
            [-6.934867, 37.266627],
            [-6.935039, 37.266901],
            [-6.935775, 37.266554],
            [-6.936183, 37.267067],
            [-6.936695, 37.266676],
            [-6.936698, 37.266673],
            [-6.937334, 37.266227],
            [-6.940258, 37.26417],
            [-6.94295, 37.262208],
            [-6.942716, 37.261951],
            [-6.942448, 37.261563],
            [-6.941084, 37.262016],
            [-6.940537, 37.262286],
            [-6.939711, 37.262945],
            [-6.938925, 37.262003],
            [-6.938716, 37.262038]
          ]
        ]
      }
    },
    {
      "type": "Feature",
      "properties": {
        "id": "urb-santa-maria-del-pilar",
        "name": "Urb. Santa María del Pilar",
        "cityId": "huelva"
      },
      "geometry": {
        "type": "Polygon",
        "coordinates": [
          [
            [-6.932159, 37.271583],
            [-6.934545, 37.269877],
            [-6.937485, 37.267704],
            [-6.936695, 37.266676],
            [-6.936183, 37.267067],
            [-6.934734, 37.268172],
            [-6.931622, 37.270415],
            [-6.931167, 37.270695],
            [-6.931162, 37.2707],
            [-6.932159, 37.271583]
          ]
        ]
      }
    },
    {
      "type": "Feature",
      "properties": {
        "id": "urb-verdeluz",
        "name": "Urb. Verdeluz",
        "cityId": "huelva"
      },
      "geometry": {
        "type": "Polygon",
        "coordinates": [
          [
            [-6.934545, 37.269877],
            [-6.932159, 37.271583],
            [-6.934255, 37.273407],
            [-6.93538, 37.273776],
            [-6.936133, 37.273078],
            [-6.934545, 37.269877]
          ]
        ]
      }
    },
    {
      "type": "Feature",
      "properties": {
        "id": "zona-centro",
        "name": "Zona Centro",
        "cityId": "huelva"
      },
      "geometry": {
        "type": "Polygon",
        "coordinates": [
          [
            [-6.941367, 37.254607],
            [-6.941324, 37.256417],
            [-6.942212, 37.25652],
            [-6.942641, 37.256285],
            [-6.943403, 37.256083],
            [-6.943786, 37.256004],
            [-6.944008, 37.256041],
            [-6.944319, 37.256185],
            [-6.94489, 37.256541],
            [-6.945539, 37.256828],
            [-6.946124, 37.256948],
            [-6.946823, 37.257014],
            [-6.947007, 37.256776],
            [-6.947151, 37.256831],
            [-6.94722, 37.256896],
            [-6.947453, 37.257031],
            [-6.947719, 37.257097],
            [-6.94804, 37.257139],
            [-6.948294, 37.257138],
            [-6.948578, 37.257189],
            [-6.948799, 37.257279],
            [-6.949197, 37.257528],
            [-6.949392, 37.257672],
            [-6.949532, 37.257817],
            [-6.949543, 37.25793],
            [-6.949374, 37.258399],
            [-6.949828, 37.258626],
            [-6.94954, 37.258922],
            [-6.949634, 37.25914],
            [-6.948941, 37.259604],
            [-6.948852, 37.260026],
            [-6.949434, 37.260073],
            [-6.949513, 37.260533],
            [-6.949762, 37.260547],
            [-6.950079, 37.26186],
            [-6.950089, 37.26208],
            [-6.951266, 37.262784],
            [-6.951293, 37.262951],
            [-6.951181, 37.263165],
            [-6.951096, 37.263224],
            [-6.951015, 37.263339],
            [-6.951092, 37.263477],
            [-6.950851, 37.264242],
            [-6.951311, 37.264311],
            [-6.951428, 37.264868],
            [-6.951351, 37.265067],
            [-6.952241, 37.265207],
            [-6.952322, 37.26516],
            [-6.952359, 37.265073],
            [-6.952412, 37.264972],
            [-6.952473, 37.264873],
            [-6.952542, 37.264778],
            [-6.952618, 37.264687],
            [-6.952703, 37.2646],
            [-6.952794, 37.264518],
            [-6.952812, 37.264504],
            [-6.953124, 37.264176],
            [-6.953649, 37.263634],
            [-6.95378, 37.263501],
            [-6.953817, 37.263383],
            [-6.953847, 37.263259],
            [-6.953867, 37.263134],
            [-6.953879, 37.263008],
            [-6.953882, 37.262882],
            [-6.953875, 37.262756],
            [-6.953859, 37.262631],
            [-6.953835, 37.262506],
            [-6.953805, 37.262397],
            [-6.954364, 37.262434],
            [-6.955362, 37.260553],
            [-6.954576, 37.260184],
            [-6.955752, 37.258778],
            [-6.95717, 37.256139],
            [-6.957328, 37.256002],
            [-6.957322, 37.255889],
            [-6.95727, 37.255787],
            [-6.957133, 37.255641],
            [-6.957331, 37.25538],
            [-6.955656, 37.253998],
            [-6.955394, 37.254271],
            [-6.953815, 37.253618],
            [-6.952463, 37.25309],
            [-6.952935, 37.252394],
            [-6.950702, 37.25275],
            [-6.949637, 37.253019],
            [-6.946853, 37.253724],
            [-6.946556, 37.253777],
            [-6.946151, 37.25379],
            [-6.945566, 37.253739],
            [-6.945015, 37.253659],
            [-6.94446, 37.253522],
            [-6.944248, 37.253456],
            [-6.94385, 37.253252],
            [-6.943527, 37.253133],
            [-6.943564, 37.253242],
            [-6.941428, 37.252598],
            [-6.941367, 37.254607]
          ]
        ]
      }
    },
    {
      "type": "Feature",
      "properties": {
        "id": "zona-del-conquero",
        "name": "Zona del Conquero",
        "cityId": "huelva"
      },
      "geometry": {
        "type": "Polygon",
        "coordinates": [
          [
            [-6.945623, 37.262766],
            [-6.945632, 37.262825],
            [-6.945627, 37.263266],
            [-6.945354, 37.263319],
            [-6.945311, 37.263541],
            [-6.944902, 37.264172],
            [-6.944783, 37.264529],
            [-6.945513, 37.26477],
            [-6.945936, 37.264954],
            [-6.946248, 37.265221],
            [-6.946283, 37.265251],
            [-6.946821, 37.26552],
            [-6.947169, 37.265839],
            [-6.947876, 37.266698],
            [-6.947928, 37.266719],
            [-6.947982, 37.266748],
            [-6.94803, 37.266784],
            [-6.948072, 37.266824],
            [-6.948106, 37.266869],
            [-6.948131, 37.266918],
            [-6.948148, 37.266969],
            [-6.948154, 37.267011],
            [-6.948155, 37.267011],
            [-6.950241, 37.266998],
            [-6.950577, 37.267043],
            [-6.950987, 37.265823],
            [-6.950826, 37.265772],
            [-6.950811, 37.265478],
            [-6.951046, 37.265288],
            [-6.951351, 37.265067],
            [-6.951428, 37.264868],
            [-6.951311, 37.264311],
            [-6.950851, 37.264242],
            [-6.951092, 37.263477],
            [-6.951015, 37.263339],
            [-6.951096, 37.263224],
            [-6.951181, 37.263165],
            [-6.951293, 37.262951],
            [-6.951266, 37.262784],
            [-6.950089, 37.26208],
            [-6.950079, 37.26186],
            [-6.949401, 37.262081],
            [-6.949014, 37.262072],
            [-6.948687, 37.262149],
            [-6.945623, 37.262766]
          ]
        ]
      }
    },
    {
      "type": "Feature",
      "properties": {
        "id": "zona-parque-moret",
        "name": "Zona Parque Moret",
        "cityId": "huelva"
      },
      "geometry": {
        "type": "Polygon",
        "coordinates": [
          [
            [-6.942907, 37.277759],
            [-6.943327, 37.277348],
            [-6.943298, 37.27729],
            [-6.943272, 37.277216],
            [-6.943254, 37.277141],
            [-6.943245, 37.277065],
            [-6.943246, 37.276988],
            [-6.943256, 37.276912],
            [-6.943275, 37.276837],
            [-6.943303, 37.276764],
            [-6.943339, 37.276693],
            [-6.943385, 37.276626],
            [-6.943438, 37.276562],
            [-6.943498, 37.276503],
            [-6.943565, 37.276448],
            [-6.943583, 37.276436],
            [-6.943604, 37.276427],
            [-6.943709, 37.276378],
            [-6.943809, 37.276323],
            [-6.943903, 37.276262],
            [-6.943992, 37.276196],
            [-6.944074, 37.276124],
            [-6.944149, 37.276048],
            [-6.944195, 37.275996],
            [-6.944226, 37.275003],
            [-6.944212, 37.274972],
            [-6.944195, 37.274915],
            [-6.944188, 37.274857],
            [-6.944189, 37.274799],
            [-6.9442, 37.274741],
            [-6.94422, 37.274685],
            [-6.944249, 37.274632],
            [-6.944287, 37.274581],
            [-6.944332, 37.274535],
            [-6.944383, 37.274494],
            [-6.944442, 37.274459],
            [-6.944505, 37.27443],
            [-6.944572, 37.274407],
            [-6.944635, 37.274393],
            [-6.94465, 37.274388],
            [-6.94477, 37.274343],
            [-6.944886, 37.274292],
            [-6.944997, 37.274234],
            [-6.945103, 37.27417],
            [-6.945203, 37.274101],
            [-6.945297, 37.274026],
            [-6.945384, 37.273946],
            [-6.945464, 37.273862],
            [-6.945537, 37.273773],
            [-6.945602, 37.273681],
            [-6.945658, 37.273585],
            [-6.945707, 37.273486],
            [-6.945746, 37.273385],
            [-6.945777, 37.273282],
            [-6.945789, 37.27323],
            [-6.945772, 37.2729],
            [-6.945888, 37.272477],
            [-6.946115, 37.272072],
            [-6.946279, 37.271515],
            [-6.946257, 37.271097],
            [-6.946326, 37.27083],
            [-6.946908, 37.269818],
            [-6.947221, 37.269477],
            [-6.94724, 37.269463],
            [-6.947306, 37.269404],
            [-6.947366, 37.269342],
            [-6.947419, 37.269275],
            [-6.947463, 37.269204],
            [-6.947499, 37.269131],
            [-6.947526, 37.269055],
            [-6.947545, 37.268978],
            [-6.947555, 37.268899],
            [-6.947555, 37.26882],
            [-6.947546, 37.268742],
            [-6.947529, 37.268664],
            [-6.947502, 37.268588],
            [-6.947467, 37.268514],
            [-6.947445, 37.268477],
            [-6.947434, 37.268345],
            [-6.947431, 37.268212],
            [-6.947438, 37.268078],
            [-6.947447, 37.267991],
            [-6.946728, 37.267606],
            [-6.94639, 37.267519],
            [-6.94533, 37.268059],
            [-6.944324, 37.268289],
            [-6.944131, 37.267945],
            [-6.943801, 37.268012],
            [-6.942908, 37.268392],
            [-6.942744, 37.268608],
            [-6.942061, 37.268294],
            [-6.941505, 37.268748],
            [-6.940894, 37.269133],
            [-6.939989, 37.269948],
            [-6.938459, 37.271248],
            [-6.938091, 37.271582],
            [-6.936753, 37.272525],
            [-6.936559, 37.272698],
            [-6.936515, 37.272793],
            [-6.936472, 37.272906],
            [-6.936437, 37.273021],
            [-6.936412, 37.273137],
            [-6.936395, 37.273254],
            [-6.936388, 37.273371],
            [-6.936389, 37.273489],
            [-6.9364, 37.273606],
            [-6.93642, 37.273723],
            [-6.936448, 37.273839],
            [-6.936486, 37.273952],
            [-6.936532, 37.274064],
            [-6.936587, 37.274174],
            [-6.936634, 37.274256],
            [-6.936839, 37.274675],
            [-6.940181, 37.276836],
            [-6.941136, 37.277157],
            [-6.942907, 37.277759]
          ]
        ]
      }
    }
  ]
}
