{
  "type": "FeatureCollection",
  "name": "jaen-neighborhoods",
  "metadata": {
    "schemaVersion": 1,
    "cityId": "jaen",
    "cityName": "Jaén",
    "representative": false,
    "source": "Barrios urbanos DERA — Instituto de Estadística y Cartografía de Andalucía (Junta de Andalucía), CC BY 4.0"
  },
  "features": [
    {
      "type": "Feature",
      "properties": {
        "id": "egido-de-belen",
        "name": "Egido de Belén",
        "cityId": "jaen"
      },
      "geometry": {
        "type": "Polygon",
        "coordinates": [
          [
            [-3.778667, 37.769611],
            [-3.778809, 37.769679],
            [-3.779711, 37.769757],
            [-3.779713, 37.769965],
            [-3.779722, 37.770048],
            [-3.77976, 37.770144],
            [-3.779776, 37.770191],
            [-3.779784, 37.770239],
            [-3.779724, 37.770305],
            [-3.779922, 37.770524],
            [-3.780043, 37.770577],
            [-3.780073, 37.770618],
            [-3.780074, 37.77069],
            [-3.780044, 37.770744],
            [-3.779955, 37.77078],
            [-3.779895, 37.770793],
            [-3.779655, 37.77083],
            [-3.779587, 37.770848],
            [-3.779581, 37.770932],
            [-3.779604, 37.770997],
            [-3.779687, 37.771068],
            [-3.780002, 37.771042],
            [-3.780017, 37.771],
            [-3.780212, 37.770987],
            [-3.781054, 37.771029],
            [-3.781099, 37.771059],
            [-3.781122, 37.7711],
            [-3.78112, 37.771108],
            [-3.783072, 37.770255],
            [-3.783534, 37.770309],
            [-3.783965, 37.771364],
            [-3.785366, 37.771094],
            [-3.785462, 37.771403],
            [-3.785973, 37.771302],
            [-3.78644, 37.770892],
            [-3.786507, 37.770868],
            [-3.786531, 37.770719],
            [-3.786576, 37.770714],
            [-3.786811, 37.769198],
            [-3.786782, 37.769192],
            [-3.784315, 37.768676],
            [-3.78385, 37.768669],
            [-3.783361, 37.768802],
            [-3.782335, 37.769288],
            [-3.781418, 37.769424],
            [-3.779946, 37.769294],
            [-3.779581, 37.769256],
            [-3.778715, 37.769472],
            [-3.778667, 37.769611]
          ]
        ]
      }
    },
    {
      "type": "Feature",
      "properties": {
        "id": "el-almendral",
        "name": "El Almendral",
        "cityId": "jaen"
      },
      "geometry": {
        "type": "Polygon",
        "coordinates": [
          [
            [-3.793275, 37.762154],
            [-3.793786, 37.762577],
            [-3.794102, 37.762568],
            [-3.794097, 37.76298],
            [-3.793893, 37.763009],
            [-3.793819, 37.763219],
            [-3.793955, 37.763225],
            [-3.794277, 37.763825],
            [-3.794592, 37.763789],
            [-3.794635, 37.763843],
            [-3.794416, 37.764047],
            [-3.794468, 37.764128],
            [-3.794893, 37.764058],
            [-3.795841, 37.764252],
            [-3.795841, 37.764252],
            [-3.795972, 37.764264],
            [-3.796258, 37.76434],
            [-3.79665, 37.764415],
            [-3.797055, 37.764436],
            [-3.797393, 37.764439],
            [-3.797536, 37.764444],
            [-3.797671, 37.764438],
            [-3.797851, 37.764377],
            [-3.797917, 37.764287],
            [-3.797895, 37.764257],
            [-3.797834, 37.76418],
            [-3.797736, 37.764133],
            [-3.797607, 37.764092],
            [-3.797547, 37.764081],
            [-3.797435, 37.764081],
            [-3.797344, 37.764076],
            [-3.797246, 37.764035],
            [-3.797178, 37.764006],
            [-3.797126, 37.76397],
            [-3.79705, 37.763923],
            [-3.796989, 37.763858],
            [-3.796573, 37.763616],
            [-3.796573, 37.763569],
            [-3.796573, 37.763527],
            [-3.79655, 37.763479],
            [-3.796542, 37.76345],
            [-3.796496, 37.76339],
            [-3.796608, 37.763354],
            [-3.796508, 37.763098],
            [-3.796455, 37.763045],
            [-3.796409, 37.763009],
            [-3.796379, 37.762968],
            [-3.796363, 37.762914],
            [-3.79631, 37.762861],
            [-3.796257, 37.762808],
            [-3.796204, 37.762748],
            [-3.796143, 37.762695],
            [-3.79615, 37.762647],
            [-3.796105, 37.762606],
            [-3.79606, 37.762612],
            [-3.796006, 37.762535],
            [-3.796125, 37.762451],
            [-3.796128, 37.762451],
            [-3.795785, 37.76215],
            [-3.795654, 37.762091],
            [-3.795533, 37.761993],
            [-3.795472, 37.762155],
            [-3.793275, 37.762154]
          ]
        ]
      }
    },
    {
      "type": "Feature",
      "properties": {
        "id": "el-tomillo-tiro-nacional",
        "name": "El Tomillo-Tiro Nacional",
        "cityId": "jaen"
      },
      "geometry": {
        "type": "Polygon",
        "coordinates": [
          [
            [-3.797302, 37.763494],
            [-3.797308, 37.763503],
            [-3.797415, 37.763658],
            [-3.797665, 37.763889],
            [-3.797799, 37.763739],
            [-3.797867, 37.763757],
            [-3.798041, 37.763869],
            [-3.798252, 37.763939],
            [-3.798455, 37.763967],
            [-3.798659, 37.764085],
            [-3.798749, 37.76412],
            [-3.799013, 37.76419],
            [-3.799524, 37.764252],
            [-3.799569, 37.764192],
            [-3.799537, 37.764019],
            [-3.799866, 37.763904],
            [-3.799986, 37.763885],
            [-3.799984, 37.763748],
            [-3.800067, 37.763742],
            [-3.80012, 37.763819],
            [-3.800247, 37.763776],
            [-3.800239, 37.763729],
            [-3.800449, 37.763697],
            [-3.80048, 37.763709],
            [-3.800637, 37.763684],
            [-3.800763, 37.763643],
            [-3.800809, 37.763691],
            [-3.801311, 37.763598],
            [-3.801288, 37.763538],
            [-3.801415, 37.763496],
            [-3.8017, 37.76347],
            [-3.801699, 37.76341],
            [-3.801804, 37.763392],
            [-3.801858, 37.763499],
            [-3.80197, 37.76348],
            [-3.801969, 37.763343],
            [-3.802066, 37.763336],
            [-3.802127, 37.763372],
            [-3.802359, 37.763305],
            [-3.80232, 37.763209],
            [-3.802687, 37.76307],
            [-3.802602, 37.762886],
            [-3.80264, 37.762867],
            [-3.802677, 37.762825],
            [-3.802744, 37.762795],
            [-3.802758, 37.762718],
            [-3.802713, 37.762706],
            [-3.80263, 37.762682],
            [-3.803057, 37.762596],
            [-3.803125, 37.762578],
            [-3.803342, 37.762559],
            [-3.803477, 37.76254],
            [-3.80362, 37.762515],
            [-3.803747, 37.762466],
            [-3.803806, 37.762371],
            [-3.80382, 37.762311],
            [-3.803827, 37.762257],
            [-3.803842, 37.762203],
            [-3.803841, 37.762144],
            [-3.80384, 37.762084],
            [-3.803847, 37.762031],
            [-3.803832, 37.761983],
            [-3.803689, 37.761966],
            [-3.803568, 37.761937],
            [-3.803508, 37.761896],
            [-3.803469, 37.761818],
            [-3.80343, 37.761676],
            [-3.803483, 37.761657],
            [-3.80358, 37.761633],
            [-3.803685, 37.761585],
            [-3.803691, 37.761519],
            [-3.803705, 37.761417],
            [-3.803705, 37.76134],
            [-3.803689, 37.761286],
            [-3.803689, 37.761257],
            [-3.803688, 37.761209],
            [-3.803695, 37.761149],
            [-3.803702, 37.761066],
            [-3.804248, 37.760931],
            [-3.804322, 37.760847],
            [-3.804813, 37.760337],
            [-3.804495, 37.760124],
            [-3.804397, 37.760125],
            [-3.804195, 37.760132],
            [-3.804052, 37.760145],
            [-3.803925, 37.7602],
            [-3.803806, 37.760272],
            [-3.803717, 37.760368],
            [-3.803598, 37.7605],
            [-3.803324, 37.760878],
            [-3.80319, 37.760986],
            [-3.803063, 37.76107],
            [-3.801332, 37.761374],
            [-3.801261, 37.761744],
            [-3.801331, 37.76197],
            [-3.800969, 37.761977],
            [-3.800964, 37.761977],
            [-3.800963, 37.761976],
            [-3.800993, 37.762057],
            [-3.801067, 37.762317],
            [-3.800991, 37.762484],
            [-3.800777, 37.76258],
            [-3.800346, 37.762579],
            [-3.800023, 37.762581],
            [-3.799236, 37.762795],
            [-3.79864, 37.762994],
            [-3.797936, 37.763089],
            [-3.797518, 37.763149],
            [-3.797339, 37.76325],
            [-3.797293, 37.763378],
            [-3.797302, 37.763494]
          ]
        ]
      }
    },
    {
      "type": "Feature",
      "properties": {
        "id": "gran-bulevar",
        "name": "Gran Bulevar",
        "cityId": "jaen"
      },
      "geometry": {
        "type": "Polygon",
        "coordinates": [
          [
            [-3.785017, 37.77982],
            [-3.784542, 37.780074],
            [-3.783789, 37.780834],
            [-3.783492, 37.781912],
            [-3.783838, 37.783155],
            [-3.783939, 37.783721],
            [-3.78378, 37.784184],
            [-3.782047, 37.789245],
            [-3.781319, 37.790175],
            [-3.780519, 37.790992],
            [-3.780408, 37.791747],
            [-3.780406, 37.791769],
            [-3.791527, 37.791726],
            [-3.791591, 37.791726],
            [-3.791527, 37.791531],
            [-3.791629, 37.791526],
            [-3.79271, 37.791412],
            [-3.792789, 37.791143],
            [-3.792988, 37.790748],
            [-3.793239, 37.790359],
            [-3.793634, 37.789999],
            [-3.794199, 37.789482],
            [-3.794563, 37.789122],
            [-3.794792, 37.788709],
            [-3.795019, 37.788177],
            [-3.795118, 37.787616],
            [-3.794876, 37.786723],
            [-3.794319, 37.785964],
            [-3.793787, 37.785407],
            [-3.793104, 37.784744],
            [-3.792718, 37.784484],
            [-3.792393, 37.784314],
            [-3.792069, 37.784191],
            [-3.792259, 37.783683],
            [-3.792893, 37.782587],
            [-3.792382, 37.782501],
            [-3.792952, 37.781734],
            [-3.79333, 37.781297],
            [-3.793428, 37.781332],
            [-3.794334, 37.781771],
            [-3.794834, 37.781241],
            [-3.789912, 37.780121],
            [-3.789903, 37.780061],
            [-3.789777, 37.780027],
            [-3.789345, 37.77991],
            [-3.78815, 37.779427],
            [-3.786912, 37.779227],
            [-3.785725, 37.779443],
            [-3.785017, 37.77982]
          ]
        ]
      }
    },
    {
      "type": "Feature",
      "properties": {
        "id": "la-alcantarilla-seminario",
        "name": "La Alcantarilla-Seminario",
        "cityId": "jaen"
      },
      "geometry": {
        "type": "Polygon",
        "coordinates": [
          [
            [-3.788842, 37.764912],
            [-3.789216, 37.764886],
            [-3.789787, 37.764747],
            [-3.790572, 37.764446],
            [-3.790635, 37.764413],
            [-3.791151, 37.764136],
            [-3.791951, 37.763397],
            [-3.792278, 37.763206],
            [-3.791905, 37.762819],
            [-3.791378, 37.762146],
            [-3.792317, 37.762157],
            [-3.792316, 37.762153],
            [-3.793275, 37.762154],
            [-3.795472, 37.762155],
            [-3.795533, 37.761993],
            [-3.79555, 37.761949],
            [-3.795279, 37.761647],
            [-3.794063, 37.760669],
            [-3.793634, 37.760623],
            [-3.79317, 37.760396],
            [-3.792809, 37.76012],
            [-3.792369, 37.759576],
            [-3.792158, 37.759129],
            [-3.792016, 37.758704],
            [-3.792023, 37.75859],
            [-3.791612, 37.75899],
            [-3.791475, 37.759279],
            [-3.791188, 37.759846],
            [-3.790953, 37.760059],
            [-3.790706, 37.760515],
            [-3.790323, 37.761283],
            [-3.78995, 37.761629],
            [-3.789283, 37.761977],
            [-3.789219, 37.762033],
            [-3.78909, 37.762144],
            [-3.789058, 37.762239],
            [-3.78911, 37.762226],
            [-3.789223, 37.763336],
            [-3.788826, 37.764894],
            [-3.788842, 37.764912]
          ]
        ]
      }
    },
    {
      "type": "Feature",
      "properties": {
        "id": "la-glorieta",
        "name": "La Glorieta",
        "cityId": "jaen"
      },
      "geometry": {
        "type": "Polygon",
        "coordinates": [
          [
            [-3.794063, 37.760669],
            [-3.794056, 37.760663],
            [-3.794209, 37.760611],
            [-3.794823, 37.760789],
            [-3.795374, 37.760978],
            [-3.796215, 37.760952],
            [-3.797055, 37.760774],
            [-3.797373, 37.760661],
            [-3.797441, 37.760538],
            [-3.797419, 37.760558],
            [-3.797193, 37.760423],
            [-3.796541, 37.760624],
            [-3.796459, 37.760624],
            [-3.796301, 37.760631],
            [-3.796204, 37.760632],
            [-3.796173, 37.760608],
            [-3.796113, 37.760585],
            [-3.796045, 37.760567],
            [-3.795947, 37.760544],
            [-3.795954, 37.760425],
            [-3.795931, 37.760377],
            [-3.795892, 37.760318],
            [-3.795877, 37.760276],
            [-3.795838, 37.760193],
            [-3.795732, 37.760087],
            [-3.795223, 37.75956],
            [-3.79523, 37.75944],
            [-3.795305, 37.759446],
            [-3.795326, 37.759332],
            [-3.795641, 37.75933],
            [-3.795643, 37.758758],
            [-3.79565, 37.757977],
            [-3.7958, 37.757988],
            [-3.795786, 37.757404],
            [-3.795072, 37.757325],
            [-3.795161, 37.756525],
            [-3.795597, 37.756552],
            [-3.796432, 37.755342],
            [-3.7956, 37.754788],
            [-3.795373, 37.75461],
            [-3.794929, 37.755209],
            [-3.794223, 37.7559],
            [-3.794126, 37.755966],
            [-3.793947, 37.756098],
            [-3.793806, 37.756225],
            [-3.793256, 37.756759],
            [-3.792774, 37.757328],
            [-3.792315, 37.757952],
            [-3.792109, 37.758311],
            [-3.792025, 37.758555],
            [-3.792023, 37.75859],
            [-3.792016, 37.758704],
            [-3.792158, 37.759129],
            [-3.792369, 37.759576],
            [-3.792809, 37.76012],
            [-3.79317, 37.760396],
            [-3.793634, 37.760623],
            [-3.794063, 37.760669]
          ]
        ]
      }
    },
    {
      "type": "Feature",
      "properties": {
        "id": "la-magdalena",
        "name": "La Magdalena",
        "cityId": "jaen"
      },
      "geometry": {
        "type": "Polygon",
        "coordinates": [
          [
            [-3.796392, 37.773448],
            [-3.796406, 37.77345],
            [-3.796789, 37.773326],
            [-3.797242, 37.773229],
            [-3.797632, 37.773226],
            [-3.798602, 37.773574],
            [-3.79904, 37.773674],
            [-3.799431, 37.773694],
            [-3.800091, 37.773704],
            [-3.800687, 37.773818],
            [-3.803073, 37.774444],
            [-3.803278, 37.774531],
            [-3.803954, 37.775131],
            [-3.804319, 37.775357],
            [-3.804542, 37.775407],
            [-3.80472, 37.775524],
            [-3.805121, 37.775595],
            [-3.805429, 37.775763],
            [-3.805576, 37.775842],
            [-3.805545, 37.775813],
            [-3.805544, 37.775812],
            [-3.807678, 37.775864],
            [-3.807782, 37.775779],
            [-3.807449, 37.775501],
            [-3.807155, 37.775366],
            [-3.806619, 37.775173],
            [-3.806288, 37.775092],
            [-3.8061, 37.775093],
            [-3.805845, 37.775095],
            [-3.805575, 37.775133],
            [-3.805514, 37.775103],
            [-3.805491, 37.775038],
            [-3.805513, 37.774996],
            [-3.80558, 37.774948],
            [-3.805617, 37.7749],
            [-3.805617, 37.774852],
            [-3.805616, 37.774805],
            [-3.805608, 37.774751],
            [-3.805607, 37.774679],
            [-3.805615, 37.774644],
            [-3.805614, 37.774578],
            [-3.805598, 37.774501],
            [-3.805575, 37.774453],
            [-3.805597, 37.774387],
            [-3.805679, 37.774321],
            [-3.805708, 37.774261],
            [-3.805708, 37.774226],
            [-3.805677, 37.774172],
            [-3.805623, 37.774071],
            [-3.805548, 37.774036],
            [-3.805367, 37.774007],
            [-3.805156, 37.773943],
            [-3.804923, 37.773933],
            [-3.804735, 37.77391],
            [-3.80457, 37.773905],
            [-3.804382, 37.773871],
            [-3.804284, 37.773866],
            [-3.804167, 37.774111],
            [-3.804227, 37.774152],
            [-3.804236, 37.774236],
            [-3.804304, 37.774271],
            [-3.804793, 37.774369],
            [-3.804883, 37.774368],
            [-3.804988, 37.77438],
            [-3.805079, 37.774421],
            [-3.805109, 37.774474],
            [-3.805058, 37.774552],
            [-3.805028, 37.774588],
            [-3.805029, 37.774654],
            [-3.805029, 37.774671],
            [-3.805022, 37.774719],
            [-3.80497, 37.774773],
            [-3.804903, 37.774797],
            [-3.804835, 37.774804],
            [-3.80479, 37.774804],
            [-3.804783, 37.774828],
            [-3.804776, 37.774906],
            [-3.804799, 37.774965],
            [-3.804868, 37.77503],
            [-3.804958, 37.775071],
            [-3.805049, 37.775136],
            [-3.805117, 37.775189],
            [-3.805164, 37.775314],
            [-3.805082, 37.775347],
            [-3.805074, 37.775333],
            [-3.804983, 37.775238],
            [-3.804824, 37.775138],
            [-3.804453, 37.774932],
            [-3.804045, 37.774708],
            [-3.80378, 37.77443],
            [-3.803792, 37.774167],
            [-3.803953, 37.773773],
            [-3.803959, 37.773653],
            [-3.803965, 37.773534],
            [-3.803919, 37.773469],
            [-3.803836, 37.773416],
            [-3.803745, 37.773351],
            [-3.803603, 37.77337],
            [-3.803468, 37.773382],
            [-3.803303, 37.773407],
            [-3.803175, 37.773426],
            [-3.802966, 37.773469],
            [-3.802778, 37.773447],
            [-3.802778, 37.773445],
            [-3.8027, 37.773458],
            [-3.802495, 37.773415],
            [-3.802261, 37.773291],
            [-3.801905, 37.773006],
            [-3.801335, 37.772773],
            [-3.80085, 37.772614],
            [-3.800161, 37.77242],
            [-3.799919, 37.772444],
            [-3.799585, 37.772453],
            [-3.799314, 37.772381],
            [-3.799034, 37.772206],
            [-3.798919, 37.771927],
            [-3.79878, 37.771691],
            [-3.798722, 37.771653],
            [-3.798574, 37.771556],
            [-3.798203, 37.771272],
            [-3.797824, 37.770982],
            [-3.797536, 37.770704],
            [-3.796895, 37.769832],
            [-3.796827, 37.769767],
            [-3.796751, 37.769666],
            [-3.79666, 37.769589],
            [-3.796577, 37.769542],
            [-3.796543, 37.769524],
            [-3.79587, 37.770692],
            [-3.794667, 37.770279],
            [-3.794189, 37.770007],
            [-3.794173, 37.770014],
            [-3.793521, 37.770266],
            [-3.793623, 37.77042],
            [-3.793824, 37.77056],
            [-3.793817, 37.770565],
            [-3.793988, 37.77073],
            [-3.794036, 37.770692],
            [-3.794182, 37.770786],
            [-3.794022, 37.770902],
            [-3.794203, 37.771227],
            [-3.793804, 37.771593],
            [-3.794056, 37.771828],
            [-3.79402, 37.772211],
            [-3.793654, 37.771786],
            [-3.792908, 37.771982],
            [-3.792917, 37.77211],
            [-3.792685, 37.772182],
            [-3.792576, 37.772279],
            [-3.792708, 37.772391],
            [-3.793436, 37.772748],
            [-3.793835, 37.773128],
            [-3.794078, 37.773309],
            [-3.794465, 37.773546],
            [-3.794778, 37.773614],
            [-3.795058, 37.773625],
            [-3.795392, 37.773575],
            [-3.796219, 37.773421],
            [-3.796392, 37.773448]
          ]
        ]
      }
    },
    {
      "type": "Feature",
      "properties": {
        "id": "la-merced",
        "name": "La Merced",
        "cityId": "jaen"
      },
      "geometry": {
        "type": "Polygon",
        "coordinates": [
          [
            [-3.790635, 37.764413],
            [-3.791027, 37.765112],
            [-3.79084, 37.765208],
            [-3.791461, 37.765894],
            [-3.791721, 37.766278],
            [-3.791808, 37.766507],
            [-3.791803, 37.766698],
            [-3.791796, 37.76694],
            [-3.791812, 37.766918],
            [-3.791964, 37.766702],
            [-3.792382, 37.766727],
            [-3.79238, 37.766564],
            [-3.792396, 37.766456],
            [-3.79401, 37.76649],
            [-3.794121, 37.766029],
            [-3.794489, 37.764608],
            [-3.794585, 37.764494],
            [-3.794862, 37.764379],
            [-3.795229, 37.764275],
            [-3.795401, 37.764256],
            [-3.795581, 37.764219],
            [-3.795792, 37.764248],
            [-3.795841, 37.764252],
            [-3.794893, 37.764058],
            [-3.794468, 37.764128],
            [-3.794416, 37.764047],
            [-3.794635, 37.763843],
            [-3.794592, 37.763789],
            [-3.794277, 37.763825],
            [-3.793955, 37.763225],
            [-3.793819, 37.763219],
            [-3.793893, 37.763009],
            [-3.794097, 37.76298],
            [-3.794102, 37.762568],
            [-3.793786, 37.762577],
            [-3.793275, 37.762154],
            [-3.792316, 37.762153],
            [-3.792317, 37.762157],
            [-3.791378, 37.762146],
            [-3.791905, 37.762819],
            [-3.792278, 37.763206],
            [-3.791951, 37.763397],
            [-3.791151, 37.764136],
            [-3.790635, 37.764413]
          ]
        ]
      }
    },
    {
      "type": "Feature",
      "properties": {
        "id": "la-victoria",
        "name": "La Victoria",
        "cityId": "jaen"
      },
      "geometry": {
        "type": "Polygon",
        "coordinates": [
          [
            [-3.786782, 37.769192],
            [-3.786811, 37.769198],
            [-3.786576, 37.770714],
            [-3.786531, 37.770719],
            [-3.786507, 37.770868],
            [-3.78575, 37.775494],
            [-3.785347, 37.777872],
            [-3.785017, 37.77982],
            [-3.785725, 37.779443],
            [-3.786912, 37.779227],
            [-3.78815, 37.779427],
            [-3.789345, 37.77991],
            [-3.789777, 37.780027],
            [-3.789216, 37.776423],
            [-3.789532, 37.776447],
            [-3.790772, 37.777138],
            [-3.79081, 37.777075],
            [-3.791151, 37.777099],
            [-3.79181, 37.775854],
            [-3.791938, 37.774441],
            [-3.793128, 37.774709],
            [-3.793598, 37.774689],
            [-3.794333, 37.774587],
            [-3.794906, 37.774583],
            [-3.795375, 37.774466],
            [-3.7957, 37.774172],
            [-3.796165, 37.773665],
            [-3.796392, 37.773448],
            [-3.796219, 37.773421],
            [-3.795392, 37.773575],
            [-3.795058, 37.773625],
            [-3.794778, 37.773614],
            [-3.794465, 37.773546],
            [-3.794078, 37.773309],
            [-3.793835, 37.773128],
            [-3.793436, 37.772748],
            [-3.792708, 37.772391],
            [-3.792576, 37.772279],
            [-3.792237, 37.771994],
            [-3.791323, 37.77112],
            [-3.79104, 37.770813],
            [-3.790699, 37.770201],
            [-3.790672, 37.770132],
            [-3.789564, 37.770478],
            [-3.789274, 37.770841],
            [-3.788417, 37.770636],
            [-3.788416, 37.770636],
            [-3.78802, 37.768022],
            [-3.788242, 37.767711],
            [-3.787411, 37.767665],
            [-3.787401, 37.767665],
            [-3.786894, 37.768603],
            [-3.786782, 37.769192]
          ]
        ]
      }
    },
    {
      "type": "Feature",
      "properties": {
        "id": "las-fuentezuelas",
        "name": "Las Fuentezuelas",
        "cityId": "jaen"
      },
      "geometry": {
        "type": "Polygon",
        "coordinates": [
          [
            [-3.8137, 37.778989],
            [-3.81369, 37.778916],
            [-3.812847, 37.778613],
            [-3.812475, 37.778352],
            [-3.812369, 37.778299],
            [-3.812294, 37.778252],
            [-3.81215, 37.778176],
            [-3.812082, 37.778128],
            [-3.812074, 37.778069],
            [-3.81202, 37.777998],
            [-3.81202, 37.777944],
            [-3.812012, 37.777896],
            [-3.812004, 37.777843],
            [-3.811965, 37.777784],
            [-3.81192, 37.777724],
            [-3.811912, 37.777694],
            [-3.811889, 37.777641],
            [-3.811835, 37.777576],
            [-3.811775, 37.77754],
            [-3.811796, 37.777373],
            [-3.81175, 37.777338],
            [-3.811667, 37.777291],
            [-3.8116, 37.777297],
            [-3.81154, 37.777298],
            [-3.811266, 37.777735],
            [-3.811109, 37.777736],
            [-3.81089, 37.777696],
            [-3.810574, 37.777632],
            [-3.810108, 37.777558],
            [-3.81011, 37.777725],
            [-3.811141, 37.778138],
            [-3.811121, 37.778165],
            [-3.811054, 37.778219],
            [-3.811009, 37.778219],
            [-3.810964, 37.778261],
            [-3.811003, 37.778362],
            [-3.811101, 37.778374],
            [-3.810932, 37.77875],
            [-3.810075, 37.778691],
            [-3.810037, 37.778619],
            [-3.810021, 37.778572],
            [-3.810013, 37.778477],
            [-3.80996, 37.778453],
            [-3.80984, 37.778454],
            [-3.809765, 37.778466],
            [-3.809765, 37.778508],
            [-3.808615, 37.778397],
            [-3.808569, 37.778361],
            [-3.808442, 37.778362],
            [-3.80836, 37.778434],
            [-3.808277, 37.778411],
            [-3.808201, 37.778382],
            [-3.808193, 37.778379],
            [-3.808574, 37.778647],
            [-3.801838, 37.778125],
            [-3.801841, 37.778129],
            [-3.804165, 37.781804],
            [-3.804641, 37.781876],
            [-3.805274, 37.781997],
            [-3.80605, 37.782283],
            [-3.807072, 37.782998],
            [-3.808202, 37.78398],
            [-3.809036, 37.784666],
            [-3.809119, 37.784713],
            [-3.809541, 37.784853],
            [-3.809745, 37.784929],
            [-3.809949, 37.785005],
            [-3.810092, 37.78504],
            [-3.811153, 37.785241],
            [-3.811687, 37.785303],
            [-3.811965, 37.785319],
            [-3.811973, 37.785283],
            [-3.812172, 37.785318],
            [-3.812672, 37.785048],
            [-3.814968, 37.7841],
            [-3.816516, 37.783823],
            [-3.81792, 37.783697],
            [-3.819576, 37.783702],
            [-3.821066, 37.783808],
            [-3.821946, 37.783752],
            [-3.822426, 37.783599],
            [-3.822926, 37.783313],
            [-3.82307, 37.783062],
            [-3.823025, 37.782746],
            [-3.822895, 37.782381],
            [-3.822076, 37.782254],
            [-3.821275, 37.781843],
            [-3.8206, 37.781515],
            [-3.820129, 37.781317],
            [-3.81997, 37.781633],
            [-3.819778, 37.78192],
            [-3.820116, 37.781936],
            [-3.820112, 37.782306],
            [-3.819789, 37.782302],
            [-3.819756, 37.782684],
            [-3.818561, 37.78265],
            [-3.816141, 37.782542],
            [-3.816043, 37.782513],
            [-3.815698, 37.782491],
            [-3.815517, 37.782475],
            [-3.815344, 37.78247],
            [-3.815217, 37.782471],
            [-3.815149, 37.782471],
            [-3.815029, 37.782502],
            [-3.81497, 37.782544],
            [-3.814872, 37.782533],
            [-3.814827, 37.782515],
            [-3.814635, 37.78255],
            [-3.810399, 37.778992],
            [-3.811069, 37.779081],
            [-3.81098, 37.779054],
            [-3.81098, 37.779012],
            [-3.81128, 37.779022],
            [-3.812236, 37.779171],
            [-3.8125, 37.779234],
            [-3.812687, 37.779233],
            [-3.81283, 37.77922],
            [-3.812972, 37.779207],
            [-3.813092, 37.779159],
            [-3.813294, 37.779116],
            [-3.813512, 37.779108],
            [-3.813715, 37.779113],
            [-3.8137, 37.778989]
          ]
        ]
      }
    },
    {
      "type": "Feature",
      "properties": {
        "id": "penamefecit-estacion",
        "name": "Peñamefecit-Estación",
        "cityId": "jaen"
      },
      "geometry": {
        "type": "Polygon",
        "coordinates": [
          [
            [-3.789777, 37.780027],
            [-3.789903, 37.780061],
            [-3.789912, 37.780121],
            [-3.794834, 37.781241],
            [-3.794334, 37.781771],
            [-3.794387, 37.781796],
            [-3.794448, 37.781856],
            [-3.794335, 37.78253],
            [-3.794254, 37.782697],
            [-3.794195, 37.782829],
            [-3.79413, 37.782984],
            [-3.794101, 37.783098],
            [-3.794095, 37.783223],
            [-3.794013, 37.783325],
            [-3.793917, 37.783469],
            [-3.794174, 37.783622],
            [-3.79419, 37.783753],
            [-3.79486, 37.783844],
            [-3.794971, 37.783718],
            [-3.795054, 37.783014],
            [-3.795265, 37.783108],
            [-3.795336, 37.78272],
            [-3.795947, 37.782831],
            [-3.795986, 37.783128],
            [-3.795957, 37.783317],
            [-3.795921, 37.783306],
            [-3.795809, 37.784124],
            [-3.795804, 37.78432],
            [-3.795868, 37.784678],
            [-3.795892, 37.784815],
            [-3.796006, 37.784945],
            [-3.796082, 37.785052],
            [-3.796158, 37.785123],
            [-3.796233, 37.785146],
            [-3.796339, 37.785163],
            [-3.796444, 37.785163],
            [-3.796549, 37.785126],
            [-3.796562, 37.785001],
            [-3.796918, 37.783962],
            [-3.796923, 37.783958],
            [-3.796931, 37.783922],
            [-3.796948, 37.783872],
            [-3.796943, 37.78387],
            [-3.797093, 37.783197],
            [-3.797194, 37.782946],
            [-3.795942, 37.782489],
            [-3.795911, 37.78237],
            [-3.795857, 37.782269],
            [-3.795826, 37.782174],
            [-3.795719, 37.782014],
            [-3.796021, 37.782113],
            [-3.796299, 37.782159],
            [-3.79746, 37.782568],
            [-3.797814, 37.781904],
            [-3.797855, 37.7816],
            [-3.798043, 37.781599],
            [-3.798126, 37.781592],
            [-3.798223, 37.781586],
            [-3.798366, 37.781579],
            [-3.798569, 37.781571],
            [-3.798704, 37.781558],
            [-3.798997, 37.781545],
            [-3.799906, 37.781556],
            [-3.802236, 37.781713],
            [-3.803957, 37.781773],
            [-3.804165, 37.781804],
            [-3.801841, 37.778129],
            [-3.791128, 37.777142],
            [-3.791151, 37.777099],
            [-3.79081, 37.777075],
            [-3.790772, 37.777138],
            [-3.789532, 37.776447],
            [-3.789216, 37.776423],
            [-3.789777, 37.780027]
          ]
        ]
      }
    },
    {
      "type": "Feature",
      "properties": {
        "id": "poligono-los-olivares",
        "name": "Polígono los Olivares",
        "cityId": "jaen"
      },
      "geometry": {
        "type": "Polygon",
        "coordinates": [
          [
            [-3.780359, 37.792208],
            [-3.780364, 37.792231],
            [-3.780275, 37.792759],
            [-3.780224, 37.792819],
            [-3.780112, 37.792903],
            [-3.778809, 37.792649],
            [-3.778704, 37.792656],
            [-3.778652, 37.792716],
            [-3.778661, 37.792787],
            [-3.778759, 37.792834],
            [-3.779158, 37.792921],
            [-3.779019, 37.793316],
            [-3.778847, 37.793347],
            [-3.778206, 37.793106],
            [-3.777851, 37.79293],
            [-3.777473, 37.793451],
            [-3.777446, 37.793563],
            [-3.776994, 37.793579],
            [-3.776753, 37.793527],
            [-3.776709, 37.7937],
            [-3.776837, 37.793729],
            [-3.776444, 37.794161],
            [-3.775786, 37.794499],
            [-3.775412, 37.795342],
            [-3.775449, 37.79536],
            [-3.77545, 37.79539],
            [-3.776113, 37.79557],
            [-3.77625, 37.79579],
            [-3.776883, 37.796644],
            [-3.776982, 37.796787],
            [-3.777072, 37.796816],
            [-3.778686, 37.796912],
            [-3.778637, 37.797617],
            [-3.778653, 37.797621],
            [-3.778608, 37.79776],
            [-3.778342, 37.798948],
            [-3.777799, 37.801664],
            [-3.777892, 37.801932],
            [-3.778022, 37.802133],
            [-3.778137, 37.802341],
            [-3.778189, 37.802317],
            [-3.778357, 37.802549],
            [-3.778692, 37.802922],
            [-3.779078, 37.803247],
            [-3.77905, 37.803414],
            [-3.778579, 37.805212],
            [-3.779405, 37.805087],
            [-3.77951, 37.80511],
            [-3.77999, 37.805035],
            [-3.780156, 37.80504],
            [-3.780179, 37.805076],
            [-3.780291, 37.805045],
            [-3.780358, 37.804997],
            [-3.780455, 37.804913],
            [-3.780507, 37.804847],
            [-3.780633, 37.804751],
            [-3.780739, 37.804738],
            [-3.780926, 37.804737],
            [-3.780949, 37.804737],
            [-3.781061, 37.804724],
            [-3.781159, 37.804706],
            [-3.781249, 37.804681],
            [-3.781474, 37.80465],
            [-3.781557, 37.804655],
            [-3.78164, 37.804691],
            [-3.781708, 37.804714],
            [-3.781827, 37.804689],
            [-3.78191, 37.804671],
            [-3.782037, 37.804652],
            [-3.782172, 37.804615],
            [-3.782397, 37.804572],
            [-3.78254, 37.804565],
            [-3.782735, 37.804546],
            [-3.78284, 37.804545],
            [-3.782998, 37.804503],
            [-3.7832, 37.804454],
            [-3.783298, 37.804441],
            [-3.783395, 37.804423],
            [-3.783559, 37.804332],
            [-3.783679, 37.804254],
            [-3.783806, 37.804235],
            [-3.783972, 37.804234],
            [-3.784137, 37.804221],
            [-3.784377, 37.804201],
            [-3.784475, 37.804189],
            [-3.784579, 37.804117],
            [-3.784684, 37.804098],
            [-3.784729, 37.804056],
            [-3.784789, 37.804032],
            [-3.784856, 37.804031],
            [-3.784954, 37.804031],
            [-3.785036, 37.804012],
            [-3.785126, 37.80397],
            [-3.785193, 37.803952],
            [-3.785343, 37.803927],
            [-3.785418, 37.80389],
            [-3.785493, 37.803848],
            [-3.785627, 37.80377],
            [-3.785702, 37.80371],
            [-3.785784, 37.803667],
            [-3.785873, 37.803601],
            [-3.785956, 37.803571],
            [-3.786076, 37.803522],
            [-3.786165, 37.803474],
            [-3.786322, 37.803407],
            [-3.786449, 37.803353],
            [-3.786615, 37.80334],
            [-3.786742, 37.803339],
            [-3.786908, 37.803338],
            [-3.787244, 37.803187],
            [-3.787319, 37.803138],
            [-3.787348, 37.803049],
            [-3.787309, 37.802966],
            [-3.787361, 37.802912],
            [-3.787503, 37.802845],
            [-3.787705, 37.802754],
            [-3.787727, 37.802534],
            [-3.789025, 37.801673],
            [-3.78977, 37.801072],
            [-3.791318, 37.799708],
            [-3.792173, 37.798856],
            [-3.79258, 37.798251],
            [-3.792822, 37.797725],
            [-3.792967, 37.797229],
            [-3.793016, 37.796859],
            [-3.793027, 37.796525],
            [-3.793001, 37.796197],
            [-3.792636, 37.794766],
            [-3.792609, 37.794662],
            [-3.792393, 37.794146],
            [-3.792292, 37.79366],
            [-3.792081, 37.793116],
            [-3.791933, 37.792764],
            [-3.791915, 37.792717],
            [-3.791591, 37.791726],
            [-3.791527, 37.791726],
            [-3.780406, 37.791769],
            [-3.780368, 37.792117],
            [-3.780359, 37.792208]
          ]
        ]
      }
    },
    {
      "type": "Feature",
      "properties": {
        "id": "residencial-azahar",
        "name": "Residencial Azahar",
        "cityId": "jaen"
      },
      "geometry": {
        "type": "Polygon",
        "coordinates": [
          [
            [-3.8137, 37.778989],
            [-3.813715, 37.779113],
            [-3.813512, 37.779108],
            [-3.813294, 37.779116],
            [-3.813092, 37.779159],
            [-3.812972, 37.779207],
            [-3.81283, 37.77922],
            [-3.812687, 37.779233],
            [-3.8125, 37.779234],
            [-3.812236, 37.779171],
            [-3.81128, 37.779022],
            [-3.81098, 37.779012],
            [-3.81098, 37.779054],
            [-3.811069, 37.779081],
            [-3.810399, 37.778992],
            [-3.814635, 37.78255],
            [-3.814827, 37.782515],
            [-3.814872, 37.782533],
            [-3.81497, 37.782544],
            [-3.815029, 37.782502],
            [-3.815149, 37.782471],
            [-3.815217, 37.782471],
            [-3.815344, 37.78247],
            [-3.815517, 37.782475],
            [-3.815698, 37.782491],
            [-3.816043, 37.782513],
            [-3.816141, 37.782542],
            [-3.818561, 37.78265],
            [-3.819756, 37.782684],
            [-3.819789, 37.782302],
            [-3.820112, 37.782306],
            [-3.820116, 37.781936],
            [-3.819778, 37.78192],
            [-3.81997, 37.781633],
            [-3.820129, 37.781317],
            [-3.820139, 37.781298],
            [-3.820115, 37.781285],
            [-3.820269, 37.781154],
            [-3.820272, 37.781154],
            [-3.820399, 37.781093],
            [-3.820496, 37.781033],
            [-3.82057, 37.780907],
            [-3.820949, 37.780499],
            [-3.820828, 37.780417],
            [-3.820775, 37.780369],
            [-3.820684, 37.780322],
            [-3.820616, 37.780275],
            [-3.82057, 37.78024],
            [-3.820494, 37.780151],
            [-3.820433, 37.780092],
            [-3.818562, 37.779324],
            [-3.818434, 37.779313],
            [-3.818156, 37.779267],
            [-3.817566, 37.780386],
            [-3.815357, 37.779472],
            [-3.815685, 37.778804],
            [-3.816294, 37.778899],
            [-3.81587, 37.778436],
            [-3.816029, 37.777637],
            [-3.815358, 37.777658],
            [-3.814814, 37.777728],
            [-3.814627, 37.777912],
            [-3.8144, 37.778247],
            [-3.814423, 37.778413],
            [-3.81455, 37.778545],
            [-3.814595, 37.778778],
            [-3.814493, 37.779012],
            [-3.814243, 37.77918],
            [-3.8137, 37.778989]
          ]
        ]
      }
    },
    {
      "type": "Feature",
      "properties": {
        "id": "sagrada-familia-las-lagunillas",
        "name": "Sagrada Familia-Las Lagunillas",
        "cityId": "jaen"
      },
      "geometry": {
        "type": "Polygon",
        "coordinates": [
          [
            [-3.780406, 37.791769],
            [-3.780408, 37.791747],
            [-3.780519, 37.790992],
            [-3.781319, 37.790175],
            [-3.782047, 37.789245],
            [-3.78378, 37.784184],
            [-3.783459, 37.784055],
            [-3.783085, 37.783993],
            [-3.78276, 37.784069],
            [-3.780173, 37.785039],
            [-3.779521, 37.785108],
            [-3.77846, 37.785041],
            [-3.777237, 37.784966],
            [-3.776607, 37.784924],
            [-3.776165, 37.785004],
            [-3.776168, 37.785006],
            [-3.776041, 37.785076],
            [-3.775929, 37.785139],
            [-3.774457, 37.785882],
            [-3.773441, 37.785042],
            [-3.773106, 37.785312],
            [-3.773851, 37.786196],
            [-3.773844, 37.786237],
            [-3.773313, 37.786467],
            [-3.772917, 37.786619],
            [-3.772925, 37.786703],
            [-3.772994, 37.786827],
            [-3.773039, 37.786833],
            [-3.773085, 37.786856],
            [-3.77313, 37.786874],
            [-3.773145, 37.786934],
            [-3.773147, 37.787059],
            [-3.773155, 37.787166],
            [-3.773172, 37.787285],
            [-3.773188, 37.787374],
            [-3.773189, 37.787506],
            [-3.77319, 37.787625],
            [-3.773184, 37.787774],
            [-3.773185, 37.787857],
            [-3.773232, 37.788012],
            [-3.773316, 37.788131],
            [-3.773317, 37.788232],
            [-3.773325, 37.788298],
            [-3.773673, 37.788522],
            [-3.774352, 37.788869],
            [-3.775636, 37.789463],
            [-3.777657, 37.790248],
            [-3.778358, 37.790446],
            [-3.779308, 37.790786],
            [-3.779709, 37.79104],
            [-3.780026, 37.791336],
            [-3.780104, 37.79143],
            [-3.780173, 37.791567],
            [-3.780265, 37.791763],
            [-3.780305, 37.79196],
            [-3.780359, 37.792208],
            [-3.780368, 37.792117],
            [-3.780406, 37.791769]
          ]
        ]
      }
    },
    {
      "type": "Feature",
      "properties": {
        "id": "sagrario",
        "name": "Sagrario",
        "cityId": "jaen"
      },
      "geometry": {
        "type": "Polygon",
        "coordinates": [
          [
            [-3.787411, 37.767665],
            [-3.788242, 37.767711],
            [-3.788284, 37.767652],
            [-3.788642, 37.767791],
            [-3.788795, 37.767903],
            [-3.789047, 37.7681],
            [-3.789056, 37.768092],
            [-3.78929, 37.768332],
            [-3.789849, 37.768024],
            [-3.790763, 37.767664],
            [-3.790707, 37.767306],
            [-3.790702, 37.767208],
            [-3.790673, 37.766889],
            [-3.790646, 37.766843],
            [-3.791803, 37.766698],
            [-3.791808, 37.766507],
            [-3.791721, 37.766278],
            [-3.791461, 37.765894],
            [-3.79084, 37.765208],
            [-3.791027, 37.765112],
            [-3.790635, 37.764413],
            [-3.790572, 37.764446],
            [-3.789787, 37.764747],
            [-3.789216, 37.764886],
            [-3.788842, 37.764912],
            [-3.78883, 37.764913],
            [-3.788928, 37.765207],
            [-3.789399, 37.765768],
            [-3.787331, 37.766957],
            [-3.787411, 37.767665]
          ]
        ]
      }
    },
    {
      "type": "Feature",
      "properties": {
        "id": "san-andres",
        "name": "San Andrés",
        "cityId": "jaen"
      },
      "geometry": {
        "type": "Polygon",
        "coordinates": [
          [
            [-3.792576, 37.772279],
            [-3.792685, 37.772182],
            [-3.792917, 37.77211],
            [-3.792908, 37.771982],
            [-3.793654, 37.771786],
            [-3.79402, 37.772211],
            [-3.794056, 37.771828],
            [-3.793804, 37.771593],
            [-3.794203, 37.771227],
            [-3.794022, 37.770902],
            [-3.794182, 37.770786],
            [-3.794036, 37.770692],
            [-3.793988, 37.77073],
            [-3.793817, 37.770565],
            [-3.793824, 37.77056],
            [-3.793623, 37.77042],
            [-3.793521, 37.770266],
            [-3.793517, 37.770267],
            [-3.793376, 37.770083],
            [-3.79329, 37.770084],
            [-3.792749, 37.769972],
            [-3.792716, 37.769883],
            [-3.792426, 37.769841],
            [-3.792056, 37.769798],
            [-3.79162, 37.769642],
            [-3.790984, 37.769557],
            [-3.790767, 37.76959],
            [-3.790498, 37.769684],
            [-3.790672, 37.770132],
            [-3.790699, 37.770201],
            [-3.79104, 37.770813],
            [-3.791323, 37.77112],
            [-3.792237, 37.771994],
            [-3.792576, 37.772279]
          ]
        ]
      }
    },
    {
      "type": "Feature",
      "properties": {
        "id": "san-bartolome",
        "name": "San Bartolomé",
        "cityId": "jaen"
      },
      "geometry": {
        "type": "Polygon",
        "coordinates": [
          [
            [-3.790672, 37.770132],
            [-3.790498, 37.769684],
            [-3.790767, 37.76959],
            [-3.790984, 37.769557],
            [-3.79162, 37.769642],
            [-3.792056, 37.769798],
            [-3.792426, 37.769841],
            [-3.792716, 37.769883],
            [-3.792749, 37.769972],
            [-3.79329, 37.770084],
            [-3.793376, 37.770083],
            [-3.793386, 37.770083],
            [-3.79321, 37.769401],
            [-3.792965, 37.769103],
            [-3.792462, 37.768678],
            [-3.792242, 37.768361],
            [-3.792151, 37.768144],
            [-3.792026, 37.767698],
            [-3.791813, 37.767336],
            [-3.791777, 37.767049],
            [-3.791812, 37.766918],
            [-3.791796, 37.76694],
            [-3.791803, 37.766698],
            [-3.790646, 37.766843],
            [-3.790673, 37.766889],
            [-3.790702, 37.767208],
            [-3.790707, 37.767306],
            [-3.790763, 37.767664],
            [-3.789849, 37.768024],
            [-3.78929, 37.768332],
            [-3.789056, 37.768092],
            [-3.789047, 37.7681],
            [-3.788795, 37.767903],
            [-3.788642, 37.767791],
            [-3.788284, 37.767652],
            [-3.788242, 37.767711],
            [-3.78802, 37.768022],
            [-3.788416, 37.770636],
            [-3.788417, 37.770636],
            [-3.789274, 37.770841],
            [-3.789564, 37.770478],
            [-3.790672, 37.770132]
          ]
        ]
      }
    },
    {
      "type": "Feature",
      "properties": {
        "id": "san-felipe",
        "name": "San Felipe",
        "cityId": "jaen"
      },
      "geometry": {
        "type": "Polygon",
        "coordinates": [
          [
            [-3.795533, 37.761993],
            [-3.795654, 37.762091],
            [-3.795785, 37.76215],
            [-3.796128, 37.762451],
            [-3.796216, 37.762462],
            [-3.796374, 37.762473],
            [-3.796449, 37.76252],
            [-3.796548, 37.762597],
            [-3.796661, 37.762698],
            [-3.796721, 37.762667],
            [-3.796767, 37.762709],
            [-3.796782, 37.762768],
            [-3.796926, 37.762863],
            [-3.796926, 37.76291],
            [-3.79692, 37.76297],
            [-3.796882, 37.763012],
            [-3.79686, 37.76306],
            [-3.796891, 37.763119],
            [-3.796952, 37.763167],
            [-3.797057, 37.76322],
            [-3.79714, 37.763255],
            [-3.797194, 37.76335],
            [-3.797301, 37.763492],
            [-3.797302, 37.763494],
            [-3.797293, 37.763378],
            [-3.797339, 37.76325],
            [-3.797518, 37.763149],
            [-3.797936, 37.763089],
            [-3.79864, 37.762994],
            [-3.799236, 37.762795],
            [-3.800023, 37.762581],
            [-3.800346, 37.762579],
            [-3.800777, 37.76258],
            [-3.800991, 37.762484],
            [-3.801067, 37.762317],
            [-3.800993, 37.762057],
            [-3.800963, 37.761976],
            [-3.800911, 37.761935],
            [-3.800881, 37.761906],
            [-3.800828, 37.761853],
            [-3.800782, 37.761805],
            [-3.800729, 37.76174],
            [-3.800683, 37.761675],
            [-3.800598, 37.761425],
            [-3.800489, 37.761128],
            [-3.800436, 37.761015],
            [-3.800405, 37.760991],
            [-3.800352, 37.76095],
            [-3.800307, 37.760914],
            [-3.800231, 37.760873],
            [-3.800096, 37.760838],
            [-3.799885, 37.760828],
            [-3.799577, 37.760752],
            [-3.799298, 37.760671],
            [-3.799199, 37.760588],
            [-3.799108, 37.760511],
            [-3.799063, 37.76044],
            [-3.798942, 37.760369],
            [-3.798798, 37.760281],
            [-3.798632, 37.760216],
            [-3.798489, 37.760157],
            [-3.798293, 37.760135],
            [-3.798106, 37.760154],
            [-3.797911, 37.760197],
            [-3.797777, 37.760258],
            [-3.797665, 37.760324],
            [-3.797598, 37.760384],
            [-3.797531, 37.760456],
            [-3.797441, 37.760538],
            [-3.797373, 37.760661],
            [-3.797055, 37.760774],
            [-3.796215, 37.760952],
            [-3.795374, 37.760978],
            [-3.794823, 37.760789],
            [-3.794209, 37.760611],
            [-3.794056, 37.760663],
            [-3.794063, 37.760669],
            [-3.795279, 37.761647],
            [-3.79555, 37.761949],
            [-3.795533, 37.761993]
          ]
        ]
      }
    },
    {
      "type": "Feature",
      "properties": {
        "id": "san-felix-el-recinto",
        "name": "San Felix-El Recinto",
        "cityId": "jaen"
      },
      "geometry": {
        "type": "Polygon",
        "coordinates": [
          [
            [-3.789058, 37.762239],
            [-3.78909, 37.762144],
            [-3.789219, 37.762033],
            [-3.78907, 37.761905],
            [-3.78906, 37.761731],
            [-3.789243, 37.76135],
            [-3.789593, 37.760711],
            [-3.78947, 37.760622],
            [-3.789458, 37.760255],
            [-3.789504, 37.759965],
            [-3.789648, 37.759809],
            [-3.789785, 37.759527],
            [-3.789771, 37.759531],
            [-3.789336, 37.759534],
            [-3.789208, 37.75954],
            [-3.789096, 37.759547],
            [-3.788886, 37.75956],
            [-3.788781, 37.759567],
            [-3.788676, 37.759627],
            [-3.788587, 37.759688],
            [-3.788505, 37.75976],
            [-3.788438, 37.759826],
            [-3.788356, 37.759892],
            [-3.78805, 37.760055],
            [-3.787989, 37.760008],
            [-3.787638, 37.760201],
            [-3.787889, 37.76079],
            [-3.787202, 37.760818],
            [-3.78673, 37.760928],
            [-3.786363, 37.761068],
            [-3.78605, 37.761255],
            [-3.785865, 37.761476],
            [-3.785725, 37.761734],
            [-3.785682, 37.761937],
            [-3.785698, 37.762068],
            [-3.785737, 37.762193],
            [-3.785828, 37.762293],
            [-3.785942, 37.762382],
            [-3.786017, 37.762405],
            [-3.7861, 37.762447],
            [-3.786168, 37.762476],
            [-3.786274, 37.762523],
            [-3.786401, 37.76254],
            [-3.786582, 37.762563],
            [-3.78657, 37.762849],
            [-3.787262, 37.76294],
            [-3.787249, 37.762944],
            [-3.787522, 37.762927],
            [-3.787898, 37.762769],
            [-3.788618, 37.76235],
            [-3.789058, 37.762239]
          ]
        ]
      }
    },
    {
      "type": "Feature",
      "properties": {
        "id": "san-ildefonso-la-alameda",
        "name": "San Ildefonso-La Alameda",
        "cityId": "jaen"
      },
      "geometry": {
        "type": "Polygon",
        "coordinates": [
          [
            [-3.787249, 37.762944],
            [-3.786244, 37.76331],
            [-3.786298, 37.763453],
            [-3.786337, 37.763518],
            [-3.786367, 37.763578],
            [-3.786398, 37.763679],
            [-3.786392, 37.76375],
            [-3.786355, 37.763816],
            [-3.786288, 37.763882],
            [-3.786244, 37.763936],
            [-3.786177, 37.764008],
            [-3.786117, 37.76405],
            [-3.785997, 37.764099],
            [-3.785915, 37.764099],
            [-3.785809, 37.764076],
            [-3.785709, 37.764512],
            [-3.785554, 37.764746],
            [-3.785153, 37.765177],
            [-3.784982, 37.765363],
            [-3.7849, 37.765388],
            [-3.784825, 37.765406],
            [-3.784757, 37.765442],
            [-3.784705, 37.765496],
            [-3.784654, 37.765586],
            [-3.783406, 37.765433],
            [-3.783232, 37.765369],
            [-3.783291, 37.765249],
            [-3.78308, 37.765191],
            [-3.782991, 37.765299],
            [-3.782826, 37.765306],
            [-3.782542, 37.765427],
            [-3.782452, 37.765493],
            [-3.782333, 37.765542],
            [-3.782296, 37.765572],
            [-3.781958, 37.765574],
            [-3.781679, 37.765469],
            [-3.78106, 37.765223],
            [-3.781009, 37.765348],
            [-3.780836, 37.765302],
            [-3.780648, 37.765315],
            [-3.780423, 37.765316],
            [-3.78031, 37.765281],
            [-3.780188, 37.765145],
            [-3.780128, 37.765169],
            [-3.779934, 37.76526],
            [-3.779881, 37.765218],
            [-3.779732, 37.765309],
            [-3.779869, 37.765469],
            [-3.779803, 37.765654],
            [-3.779564, 37.765787],
            [-3.779437, 37.765877],
            [-3.779348, 37.765919],
            [-3.779266, 37.765968],
            [-3.779168, 37.765998],
            [-3.77815, 37.766237],
            [-3.778365, 37.766689],
            [-3.779585, 37.766299],
            [-3.779764, 37.766295],
            [-3.779795, 37.766358],
            [-3.779856, 37.766417],
            [-3.779955, 37.766488],
            [-3.780083, 37.766558],
            [-3.780083, 37.766559],
            [-3.778928, 37.766956],
            [-3.778628, 37.767025],
            [-3.778563, 37.767004],
            [-3.778231, 37.766875],
            [-3.778081, 37.766816],
            [-3.777449, 37.76679],
            [-3.777329, 37.766773],
            [-3.777171, 37.766721],
            [-3.77696, 37.766639],
            [-3.776854, 37.76658],
            [-3.776778, 37.766533],
            [-3.776665, 37.766462],
            [-3.776597, 37.766421],
            [-3.776484, 37.766356],
            [-3.776416, 37.76632],
            [-3.776333, 37.766291],
            [-3.776616, 37.76614],
            [-3.77678, 37.766008],
            [-3.776712, 37.765979],
            [-3.776921, 37.765846],
            [-3.776679, 37.765651],
            [-3.776611, 37.765616],
            [-3.776566, 37.765592],
            [-3.776535, 37.765574],
            [-3.776483, 37.765557],
            [-3.776437, 37.765539],
            [-3.776354, 37.765462],
            [-3.776108, 37.765589],
            [-3.776224, 37.765254],
            [-3.776194, 37.765219],
            [-3.776141, 37.765166],
            [-3.776095, 37.76513],
            [-3.776058, 37.765113],
            [-3.776028, 37.765113],
            [-3.775975, 37.765119],
            [-3.775916, 37.765203],
            [-3.775668, 37.765175],
            [-3.77562, 37.765176],
            [-3.77538, 37.764986],
            [-3.775544, 37.764836],
            [-3.775356, 37.764837],
            [-3.775206, 37.764802],
            [-3.775138, 37.764749],
            [-3.775092, 37.764702],
            [-3.775046, 37.76466],
            [-3.775009, 37.764619],
            [-3.775008, 37.764553],
            [-3.775015, 37.764511],
            [-3.775022, 37.764452],
            [-3.775029, 37.764392],
            [-3.775028, 37.764374],
            [-3.775065, 37.764296],
            [-3.775072, 37.764237],
            [-3.775049, 37.764165],
            [-3.775041, 37.764124],
            [-3.775032, 37.764028],
            [-3.77478, 37.763943],
            [-3.774675, 37.764059],
            [-3.77458, 37.764229],
            [-3.774227, 37.764685],
            [-3.774095, 37.764809],
            [-3.773952, 37.764933],
            [-3.773932, 37.765094],
            [-3.773766, 37.765154],
            [-3.773553, 37.76467],
            [-3.773497, 37.764559],
            [-3.77305, 37.764444],
            [-3.772915, 37.764431],
            [-3.772723, 37.764401],
            [-3.772641, 37.764455],
            [-3.772582, 37.764521],
            [-3.772416, 37.764463],
            [-3.772312, 37.764601],
            [-3.772538, 37.764671],
            [-3.772625, 37.764731],
            [-3.772644, 37.764944],
            [-3.772764, 37.765176],
            [-3.772216, 37.764802],
            [-3.771831, 37.764584],
            [-3.77165, 37.764514],
            [-3.771198, 37.76438],
            [-3.770497, 37.764134],
            [-3.77038, 37.764105],
            [-3.770331, 37.764093],
            [-3.769814, 37.76421],
            [-3.769581, 37.764211],
            [-3.769289, 37.764213],
            [-3.768853, 37.764234],
            [-3.768448, 37.764249],
            [-3.768298, 37.76425],
            [-3.7682, 37.764226],
            [-3.768071, 37.764162],
            [-3.767988, 37.764108],
            [-3.767815, 37.764092],
            [-3.767612, 37.764075],
            [-3.767485, 37.764064],
            [-3.767343, 37.764154],
            [-3.767215, 37.764155],
            [-3.76717, 37.764156],
            [-3.767035, 37.764156],
            [-3.766862, 37.764158],
            [-3.766675, 37.764153],
            [-3.766479, 37.764154],
            [-3.766337, 37.764155],
            [-3.766156, 37.764156],
            [-3.765999, 37.764193],
            [-3.765842, 37.76423],
            [-3.76567, 37.76432],
            [-3.765528, 37.764387],
            [-3.765401, 37.764441],
            [-3.765326, 37.764472],
            [-3.765282, 37.764573],
            [-3.765291, 37.764728],
            [-3.765405, 37.764799],
            [-3.765435, 37.764858],
            [-3.765398, 37.764936],
            [-3.765301, 37.764984],
            [-3.765219, 37.765003],
            [-3.765152, 37.765063],
            [-3.765205, 37.76514],
            [-3.765274, 37.765265],
            [-3.7652, 37.765367],
            [-3.765088, 37.765427],
            [-3.764961, 37.765464],
            [-3.764863, 37.765464],
            [-3.764743, 37.765429],
            [-3.764578, 37.765478],
            [-3.764504, 37.765568],
            [-3.764557, 37.765645],
            [-3.764595, 37.765722],
            [-3.764528, 37.765764],
            [-3.764439, 37.765813],
            [-3.764356, 37.765813],
            [-3.764244, 37.765856],
            [-3.764162, 37.765946],
            [-3.764133, 37.766035],
            [-3.764059, 37.766149],
            [-3.76388, 37.766228],
            [-3.763708, 37.766288],
            [-3.763557, 37.766295],
            [-3.763445, 37.76632],
            [-3.763476, 37.766361],
            [-3.763461, 37.766409],
            [-3.763424, 37.766451],
            [-3.763364, 37.766475],
            [-3.763297, 37.766488],
            [-3.763267, 37.7665],
            [-3.76326, 37.766589],
            [-3.763268, 37.766673],
            [-3.763284, 37.766738],
            [-3.76333, 37.766804],
            [-3.763428, 37.766851],
            [-3.763473, 37.76688],
            [-3.763504, 37.766969],
            [-3.763498, 37.767047],
            [-3.763498, 37.767113],
            [-3.763439, 37.767196],
            [-3.763349, 37.767185],
            [-3.763258, 37.767132],
            [-3.763198, 37.767103],
            [-3.763115, 37.767055],
            [-3.762964, 37.767003],
            [-3.762912, 37.767069],
            [-3.762822, 37.767087],
            [-3.762762, 37.767123],
            [-3.762763, 37.767219],
            [-3.762756, 37.767278],
            [-3.762727, 37.767326],
            [-3.762682, 37.767368],
            [-3.762675, 37.767428],
            [-3.762684, 37.767535],
            [-3.762693, 37.767642],
            [-3.762731, 37.767708],
            [-3.762784, 37.767791],
            [-3.762808, 37.767868],
            [-3.762876, 37.767945],
            [-3.762921, 37.767951],
            [-3.762974, 37.767957],
            [-3.762989, 37.767986],
            [-3.762944, 37.768016],
            [-3.762922, 37.768046],
            [-3.762953, 37.76813],
            [-3.763014, 37.768225],
            [-3.763105, 37.768278],
            [-3.763233, 37.768307],
            [-3.763344, 37.768205],
            [-3.763404, 37.768168],
            [-3.763524, 37.768156],
            [-3.763704, 37.768125],
            [-3.763838, 37.768052],
            [-3.764115, 37.767913],
            [-3.764392, 37.767882],
            [-3.764475, 37.767857],
            [-3.764549, 37.767773],
            [-3.764616, 37.767707],
            [-3.764713, 37.767647],
            [-3.764765, 37.767611],
            [-3.764764, 37.76754],
            [-3.764696, 37.767445],
            [-3.76483, 37.767336],
            [-3.76573, 37.767187],
            [-3.765962, 37.76712],
            [-3.766201, 37.767065],
            [-3.766359, 37.767022],
            [-3.766493, 37.766974],
            [-3.766575, 37.76692],
            [-3.766657, 37.766865],
            [-3.766694, 37.766776],
            [-3.766829, 37.766703],
            [-3.766948, 37.766637],
            [-3.767015, 37.766595],
            [-3.767127, 37.766535],
            [-3.767179, 37.766475],
            [-3.767239, 37.766432],
            [-3.767321, 37.76636],
            [-3.767395, 37.766318],
            [-3.767544, 37.766204],
            [-3.7677, 37.766054],
            [-3.768036, 37.765795],
            [-3.768154, 37.765645],
            [-3.768384, 37.76534],
            [-3.768625, 37.765398],
            [-3.768706, 37.765284],
            [-3.76845, 37.765184],
            [-3.76845, 37.765137],
            [-3.768456, 37.765059],
            [-3.76847, 37.764982],
            [-3.768485, 37.764916],
            [-3.768529, 37.764838],
            [-3.768589, 37.76479],
            [-3.768671, 37.76476],
            [-3.768769, 37.764765],
            [-3.768816, 37.764973],
            [-3.768966, 37.76499],
            [-3.769492, 37.765018],
            [-3.769555, 37.765021],
            [-3.770347, 37.765053],
            [-3.770395, 37.765176],
            [-3.770674, 37.765198],
            [-3.770633, 37.765704],
            [-3.770666, 37.765852],
            [-3.770869, 37.765974],
            [-3.771088, 37.76612],
            [-3.771549, 37.766263],
            [-3.77179, 37.766393],
            [-3.771971, 37.766445],
            [-3.772152, 37.766491],
            [-3.772415, 37.766496],
            [-3.77282, 37.766517],
            [-3.773039, 37.766551],
            [-3.773452, 37.76662],
            [-3.773716, 37.766678],
            [-3.774054, 37.766723],
            [-3.774317, 37.76671],
            [-3.774416, 37.76681],
            [-3.774499, 37.766905],
            [-3.774567, 37.766964],
            [-3.774598, 37.766987],
            [-3.774462, 37.767067],
            [-3.774141, 37.767314],
            [-3.773889, 37.767584],
            [-3.773068, 37.768776],
            [-3.77192, 37.770363],
            [-3.771594, 37.770794],
            [-3.771529, 37.771021],
            [-3.771485, 37.771177],
            [-3.771495, 37.771332],
            [-3.771489, 37.771504],
            [-3.771506, 37.771665],
            [-3.771522, 37.771796],
            [-3.771523, 37.771927],
            [-3.771502, 37.772071],
            [-3.771411, 37.772244],
            [-3.771277, 37.772358],
            [-3.771165, 37.772436],
            [-3.771112, 37.772329],
            [-3.770995, 37.771889],
            [-3.770725, 37.771926],
            [-3.770816, 37.772099],
            [-3.770929, 37.772116],
            [-3.770977, 37.77233],
            [-3.770924, 37.772342],
            [-3.770795, 37.772224],
            [-3.770721, 37.772278],
            [-3.770752, 37.772373],
            [-3.770684, 37.772409],
            [-3.770769, 37.772564],
            [-3.770177, 37.772687],
            [-3.770116, 37.772616],
            [-3.770181, 37.772389],
            [-3.769693, 37.772422],
            [-3.769685, 37.772392],
            [-3.769684, 37.772297],
            [-3.7696, 37.772083],
            [-3.769523, 37.771964],
            [-3.769478, 37.771928],
            [-3.769418, 37.771911],
            [-3.76926, 37.771912],
            [-3.769125, 37.771955],
            [-3.769057, 37.771955],
            [-3.768885, 37.771974],
            [-3.769048, 37.772521],
            [-3.769163, 37.772753],
            [-3.769232, 37.77289],
            [-3.769226, 37.773045],
            [-3.76925, 37.77317],
            [-3.769296, 37.773259],
            [-3.768665, 37.773609],
            [-3.768653, 37.773549],
            [-3.768622, 37.77346],
            [-3.768592, 37.773377],
            [-3.768544, 37.773181],
            [-3.767935, 37.773275],
            [-3.767899, 37.773227],
            [-3.767621, 37.772519],
            [-3.766938, 37.772541],
            [-3.765753, 37.772728],
            [-3.765865, 37.773323],
            [-3.76588, 37.773383],
            [-3.765888, 37.773418],
            [-3.765896, 37.773484],
            [-3.765913, 37.773633],
            [-3.766266, 37.773613],
            [-3.766319, 37.773648],
            [-3.766319, 37.773702],
            [-3.766259, 37.773726],
            [-3.765967, 37.773794],
            [-3.765878, 37.773866],
            [-3.765954, 37.773943],
            [-3.765984, 37.773954],
            [-3.766074, 37.774001],
            [-3.766203, 37.77406],
            [-3.766459, 37.77416],
            [-3.766707, 37.774212],
            [-3.76679, 37.774223],
            [-3.766835, 37.774247],
            [-3.766836, 37.774301],
            [-3.766807, 37.774396],
            [-3.766224, 37.774656],
            [-3.766097, 37.774723],
            [-3.76597, 37.774843],
            [-3.765941, 37.774926],
            [-3.765943, 37.775087],
            [-3.765989, 37.7752],
            [-3.766103, 37.775349],
            [-3.76621, 37.775473],
            [-3.767523, 37.776788],
            [-3.767873, 37.776559],
            [-3.768033, 37.776719],
            [-3.768205, 37.776676],
            [-3.768392, 37.776592],
            [-3.768587, 37.776549],
            [-3.768713, 37.776446],
            [-3.768841, 37.776446],
            [-3.768953, 37.776391],
            [-3.769185, 37.776265],
            [-3.769334, 37.776198],
            [-3.769439, 37.776156],
            [-3.769573, 37.776083],
            [-3.769633, 37.776011],
            [-3.769677, 37.775933],
            [-3.769714, 37.775891],
            [-3.769759, 37.775849],
            [-3.769848, 37.775801],
            [-3.769946, 37.775789],
            [-3.770051, 37.775788],
            [-3.770238, 37.775721],
            [-3.770373, 37.775661],
            [-3.770433, 37.775636],
            [-3.770492, 37.775582],
            [-3.770559, 37.775528],
            [-3.770581, 37.775468],
            [-3.770618, 37.775421],
            [-3.770939, 37.775257],
            [-3.771016, 37.775382],
            [-3.7711, 37.775519],
            [-3.771221, 37.775637],
            [-3.771335, 37.77575],
            [-3.771411, 37.775857],
            [-3.77148, 37.775922],
            [-3.771547, 37.775927],
            [-3.771608, 37.775974],
            [-3.771668, 37.775986],
            [-3.773364, 37.775122],
            [-3.772762, 37.774875],
            [-3.77276, 37.774852],
            [-3.772471, 37.77449],
            [-3.77222, 37.774188],
            [-3.772121, 37.774004],
            [-3.771892, 37.773689],
            [-3.771839, 37.77366],
            [-3.771898, 37.773546],
            [-3.772002, 37.773474],
            [-3.77213, 37.773425],
            [-3.772197, 37.773383],
            [-3.772272, 37.773383],
            [-3.772399, 37.773376],
            [-3.772467, 37.773352],
            [-3.77252, 37.773411],
            [-3.772752, 37.773326],
            [-3.772759, 37.773296],
            [-3.772819, 37.773296],
            [-3.772894, 37.773247],
            [-3.773036, 37.773187],
            [-3.773193, 37.773138],
            [-3.773192, 37.772989],
            [-3.773214, 37.772977],
            [-3.773308, 37.772661],
            [-3.77324, 37.772607],
            [-3.773173, 37.77262],
            [-3.772993, 37.772663],
            [-3.772813, 37.772676],
            [-3.77267, 37.772695],
            [-3.772333, 37.772762],
            [-3.771735, 37.772896],
            [-3.771747, 37.772754],
            [-3.771867, 37.772747],
            [-3.771987, 37.772747],
            [-3.772252, 37.772644],
            [-3.772368, 37.772369],
            [-3.772588, 37.772264],
            [-3.773768, 37.771835],
            [-3.774404, 37.771587],
            [-3.774643, 37.771496],
            [-3.775398, 37.771139],
            [-3.776429, 37.770613],
            [-3.776975, 37.770365],
            [-3.777169, 37.770281],
            [-3.777334, 37.770244],
            [-3.777432, 37.770243],
            [-3.777582, 37.770248],
            [-3.777762, 37.770253],
            [-3.777905, 37.770246],
            [-3.778032, 37.770198],
            [-3.778166, 37.770143],
            [-3.7783, 37.770017],
            [-3.778336, 37.76985],
            [-3.77844, 37.76976],
            [-3.778642, 37.769627],
            [-3.778664, 37.76961],
            [-3.778667, 37.769611],
            [-3.778715, 37.769472],
            [-3.779581, 37.769256],
            [-3.779946, 37.769294],
            [-3.781418, 37.769424],
            [-3.782335, 37.769288],
            [-3.783361, 37.768802],
            [-3.78385, 37.768669],
            [-3.784315, 37.768676],
            [-3.786782, 37.769192],
            [-3.786894, 37.768603],
            [-3.787401, 37.767665],
            [-3.787411, 37.767665],
            [-3.787331, 37.766957],
            [-3.789399, 37.765768],
            [-3.788928, 37.765207],
            [-3.78883, 37.764913],
            [-3.788842, 37.764912],
            [-3.788826, 37.764894],
            [-3.789223, 37.763336],
            [-3.78911, 37.762226],
            [-3.789058, 37.762239],
            [-3.788618, 37.76235],
            [-3.787898, 37.762769],
            [-3.787522, 37.762927],
            [-3.787249, 37.762944]
          ]
        ]
      }
    },
    {
      "type": "Feature",
      "properties": {
        "id": "san-juan",
        "name": "San Juan",
        "cityId": "jaen"
      },
      "geometry": {
        "type": "Polygon",
        "coordinates": [
          [
            [-3.793376, 37.770083],
            [-3.793517, 37.770267],
            [-3.793521, 37.770266],
            [-3.794173, 37.770014],
            [-3.794189, 37.770007],
            [-3.794667, 37.770279],
            [-3.79587, 37.770692],
            [-3.796543, 37.769524],
            [-3.796433, 37.769466],
            [-3.796305, 37.769401],
            [-3.796207, 37.76933],
            [-3.796138, 37.769259],
            [-3.796077, 37.769176],
            [-3.796008, 37.769057],
            [-3.795955, 37.76898],
            [-3.795894, 37.768903],
            [-3.79575, 37.768803],
            [-3.795405, 37.768787],
            [-3.794971, 37.76823],
            [-3.794268, 37.767161],
            [-3.794024, 37.766757],
            [-3.794006, 37.766507],
            [-3.79401, 37.76649],
            [-3.792396, 37.766456],
            [-3.79238, 37.766564],
            [-3.792382, 37.766727],
            [-3.791964, 37.766702],
            [-3.791812, 37.766918],
            [-3.791777, 37.767049],
            [-3.791813, 37.767336],
            [-3.792026, 37.767698],
            [-3.792151, 37.768144],
            [-3.792242, 37.768361],
            [-3.792462, 37.768678],
            [-3.792965, 37.769103],
            [-3.79321, 37.769401],
            [-3.793386, 37.770083],
            [-3.793376, 37.770083]
          ]
        ]
      }
    },
    {
      "type": "Feature",
      "properties": {
        "id": "san-roque",
        "name": "San Roque",
        "cityId": "jaen"
      },
      "geometry": {
        "type": "Polygon",
        "coordinates": [
          [
            [-3.786507, 37.770868],
            [-3.78644, 37.770892],
            [-3.785973, 37.771302],
            [-3.785462, 37.771403],
            [-3.785366, 37.771094],
            [-3.783965, 37.771364],
            [-3.783534, 37.770309],
            [-3.783072, 37.770255],
            [-3.78112, 37.771108],
            [-3.781108, 37.771154],
            [-3.780682, 37.771389],
            [-3.780751, 37.77149],
            [-3.780936, 37.771936],
            [-3.78105, 37.772132],
            [-3.78115, 37.772358],
            [-3.781623, 37.772325],
            [-3.782111, 37.773019],
            [-3.782067, 37.773073],
            [-3.782196, 37.773239],
            [-3.782099, 37.773312],
            [-3.782046, 37.7733],
            [-3.781979, 37.773312],
            [-3.781857, 37.773164],
            [-3.781353, 37.773817],
            [-3.781384, 37.773853],
            [-3.781443, 37.773805],
            [-3.781871, 37.773796],
            [-3.781939, 37.773784],
            [-3.782217, 37.773853],
            [-3.782161, 37.774205],
            [-3.782644, 37.774369],
            [-3.782832, 37.774434],
            [-3.78252, 37.774793],
            [-3.782377, 37.774753],
            [-3.782014, 37.775202],
            [-3.782158, 37.775291],
            [-3.782133, 37.77535],
            [-3.781305, 37.776399],
            [-3.779895, 37.777255],
            [-3.779753, 37.777381],
            [-3.779672, 37.777507],
            [-3.77969, 37.777817],
            [-3.779707, 37.777948],
            [-3.779708, 37.778031],
            [-3.779708, 37.778097],
            [-3.779725, 37.778204],
            [-3.779733, 37.778329],
            [-3.779967, 37.778381],
            [-3.779915, 37.778447],
            [-3.779847, 37.778448],
            [-3.779757, 37.778448],
            [-3.779669, 37.77864],
            [-3.779722, 37.778693],
            [-3.779798, 37.778758],
            [-3.780107, 37.778851],
            [-3.780174, 37.778851],
            [-3.780536, 37.778944],
            [-3.780522, 37.77901],
            [-3.780538, 37.779014],
            [-3.780751, 37.778478],
            [-3.781574, 37.77879],
            [-3.783091, 37.777902],
            [-3.783779, 37.777035],
            [-3.784388, 37.777389],
            [-3.784348, 37.777495],
            [-3.785347, 37.777872],
            [-3.78575, 37.775494],
            [-3.786507, 37.770868]
          ]
        ]
      }
    },
    {
      "type": "Feature",
      "properties": {
        "id": "san-vicente-paul",
        "name": "San Vicente Paul",
        "cityId": "jaen"
      },
      "geometry": {
        "type": "Polygon",
        "coordinates": [
          [
            [-3.79878, 37.771691],
            [-3.798919, 37.771927],
            [-3.799034, 37.772206],
            [-3.799314, 37.772381],
            [-3.799585, 37.772453],
            [-3.799919, 37.772444],
            [-3.800161, 37.77242],
            [-3.80085, 37.772614],
            [-3.801335, 37.772773],
            [-3.801905, 37.773006],
            [-3.802261, 37.773291],
            [-3.802495, 37.773415],
            [-3.8027, 37.773458],
            [-3.802778, 37.773445],
            [-3.802779, 37.773443],
            [-3.802836, 37.773303],
            [-3.802949, 37.773314],
            [-3.802963, 37.773249],
            [-3.802873, 37.77322],
            [-3.802902, 37.773166],
            [-3.803015, 37.773207],
            [-3.803083, 37.773206],
            [-3.803105, 37.773188],
            [-3.803308, 37.773175],
            [-3.803315, 37.773109],
            [-3.80336, 37.773091],
            [-3.803381, 37.773001],
            [-3.803561, 37.773],
            [-3.803577, 37.773048],
            [-3.803622, 37.773048],
            [-3.803651, 37.772994],
            [-3.803771, 37.772975],
            [-3.803807, 37.772838],
            [-3.80389, 37.772837],
            [-3.803882, 37.772813],
            [-3.804025, 37.772794],
            [-3.804039, 37.772723],
            [-3.804069, 37.772728],
            [-3.804145, 37.7728],
            [-3.804273, 37.772799],
            [-3.804332, 37.772774],
            [-3.804392, 37.772738],
            [-3.804414, 37.772684],
            [-3.804421, 37.772637],
            [-3.80442, 37.772577],
            [-3.804412, 37.772488],
            [-3.804396, 37.772404],
            [-3.804388, 37.772309],
            [-3.804342, 37.77225],
            [-3.804274, 37.772202],
            [-3.804221, 37.772155],
            [-3.80386, 37.772181],
            [-3.803771, 37.772206],
            [-3.803711, 37.772266],
            [-3.803606, 37.772314],
            [-3.803561, 37.772285],
            [-3.803508, 37.772255],
            [-3.803425, 37.772238],
            [-3.803343, 37.772257],
            [-3.803314, 37.77231],
            [-3.803028, 37.7723],
            [-3.80284, 37.77223],
            [-3.802689, 37.772189],
            [-3.802267, 37.772049],
            [-3.802155, 37.772139],
            [-3.801553, 37.772072],
            [-3.801448, 37.772079],
            [-3.801306, 37.77208],
            [-3.801019, 37.771992],
            [-3.800951, 37.771957],
            [-3.80095, 37.771838],
            [-3.800792, 37.771785],
            [-3.800611, 37.771774],
            [-3.800537, 37.771823],
            [-3.800417, 37.771805],
            [-3.800408, 37.771716],
            [-3.80034, 37.771705],
            [-3.800235, 37.77167],
            [-3.800242, 37.771604],
            [-3.800241, 37.771538],
            [-3.800203, 37.771515],
            [-3.80021, 37.771479],
            [-3.800217, 37.771407],
            [-3.800216, 37.7713],
            [-3.800222, 37.771193],
            [-3.800251, 37.771109],
            [-3.800138, 37.77108],
            [-3.800086, 37.771134],
            [-3.800097, 37.77139],
            [-3.800023, 37.77154],
            [-3.799903, 37.771517],
            [-3.799827, 37.771446],
            [-3.799714, 37.771458],
            [-3.799647, 37.771519],
            [-3.799595, 37.771519],
            [-3.799506, 37.771639],
            [-3.799544, 37.771686],
            [-3.79956, 37.771776],
            [-3.799402, 37.771794],
            [-3.799327, 37.771795],
            [-3.7992, 37.77182],
            [-3.799094, 37.771743],
            [-3.798921, 37.771678],
            [-3.798907, 37.771774],
            [-3.798794, 37.7717],
            [-3.79878, 37.771691]
          ]
        ]
      }
    },
    {
      "type": "Feature",
      "properties": {
        "id": "santa-isabel-ciudad-sanitaria",
        "name": "Santa Isabel-Ciudad Sanitaria",
        "cityId": "jaen"
      },
      "geometry": {
        "type": "Polygon",
        "coordinates": [
          [
            [-3.791151, 37.777099],
            [-3.791128, 37.777142],
            [-3.801841, 37.778129],
            [-3.801838, 37.778125],
            [-3.808574, 37.778647],
            [-3.808193, 37.778379],
            [-3.808111, 37.778353],
            [-3.807968, 37.778312],
            [-3.807514, 37.778053],
            [-3.807469, 37.778017],
            [-3.807513, 37.777904],
            [-3.807078, 37.777322],
            [-3.805859, 37.776365],
            [-3.80576, 37.776252],
            [-3.805676, 37.776163],
            [-3.805675, 37.776098],
            [-3.805667, 37.776014],
            [-3.805666, 37.775955],
            [-3.805613, 37.775878],
            [-3.805576, 37.775842],
            [-3.805429, 37.775763],
            [-3.805121, 37.775595],
            [-3.80472, 37.775524],
            [-3.804542, 37.775407],
            [-3.804319, 37.775357],
            [-3.803954, 37.775131],
            [-3.803278, 37.774531],
            [-3.803073, 37.774444],
            [-3.800687, 37.773818],
            [-3.800091, 37.773704],
            [-3.799431, 37.773694],
            [-3.79904, 37.773674],
            [-3.798602, 37.773574],
            [-3.797632, 37.773226],
            [-3.797242, 37.773229],
            [-3.796789, 37.773326],
            [-3.796406, 37.77345],
            [-3.796392, 37.773448],
            [-3.796165, 37.773665],
            [-3.7957, 37.774172],
            [-3.795375, 37.774466],
            [-3.794906, 37.774583],
            [-3.794333, 37.774587],
            [-3.793598, 37.774689],
            [-3.793128, 37.774709],
            [-3.791938, 37.774441],
            [-3.79181, 37.775854],
            [-3.791151, 37.777099]
          ]
        ]
      }
    },
    {
      "type": "Feature",
      "properties": {
        "id": "santa-maria-del-valle-nuevo-mundo",
        "name": "Santa María del Valle-Nuevo Mundo",
        "cityId": "jaen"
      },
      "geometry": {
        "type": "Polygon",
        "coordinates": [
          [
            [-3.785347, 37.777872],
            [-3.784348, 37.777495],
            [-3.784388, 37.777389],
            [-3.783779, 37.777035],
            [-3.783091, 37.777902],
            [-3.781574, 37.77879],
            [-3.780751, 37.778478],
            [-3.780538, 37.779014],
            [-3.780808, 37.779097],
            [-3.780651, 37.779146],
            [-3.780509, 37.779188],
            [-3.780314, 37.779249],
            [-3.780171, 37.779256],
            [-3.780058, 37.779245],
            [-3.780012, 37.779132],
            [-3.779614, 37.779171],
            [-3.779642, 37.779689],
            [-3.780071, 37.779686],
            [-3.780128, 37.780109],
            [-3.780129, 37.780228],
            [-3.780099, 37.780294],
            [-3.780063, 37.780384],
            [-3.780034, 37.780503],
            [-3.780005, 37.780581],
            [-3.779968, 37.780653],
            [-3.780006, 37.7807],
            [-3.77994, 37.78082],
            [-3.779895, 37.780868],
            [-3.779798, 37.780904],
            [-3.779818, 37.780971],
            [-3.779657, 37.781084],
            [-3.779598, 37.781186],
            [-3.77943, 37.781592],
            [-3.779326, 37.781718],
            [-3.778464, 37.781205],
            [-3.778224, 37.781225],
            [-3.778096, 37.781243],
            [-3.777977, 37.781351],
            [-3.777911, 37.781453],
            [-3.777798, 37.781442],
            [-3.777299, 37.781809],
            [-3.776977, 37.781966],
            [-3.776903, 37.782014],
            [-3.776373, 37.782375],
            [-3.775204, 37.781876],
            [-3.774989, 37.782158],
            [-3.774855, 37.782332],
            [-3.775799, 37.782791],
            [-3.775754, 37.782827],
            [-3.775664, 37.782833],
            [-3.775507, 37.782858],
            [-3.775507, 37.782912],
            [-3.775523, 37.782953],
            [-3.775568, 37.782983],
            [-3.775621, 37.78303],
            [-3.775397, 37.783175],
            [-3.774935, 37.783464],
            [-3.775571, 37.783984],
            [-3.775259, 37.784267],
            [-3.776132, 37.784977],
            [-3.776165, 37.785004],
            [-3.776607, 37.784924],
            [-3.777237, 37.784966],
            [-3.77846, 37.785041],
            [-3.779521, 37.785108],
            [-3.780173, 37.785039],
            [-3.78276, 37.784069],
            [-3.783085, 37.783993],
            [-3.783459, 37.784055],
            [-3.78378, 37.784184],
            [-3.783939, 37.783721],
            [-3.783838, 37.783155],
            [-3.783492, 37.781912],
            [-3.783789, 37.780834],
            [-3.784542, 37.780074],
            [-3.785017, 37.77982],
            [-3.785347, 37.777872]
          ]
        ]
      }
    },
    {
      "type": "Feature",
      "properties": {
        "id": "valparaiso",
        "name": "Valparaiso",
        "cityId": "jaen"
      },
      "geometry": {
        "type": "Polygon",
        "coordinates": [
          [
            [-3.792023, 37.75859],
            [-3.792025, 37.758555],
            [-3.792014, 37.758586],
            [-3.792014, 37.758544],
            [-3.792005, 37.75846],
            [-3.791997, 37.758389],
            [-3.791981, 37.758306],
            [-3.791935, 37.758216],
            [-3.791874, 37.758133],
            [-3.791813, 37.757991],
            [-3.791766, 37.757842],
            [-3.791764, 37.757711],
            [-3.791778, 37.757592],
            [-3.79179, 37.757311],
            [-3.791962, 37.757209],
            [-3.792232, 37.757231],
            [-3.792499, 37.756877],
            [-3.792551, 37.756811],
            [-3.792618, 37.756757],
            [-3.792632, 37.756656],
            [-3.792631, 37.756596],
            [-3.79263, 37.756513],
            [-3.792614, 37.756435],
            [-3.792591, 37.75637],
            [-3.79256, 37.756304],
            [-3.792545, 37.756263],
            [-3.791755, 37.756083],
            [-3.791681, 37.756185],
            [-3.791681, 37.756251],
            [-3.79166, 37.75634],
            [-3.791699, 37.756477],
            [-3.791708, 37.756596],
            [-3.791746, 37.756715],
            [-3.791755, 37.756852],
            [-3.791773, 37.757079],
            [-3.791767, 37.757216],
            [-3.791663, 37.757286],
            [-3.791, 37.757156],
            [-3.790967, 37.757555],
            [-3.790932, 37.757806],
            [-3.791271, 37.757875],
            [-3.791271, 37.757929],
            [-3.791272, 37.758],
            [-3.791258, 37.758078],
            [-3.791259, 37.758155],
            [-3.791357, 37.758202],
            [-3.791297, 37.758274],
            [-3.791276, 37.758352],
            [-3.791269, 37.758424],
            [-3.79124, 37.758525],
            [-3.791356, 37.758828],
            [-3.791289, 37.758894],
            [-3.791221, 37.758901],
            [-3.791169, 37.758877],
            [-3.791056, 37.758836],
            [-3.790988, 37.758831],
            [-3.790875, 37.758844],
            [-3.790808, 37.758844],
            [-3.790748, 37.758874],
            [-3.790696, 37.758892],
            [-3.790652, 37.758976],
            [-3.790645, 37.759054],
            [-3.790638, 37.759137],
            [-3.790625, 37.759275],
            [-3.790603, 37.759352],
            [-3.790566, 37.759418],
            [-3.790559, 37.759496],
            [-3.790508, 37.759603],
            [-3.790419, 37.759699],
            [-3.790322, 37.759718],
            [-3.790261, 37.759682],
            [-3.790141, 37.759713],
            [-3.790074, 37.759713],
            [-3.78999, 37.759654],
            [-3.789959, 37.759559],
            [-3.789899, 37.7595],
            [-3.789785, 37.759527],
            [-3.789648, 37.759809],
            [-3.789504, 37.759965],
            [-3.789458, 37.760255],
            [-3.78947, 37.760622],
            [-3.789593, 37.760711],
            [-3.789243, 37.76135],
            [-3.78906, 37.761731],
            [-3.78907, 37.761905],
            [-3.789219, 37.762033],
            [-3.789283, 37.761977],
            [-3.78995, 37.761629],
            [-3.790323, 37.761283],
            [-3.790706, 37.760515],
            [-3.790953, 37.760059],
            [-3.791188, 37.759846],
            [-3.791475, 37.759279],
            [-3.791612, 37.75899],
            [-3.792023, 37.75859]
          ]
        ]
      }
    }
  ]
}
